{
"type": "FeatureCollection",
"name": "cool_cycle_shelter1_route2_edges",
"crs": { "type": "name", "properties": { "name": "urn:ogc:def:crs:OGC:1.3:CRS84" } },
"features": [
{ "type": "Feature", "properties": { "u": 3641672250, "v": 3642437651, "length": 54.57205582363882, "heat_score": 20.09 }, "geometry": { "type": "LineString", "coordinates": [ [ 127.1013037, 37.3248179 ], [ 127.1016772, 37.3244272 ] ] } },
{ "type": "Feature", "properties": { "u": 3642437651, "v": 3642437650, "length": 38.969066581051905, "heat_score": 21.775 }, "geometry": { "type": "LineString", "coordinates": [ [ 127.1013037, 37.3248179 ], [ 127.101037, 37.3250969 ] ] } },
{ "type": "Feature", "properties": { "u": 3642437650, "v": 3641672247, "length": 53.82425599172835, "heat_score": 23.315 }, "geometry": { "type": "LineString", "coordinates": [ [ 127.101037, 37.3250969 ], [ 127.10055850000002, 37.3247977 ] ] } },
{ "type": "Feature", "properties": { "u": 3641672247, "v": 3642437652, "length": 38.633357235754922, "heat_score": 22.25 }, "geometry": { "type": "LineString", "coordinates": [ [ 127.1008219, 37.3245205 ], [ 127.10055850000002, 37.3247977 ] ] } },
{ "type": "Feature", "properties": { "u": 3642437652, "v": 3641673371, "length": 8.0401889449574035, "heat_score": 21.19 }, "geometry": { "type": "LineString", "coordinates": [ [ 127.1008219, 37.3245205 ], [ 127.1008767, 37.3244628 ] ] } },
{ "type": "Feature", "properties": { "u": 3641673371, "v": 3641673372, "length": 127.32676414290825, "heat_score": 20.69 }, "geometry": { "type": "LineString", "coordinates": [ [ 127.0997139, 37.3237874 ], [ 127.1008767, 37.3244628 ] ] } },
{ "type": "Feature", "properties": { "u": 3641673372, "v": 3641674136, "length": 117.85942325939115, "heat_score": 21.74 }, "geometry": { "type": "LineString", "coordinates": [ [ 127.0985459, 37.3236098 ], [ 127.098839500000011, 37.3236594 ], [ 127.0989575, 37.3236722 ], [ 127.0990272, 37.3236636 ], [ 127.099102300000013, 37.3236295 ], [ 127.0991667, 37.3235911 ], [ 127.099263300000018, 37.3235314 ], [ 127.0997139, 37.3237874 ] ] } },
{ "type": "Feature", "properties": { "u": 3641674136, "v": 3641674129, "length": 22.414717890342978, "heat_score": 23.3 }, "geometry": { "type": "LineString", "coordinates": [ [ 127.0985459, 37.3236098 ], [ 127.0983393, 37.323493 ] ] } },
{ "type": "Feature", "properties": { "u": 3641674129, "v": 3641674128, "length": 47.741302481374461, "heat_score": 22.46 }, "geometry": { "type": "LineString", "coordinates": [ [ 127.0983393, 37.323493 ], [ 127.0980298, 37.3238448 ] ] } },
{ "type": "Feature", "properties": { "u": 3641674128, "v": 3638088182, "length": 53.947999186482356, "heat_score": 22.505 }, "geometry": { "type": "LineString", "coordinates": [ [ 127.0980298, 37.3238448 ], [ 127.0977439, 37.3241749 ], [ 127.097683799999984, 37.3242444 ] ] } },
{ "type": "Feature", "properties": { "u": 3638088182, "v": 3653760000, "length": 60.084247783375524, "heat_score": 21.74 }, "geometry": { "type": "LineString", "coordinates": [ [ 127.0972807, 37.3246794 ], [ 127.0975993, 37.3243356 ], [ 127.097683799999984, 37.3242444 ] ] } },
{ "type": "Feature", "properties": { "u": 3653760000, "v": 3653759997, "length": 88.807228396214853, "heat_score": 21.485 }, "geometry": { "type": "LineString", "coordinates": [ [ 127.0964675, 37.3242107 ], [ 127.0972807, 37.3246794 ] ] } },
{ "type": "Feature", "properties": { "u": 3653759997, "v": 3638084967, "length": 60.329724318827829, "heat_score": 23.095 }, "geometry": { "type": "LineString", "coordinates": [ [ 127.0964675, 37.3242107 ], [ 127.096814900000012, 37.3238589 ], [ 127.0968735, 37.3237996 ], [ 127.0968889, 37.323784 ] ] } },
{ "type": "Feature", "properties": { "u": 3638084967, "v": 3641792340, "length": 53.309820148995314, "heat_score": 23.31 }, "geometry": { "type": "LineString", "coordinates": [ [ 127.097248, 37.3233989 ], [ 127.096966099999989, 37.3237013 ], [ 127.096912900000021, 37.3237583 ], [ 127.0968889, 37.323784 ] ] } },
{ "type": "Feature", "properties": { "u": 3641792340, "v": 3641674128, "length": 85.07295269045288, "heat_score": 22.465 }, "geometry": { "type": "LineString", "coordinates": [ [ 127.097248, 37.3233989 ], [ 127.0980298, 37.3238448 ] ] } },
{ "type": "Feature", "properties": { "u": 3641674128, "v": 3641673369, "length": 115.16947858481565, "heat_score": 22.455 }, "geometry": { "type": "LineString", "coordinates": [ [ 127.0980298, 37.3238448 ], [ 127.0990664, 37.3244719 ] ] } },
{ "type": "Feature", "properties": { "u": 3641673369, "v": 3638084968, "length": 51.852777064167036, "heat_score": 23.32 }, "geometry": { "type": "LineString", "coordinates": [ [ 127.0990664, 37.3244719 ], [ 127.0987158, 37.3248457 ] ] } },
{ "type": "Feature", "properties": { "u": 3638084968, "v": 3638067890, "length": 126.778631926914, "heat_score": 23.34 }, "geometry": { "type": "LineString", "coordinates": [ [ 127.0987158, 37.3248457 ], [ 127.0988516, 37.324925800000017 ], [ 127.0998509, 37.3255422 ] ] } },
{ "type": "Feature", "properties": { "u": 3638067890, "v": 3641671031, "length": 47.124729822835469, "heat_score": 22.04 }, "geometry": { "type": "LineString", "coordinates": [ [ 127.0995279, 37.3258793 ], [ 127.0998509, 37.3255422 ] ] } },
{ "type": "Feature", "properties": { "u": 3641671031, "v": 3641671032, "length": 60.302865723051319, "heat_score": 22.04 }, "geometry": { "type": "LineString", "coordinates": [ [ 127.0993777, 37.3264083 ], [ 127.0995279, 37.3258793 ] ] } },
{ "type": "Feature", "properties": { "u": 3641671032, "v": 3641668359, "length": 79.680870983653918, "heat_score": 23.315 }, "geometry": { "type": "LineString", "coordinates": [ [ 127.0993777, 37.3264083 ], [ 127.099989, 37.3269348 ] ] } },
{ "type": "Feature", "properties": { "u": 3641668359, "v": 3641669063, "length": 33.81563620694488, "heat_score": 23.31 }, "geometry": { "type": "LineString", "coordinates": [ [ 127.1002392, 37.3271648 ], [ 127.099989, 37.3269348 ] ] } },
{ "type": "Feature", "properties": { "u": 3641669063, "v": 3641669065, "length": 76.931598409046799, "heat_score": 23.315 }, "geometry": { "type": "LineString", "coordinates": [ [ 127.1008111, 37.3266434 ], [ 127.1002392, 37.3271648 ] ] } },
{ "type": "Feature", "properties": { "u": 3641669065, "v": 3641668350, "length": 42.462850920426909, "heat_score": 22.45 }, "geometry": { "type": "LineString", "coordinates": [ [ 127.1008111, 37.3266434 ], [ 127.101195500000017, 37.3268723 ] ] } },
{ "type": "Feature", "properties": { "u": 3641668350, "v": 3638087028, "length": 48.229769337635403, "heat_score": 22.71 }, "geometry": { "type": "LineString", "coordinates": [ [ 127.101195500000017, 37.3268723 ], [ 127.1015051, 37.32651520000001 ] ] } },
{ "type": "Feature", "properties": { "u": 3638087028, "v": 3638087029, "length": 49.965164947944523, "heat_score": 22.925 }, "geometry": { "type": "LineString", "coordinates": [ [ 127.1017969, 37.3261304 ], [ 127.1015051, 37.32651520000001 ] ] } },
{ "type": "Feature", "properties": { "u": 3638087029, "v": 3406879331, "length": 95.166622470941462, "heat_score": 22.245 }, "geometry": { "type": "LineString", "coordinates": [ [ 127.1017969, 37.3261304 ], [ 127.1028727, 37.3261559 ] ] } },
{ "type": "Feature", "properties": { "u": 3406879331, "v": 3641671616, "length": 102.10481948328464, "heat_score": 22.93 }, "geometry": { "type": "LineString", "coordinates": [ [ 127.1028727, 37.3261559 ], [ 127.1028894, 37.3258329 ], [ 127.1029014, 37.325238 ] ] } },
{ "type": "Feature", "properties": { "u": 3641671616, "v": 13535969850, "length": 89.286514758011592, "heat_score": 22.715 }, "geometry": { "type": "LineString", "coordinates": [ [ 127.1029014, 37.325238 ], [ 127.102913500000014, 37.3245146 ], [ 127.102914900000016, 37.3244351 ] ] } },
{ "type": "Feature", "properties": { "u": 13535969850, "v": 3406879334, "length": 5.4378997216453167, "heat_score": 22.03 }, "geometry": { "type": "LineString", "coordinates": [ [ 127.102914900000016, 37.3244351 ], [ 127.1029157, 37.3243862 ] ] } },
{ "type": "Feature", "properties": { "u": 3406879334, "v": 7857963317, "length": 40.818004592477138, "heat_score": 22.935 }, "geometry": { "type": "LineString", "coordinates": [ [ 127.1029157, 37.3243862 ], [ 127.10288, 37.3243514 ], [ 127.1028525, 37.3243067 ], [ 127.1028136, 37.3242608 ], [ 127.102776, 37.3242245 ], [ 127.102623399999985, 37.3241054 ] ] } },
{ "type": "Feature", "properties": { "u": 7857963317, "v": 7857963316, "length": 19.743231959396709, "heat_score": 23.15 }, "geometry": { "type": "LineString", "coordinates": [ [ 127.102623399999985, 37.3241054 ], [ 127.1025191, 37.3240696 ], [ 127.1024181, 37.3240356 ] ] } },
{ "type": "Feature", "properties": { "u": 7857963316, "v": 7857963315, "length": 80.929075065359768, "heat_score": 21.595 }, "geometry": { "type": "LineString", "coordinates": [ [ 127.1024181, 37.3240356 ], [ 127.1021864, 37.3239458 ], [ 127.101756900000012, 37.3237364 ], [ 127.1016203, 37.3236804 ] ] } },
{ "type": "Feature", "properties": { "u": 7857963315, "v": 7857963324, "length": 128.98375353135845, "heat_score": 22.29 }, "geometry": { "type": "LineString", "coordinates": [ [ 127.1016203, 37.3236804 ], [ 127.101445100000021, 37.3236086 ], [ 127.1011879, 37.3234604 ], [ 127.100766800000017, 37.3231996 ], [ 127.1004386, 37.3230039 ] ] } },
{ "type": "Feature", "properties": { "u": 7857963324, "v": 3641673373, "length": 59.037082229524287, "heat_score": 21.99 }, "geometry": { "type": "LineString", "coordinates": [ [ 127.1004386, 37.3230039 ], [ 127.100042500000015, 37.3234313 ] ] } },
{ "type": "Feature", "properties": { "u": 3641673373, "v": 3641673372, "length": 49.113798947644128, "heat_score": 20.16 }, "geometry": { "type": "LineString", "coordinates": [ [ 127.100042500000015, 37.3234313 ], [ 127.0997139, 37.3237874 ] ] } },
{ "type": "Feature", "properties": { "u": 3641673372, "v": 3641673370, "length": 44.680277691866216, "heat_score": 20.45 }, "geometry": { "type": "LineString", "coordinates": [ [ 127.0997139, 37.3237874 ], [ 127.0994083, 37.3241074 ] ] } },
{ "type": "Feature", "properties": { "u": 3641673370, "v": 3641672247, "length": 127.41956063898088, "heat_score": 22.01 }, "geometry": { "type": "LineString", "coordinates": [ [ 127.0994083, 37.3241074 ], [ 127.10055850000002, 37.3247977 ] ] } },
{ "type": "Feature", "properties": { "u": 3641672247, "v": 3641672246, "length": 51.601608047933659, "heat_score": 22.0 }, "geometry": { "type": "LineString", "coordinates": [ [ 127.10055850000002, 37.3247977 ], [ 127.100206600000021, 37.3251679 ] ] } },
{ "type": "Feature", "properties": { "u": 3641672246, "v": 3638087029, "length": 176.71430220933169, "heat_score": 21.36 }, "geometry": { "type": "LineString", "coordinates": [ [ 127.100206600000021, 37.3251679 ], [ 127.1017969, 37.3261304 ] ] } },
{ "type": "Feature", "properties": { "u": 3638087029, "v": 3641672248, "length": 49.656991665949143, "heat_score": 21.03 }, "geometry": { "type": "LineString", "coordinates": [ [ 127.101965400000012, 37.3257044 ], [ 127.1017969, 37.3261304 ] ] } },
{ "type": "Feature", "properties": { "u": 3641672248, "v": 3641671615, "length": 54.913565474294359, "heat_score": 20.105 }, "geometry": { "type": "LineString", "coordinates": [ [ 127.101965400000012, 37.3257044 ], [ 127.1021056, 37.3252233 ] ] } },
{ "type": "Feature", "properties": { "u": 3641671615, "v": 3641672251, "length": 65.49962512731787, "heat_score": 20.205 }, "geometry": { "type": "LineString", "coordinates": [ [ 127.1022571, 37.32464670000001 ], [ 127.1021056, 37.3252233 ] ] } },
{ "type": "Feature", "properties": { "u": 3641672251, "v": 3641672250, "length": 56.78951127175619, "heat_score": 20.09 }, "geometry": { "type": "LineString", "coordinates": [ [ 127.1022571, 37.32464670000001 ], [ 127.1016772, 37.3244272 ] ] } }
]
}
