{
"type": "FeatureCollection",
"name": "cool_cycle_shelter2_5km_edges",
"crs": { "type": "name", "properties": { "name": "urn:ogc:def:crs:OGC:1.3:CRS84" } },
"features": [
{ "type": "Feature", "properties": { "u": 3653759994, "v": 3653759995, "length": 87.407934434880517, "heat_score": 20.28 }, "geometry": { "type": "LineString", "coordinates": [ [ 127.0961601, 37.3245603 ], [ 127.0953701, 37.3240878 ] ] } },
{ "type": "Feature", "properties": { "u": 3653759995, "v": 3653759997, "length": 47.434263013041161, "heat_score": 21.82 }, "geometry": { "type": "LineString", "coordinates": [ [ 127.0964675, 37.3242107 ], [ 127.0961601, 37.3245603 ] ] } },
{ "type": "Feature", "properties": { "u": 3653759997, "v": 3638084967, "length": 60.329724318827829, "heat_score": 23.095 }, "geometry": { "type": "LineString", "coordinates": [ [ 127.0964675, 37.3242107 ], [ 127.096814900000012, 37.3238589 ], [ 127.0968735, 37.3237996 ], [ 127.0968889, 37.323784 ] ] } },
{ "type": "Feature", "properties": { "u": 3638084967, "v": 3641792340, "length": 53.309820148995314, "heat_score": 23.31 }, "geometry": { "type": "LineString", "coordinates": [ [ 127.097248, 37.3233989 ], [ 127.096966099999989, 37.3237013 ], [ 127.096912900000021, 37.3237583 ], [ 127.0968889, 37.323784 ] ] } },
{ "type": "Feature", "properties": { "u": 3641792340, "v": 3641674128, "length": 85.07295269045288, "heat_score": 22.465 }, "geometry": { "type": "LineString", "coordinates": [ [ 127.097248, 37.3233989 ], [ 127.0980298, 37.3238448 ] ] } },
{ "type": "Feature", "properties": { "u": 3641674128, "v": 3638088182, "length": 53.947999186482356, "heat_score": 22.505 }, "geometry": { "type": "LineString", "coordinates": [ [ 127.0980298, 37.3238448 ], [ 127.0977439, 37.3241749 ], [ 127.097683799999984, 37.3242444 ] ] } },
{ "type": "Feature", "properties": { "u": 3638088182, "v": 3653760000, "length": 60.084247783375524, "heat_score": 21.74 }, "geometry": { "type": "LineString", "coordinates": [ [ 127.0972807, 37.3246794 ], [ 127.0975993, 37.3243356 ], [ 127.097683799999984, 37.3242444 ] ] } },
{ "type": "Feature", "properties": { "u": 3653760000, "v": 3653759997, "length": 88.807228396214853, "heat_score": 21.485 }, "geometry": { "type": "LineString", "coordinates": [ [ 127.0964675, 37.3242107 ], [ 127.0972807, 37.3246794 ] ] } },
{ "type": "Feature", "properties": { "u": 3653759997, "v": 3653759996, "length": 85.933327591746732, "heat_score": 21.47 }, "geometry": { "type": "LineString", "coordinates": [ [ 127.0964675, 37.3242107 ], [ 127.095679500000017, 37.3237584 ] ] } },
{ "type": "Feature", "properties": { "u": 3653759996, "v": 3638087285, "length": 62.83393112139489, "heat_score": 21.725 }, "geometry": { "type": "LineString", "coordinates": [ [ 127.0961002, 37.323303 ], [ 127.096022599999984, 37.323387 ], [ 127.095679500000017, 37.3237584 ] ] } },
{ "type": "Feature", "properties": { "u": 3638087285, "v": 3641792346, "length": 53.496593079207237, "heat_score": 21.765 }, "geometry": { "type": "LineString", "coordinates": [ [ 127.0964603, 37.3229164 ], [ 127.0961517, 37.3232477 ], [ 127.0961002, 37.323303 ] ] } },
{ "type": "Feature", "properties": { "u": 3641792346, "v": 3638087286, "length": 49.444299071026343, "heat_score": 20.16 }, "geometry": { "type": "LineString", "coordinates": [ [ 127.0964603, 37.3229164 ], [ 127.096782, 37.32255270000001 ] ] } },
{ "type": "Feature", "properties": { "u": 3638087286, "v": 4218107089, "length": 87.413014974077043, "heat_score": 22.005 }, "geometry": { "type": "LineString", "coordinates": [ [ 127.0975693, 37.3230281 ], [ 127.096782, 37.32255270000001 ] ] } },
{ "type": "Feature", "properties": { "u": 4218107089, "v": 3641792343, "length": 44.955905859692294, "heat_score": 22.025 }, "geometry": { "type": "LineString", "coordinates": [ [ 127.0975693, 37.3230281 ], [ 127.09797420000001, 37.3232726 ] ] } },
{ "type": "Feature", "properties": { "u": 3641792343, "v": 3641674129, "length": 40.532364141679054, "heat_score": 21.77 }, "geometry": { "type": "LineString", "coordinates": [ [ 127.09797420000001, 37.3232726 ], [ 127.0983393, 37.323493 ] ] } },
{ "type": "Feature", "properties": { "u": 3641674129, "v": 3641674136, "length": 22.414717890342978, "heat_score": 23.3 }, "geometry": { "type": "LineString", "coordinates": [ [ 127.0985459, 37.3236098 ], [ 127.0983393, 37.323493 ] ] } },
{ "type": "Feature", "properties": { "u": 3641674136, "v": 3641673370, "length": 94.21613651906037, "heat_score": 22.0 }, "geometry": { "type": "LineString", "coordinates": [ [ 127.0985459, 37.3236098 ], [ 127.0994083, 37.3241074 ] ] } },
{ "type": "Feature", "properties": { "u": 3641673370, "v": 3641672247, "length": 127.41956063898088, "heat_score": 22.01 }, "geometry": { "type": "LineString", "coordinates": [ [ 127.0994083, 37.3241074 ], [ 127.10055850000002, 37.3247977 ] ] } },
{ "type": "Feature", "properties": { "u": 3641672247, "v": 3642437650, "length": 53.82425599172835, "heat_score": 23.315 }, "geometry": { "type": "LineString", "coordinates": [ [ 127.101037, 37.3250969 ], [ 127.10055850000002, 37.3247977 ] ] } },
{ "type": "Feature", "properties": { "u": 3642437650, "v": 3642437651, "length": 38.969066581051905, "heat_score": 21.775 }, "geometry": { "type": "LineString", "coordinates": [ [ 127.1013037, 37.3248179 ], [ 127.101037, 37.3250969 ] ] } },
{ "type": "Feature", "properties": { "u": 3642437651, "v": 3642437652, "length": 53.931099683906723, "heat_score": 20.71 }, "geometry": { "type": "LineString", "coordinates": [ [ 127.1008219, 37.3245205 ], [ 127.1013037, 37.3248179 ] ] } },
{ "type": "Feature", "properties": { "u": 3642437652, "v": 3641672247, "length": 38.633357235754922, "heat_score": 22.25 }, "geometry": { "type": "LineString", "coordinates": [ [ 127.1008219, 37.3245205 ], [ 127.10055850000002, 37.3247977 ] ] } },
{ "type": "Feature", "properties": { "u": 3641672247, "v": 3641672246, "length": 51.601608047933659, "heat_score": 22.0 }, "geometry": { "type": "LineString", "coordinates": [ [ 127.10055850000002, 37.3247977 ], [ 127.100206600000021, 37.3251679 ] ] } },
{ "type": "Feature", "properties": { "u": 3641672246, "v": 3638067890, "length": 52.167817842224714, "heat_score": 22.015 }, "geometry": { "type": "LineString", "coordinates": [ [ 127.100206600000021, 37.3251679 ], [ 127.0998509, 37.3255422 ] ] } },
{ "type": "Feature", "properties": { "u": 3638067890, "v": 3638084968, "length": 126.778631926914, "heat_score": 23.34 }, "geometry": { "type": "LineString", "coordinates": [ [ 127.0987158, 37.3248457 ], [ 127.0988516, 37.324925800000017 ], [ 127.0998509, 37.3255422 ] ] } },
{ "type": "Feature", "properties": { "u": 3638084968, "v": 3641673369, "length": 51.852777064167036, "heat_score": 23.32 }, "geometry": { "type": "LineString", "coordinates": [ [ 127.0990664, 37.3244719 ], [ 127.0987158, 37.3248457 ] ] } },
{ "type": "Feature", "properties": { "u": 3641673369, "v": 3641673370, "length": 50.563993744727341, "heat_score": 22.005 }, "geometry": { "type": "LineString", "coordinates": [ [ 127.0994083, 37.3241074 ], [ 127.0990664, 37.3244719 ] ] } },
{ "type": "Feature", "properties": { "u": 3641673370, "v": 3641673372, "length": 44.680277691866216, "heat_score": 20.45 }, "geometry": { "type": "LineString", "coordinates": [ [ 127.0997139, 37.3237874 ], [ 127.0994083, 37.3241074 ] ] } },
{ "type": "Feature", "properties": { "u": 3641673372, "v": 3641673371, "length": 127.32676414290825, "heat_score": 20.69 }, "geometry": { "type": "LineString", "coordinates": [ [ 127.0997139, 37.3237874 ], [ 127.1008767, 37.3244628 ] ] } },
{ "type": "Feature", "properties": { "u": 3641673371, "v": 3641672249, "length": 45.535677416977052, "heat_score": 20.65 }, "geometry": { "type": "LineString", "coordinates": [ [ 127.1008767, 37.3244628 ], [ 127.101187199999984, 37.3241361 ] ] } },
{ "type": "Feature", "properties": { "u": 3641672249, "v": 7857963315, "length": 63.515732753465748, "heat_score": 20.42 }, "geometry": { "type": "LineString", "coordinates": [ [ 127.1016203, 37.3236804 ], [ 127.101187199999984, 37.3241361 ] ] } },
{ "type": "Feature", "properties": { "u": 7857963315, "v": 7857963324, "length": 128.98375353135845, "heat_score": 22.29 }, "geometry": { "type": "LineString", "coordinates": [ [ 127.1016203, 37.3236804 ], [ 127.101445100000021, 37.3236086 ], [ 127.1011879, 37.3234604 ], [ 127.100766800000017, 37.3231996 ], [ 127.1004386, 37.3230039 ] ] } },
{ "type": "Feature", "properties": { "u": 7857963324, "v": 3641673373, "length": 59.037082229524287, "heat_score": 21.99 }, "geometry": { "type": "LineString", "coordinates": [ [ 127.1004386, 37.3230039 ], [ 127.100042500000015, 37.3234313 ] ] } },
{ "type": "Feature", "properties": { "u": 3641673373, "v": 3641672249, "length": 128.01310897956506, "heat_score": 20.12 }, "geometry": { "type": "LineString", "coordinates": [ [ 127.100042500000015, 37.3234313 ], [ 127.101187199999984, 37.3241361 ] ] } },
{ "type": "Feature", "properties": { "u": 3641672249, "v": 3641672250, "length": 54.083705674014759, "heat_score": 20.03 }, "geometry": { "type": "LineString", "coordinates": [ [ 127.1016772, 37.3244272 ], [ 127.101187199999984, 37.3241361 ] ] } },
{ "type": "Feature", "properties": { "u": 3641672250, "v": 3641672251, "length": 56.78951127175619, "heat_score": 20.09 }, "geometry": { "type": "LineString", "coordinates": [ [ 127.1022571, 37.32464670000001 ], [ 127.1016772, 37.3244272 ] ] } },
{ "type": "Feature", "properties": { "u": 3641672251, "v": 7857963316, "length": 69.428642275882879, "heat_score": 21.345 }, "geometry": { "type": "LineString", "coordinates": [ [ 127.1024181, 37.3240356 ], [ 127.102332300000015, 37.3243496 ], [ 127.1022571, 37.32464670000001 ] ] } },
{ "type": "Feature", "properties": { "u": 7857963316, "v": 7857963317, "length": 19.743231959396709, "heat_score": 23.15 }, "geometry": { "type": "LineString", "coordinates": [ [ 127.102623399999985, 37.3241054 ], [ 127.1025191, 37.3240696 ], [ 127.1024181, 37.3240356 ] ] } },
{ "type": "Feature", "properties": { "u": 7857963317, "v": 3406879334, "length": 40.818004592477138, "heat_score": 22.935 }, "geometry": { "type": "LineString", "coordinates": [ [ 127.1029157, 37.3243862 ], [ 127.10288, 37.3243514 ], [ 127.1028525, 37.3243067 ], [ 127.1028136, 37.3242608 ], [ 127.102776, 37.3242245 ], [ 127.102623399999985, 37.3241054 ] ] } },
{ "type": "Feature", "properties": { "u": 3406879334, "v": 13535969850, "length": 5.4378997216453167, "heat_score": 22.03 }, "geometry": { "type": "LineString", "coordinates": [ [ 127.102914900000016, 37.3244351 ], [ 127.1029157, 37.3243862 ] ] } },
{ "type": "Feature", "properties": { "u": 13535969850, "v": 3641671616, "length": 89.286514758011592, "heat_score": 22.715 }, "geometry": { "type": "LineString", "coordinates": [ [ 127.1029014, 37.325238 ], [ 127.102913500000014, 37.3245146 ], [ 127.102914900000016, 37.3244351 ] ] } },
{ "type": "Feature", "properties": { "u": 3641671616, "v": 3406879331, "length": 102.10481948328464, "heat_score": 22.93 }, "geometry": { "type": "LineString", "coordinates": [ [ 127.1028727, 37.3261559 ], [ 127.1028894, 37.3258329 ], [ 127.1029014, 37.325238 ] ] } },
{ "type": "Feature", "properties": { "u": 3406879331, "v": 3638087029, "length": 95.166622470941462, "heat_score": 22.245 }, "geometry": { "type": "LineString", "coordinates": [ [ 127.1017969, 37.3261304 ], [ 127.1028727, 37.3261559 ] ] } },
{ "type": "Feature", "properties": { "u": 3638087029, "v": 3638087028, "length": 49.965164947944523, "heat_score": 22.925 }, "geometry": { "type": "LineString", "coordinates": [ [ 127.1017969, 37.3261304 ], [ 127.1015051, 37.32651520000001 ] ] } },
{ "type": "Feature", "properties": { "u": 3638087028, "v": 3641668350, "length": 48.229769337635403, "heat_score": 22.71 }, "geometry": { "type": "LineString", "coordinates": [ [ 127.101195500000017, 37.3268723 ], [ 127.1015051, 37.32651520000001 ] ] } },
{ "type": "Feature", "properties": { "u": 3641668350, "v": 3641669065, "length": 42.462850920426909, "heat_score": 22.45 }, "geometry": { "type": "LineString", "coordinates": [ [ 127.1008111, 37.3266434 ], [ 127.101195500000017, 37.3268723 ] ] } },
{ "type": "Feature", "properties": { "u": 3641669065, "v": 3641669063, "length": 76.931598409046799, "heat_score": 23.315 }, "geometry": { "type": "LineString", "coordinates": [ [ 127.1008111, 37.3266434 ], [ 127.1002392, 37.3271648 ] ] } },
{ "type": "Feature", "properties": { "u": 3641669063, "v": 3641668359, "length": 33.81563620694488, "heat_score": 23.31 }, "geometry": { "type": "LineString", "coordinates": [ [ 127.1002392, 37.3271648 ], [ 127.099989, 37.3269348 ] ] } },
{ "type": "Feature", "properties": { "u": 3641668359, "v": 3641671032, "length": 79.680870983653918, "heat_score": 23.315 }, "geometry": { "type": "LineString", "coordinates": [ [ 127.0993777, 37.3264083 ], [ 127.099989, 37.3269348 ] ] } },
{ "type": "Feature", "properties": { "u": 3641671032, "v": 3641671895, "length": 258.59857673383453, "heat_score": 22.89 }, "geometry": { "type": "LineString", "coordinates": [ [ 127.0965318, 37.3262125 ], [ 127.0966081, 37.3262596 ], [ 127.0968546, 37.3264023 ], [ 127.0993777, 37.3264083 ] ] } },
{ "type": "Feature", "properties": { "u": 3641671895, "v": 842899414, "length": 271.44846172742228, "heat_score": 22.91 }, "geometry": { "type": "LineString", "coordinates": [ [ 127.0965318, 37.3262125 ], [ 127.095941, 37.3268688 ], [ 127.0955664, 37.3272652 ], [ 127.095439099999979, 37.327390800000011 ], [ 127.095380700000021, 37.3274369 ], [ 127.09537060000001, 37.3274436 ], [ 127.095313500000017, 37.3274807 ], [ 127.0951932, 37.32755 ], [ 127.094635200000013, 37.3278693 ], [ 127.0944496, 37.3279681 ] ] } },
{ "type": "Feature", "properties": { "u": 842899414, "v": 13116724457, "length": 221.49055210020782, "heat_score": 23.34 }, "geometry": { "type": "LineString", "coordinates": [ [ 127.0927481, 37.3265064 ], [ 127.093163200000021, 37.3268511 ], [ 127.094323, 37.3278628 ], [ 127.0944496, 37.3279681 ] ] } },
{ "type": "Feature", "properties": { "u": 13116724457, "v": 414694398, "length": 19.886698502899126, "heat_score": 23.315 }, "geometry": { "type": "LineString", "coordinates": [ [ 127.0926264, 37.326356 ], [ 127.0927481, 37.3265064 ] ] } },
{ "type": "Feature", "properties": { "u": 414694398, "v": 3638077031, "length": 240.87890604888145, "heat_score": 23.325 }, "geometry": { "type": "LineString", "coordinates": [ [ 127.0942248, 37.3246025 ], [ 127.094100800000021, 37.3247201 ], [ 127.093631099999982, 37.3252447 ], [ 127.092758500000016, 37.3262209 ], [ 127.0926264, 37.326356 ] ] } },
{ "type": "Feature", "properties": { "u": 3638077031, "v": 3638088208, "length": 46.673894918836879, "heat_score": 21.77 }, "geometry": { "type": "LineString", "coordinates": [ [ 127.0946582, 37.3248421 ], [ 127.0944274, 37.3247145 ], [ 127.0944062, 37.3247028 ], [ 127.0942248, 37.3246025 ] ] } },
{ "type": "Feature", "properties": { "u": 3638088208, "v": 3638084966, "length": 88.266836728048403, "heat_score": 21.335 }, "geometry": { "type": "LineString", "coordinates": [ [ 127.0946582, 37.3248421 ], [ 127.095352600000012, 37.3252463 ], [ 127.095460200000019, 37.3253146 ] ] } },
{ "type": "Feature", "properties": { "u": 3638084966, "v": 3653759993, "length": 51.628422934750731, "heat_score": 22.235 }, "geometry": { "type": "LineString", "coordinates": [ [ 127.095806200000013, 37.3249406 ], [ 127.0954855, 37.3252873 ], [ 127.095460200000019, 37.3253146 ] ] } },
{ "type": "Feature", "properties": { "u": 3653759993, "v": 3653759995, "length": 52.606950454218953, "heat_score": 21.385 }, "geometry": { "type": "LineString", "coordinates": [ [ 127.0961601, 37.3245603 ], [ 127.095806200000013, 37.3249406 ] ] } },
{ "type": "Feature", "properties": { "u": 3653759995, "v": 3653759999, "length": 87.673511793217457, "heat_score": 20.735 }, "geometry": { "type": "LineString", "coordinates": [ [ 127.0961601, 37.3245603 ], [ 127.096937, 37.3250502 ] ] } },
{ "type": "Feature", "properties": { "u": 3653759999, "v": 3653759998, "length": 51.560472312136937, "heat_score": 20.71 }, "geometry": { "type": "LineString", "coordinates": [ [ 127.096591100000012, 37.3254235 ], [ 127.096937, 37.3250502 ] ] } },
{ "type": "Feature", "properties": { "u": 3653759998, "v": 3653759993, "length": 87.75015895790051, "heat_score": 21.36 }, "geometry": { "type": "LineString", "coordinates": [ [ 127.096591100000012, 37.3254235 ], [ 127.095806200000013, 37.3249406 ] ] } },
{ "type": "Feature", "properties": { "u": 3653759993, "v": 3653759992, "length": 87.642163167863856, "heat_score": 20.985 }, "geometry": { "type": "LineString", "coordinates": [ [ 127.095806200000013, 37.3249406 ], [ 127.0950111, 37.32447 ] ] } },
{ "type": "Feature", "properties": { "u": 3653759992, "v": 3653759994, "length": 53.045678591383606, "heat_score": 19.88 }, "geometry": { "type": "LineString", "coordinates": [ [ 127.0953701, 37.3240878 ], [ 127.0950111, 37.32447 ] ] } }
]
}
