{
"type": "FeatureCollection",
"name": "cool_cycle_shelter1_route2_nodes",
"crs": { "type": "name", "properties": { "name": "urn:ogc:def:crs:OGC:1.3:CRS84" } },
"features": [
{ "type": "Feature", "properties": { "osmid": 3641672250, "y": 37.3244272, "x": 127.1016772, "junction": null, "street_count": 3, "highway": null, "ref": null, "felt_temp": 35.923011779785156, "heat_grade": 1.0, "index_right": 6270.0, "uid": "ì©ì¸_119325", "sgg_cd": "41460", "sgg_nm": "ì©ì¸ì", "lclsf_cd": "I", "lclsf_nm": "ìê°íê±´ì¡°ì§", "mclsf_cd": "ID", "mclsf_nm": "êµíµìì¤ì§", "sclsf_cd": "ID3", "sclsf_nm": "ìëë¡", "dclsf_cd": null, "dclsf_nm": null, "ldc_lc_cd": "A", "ldc_lc_nm": "ìê°íê±´ì¡°ì§ì­", "ldc_mc_cd": "A5", "ldc_mc_nm": "êµíµì§ì­", "ldc_sc_cd": "A54", "ldc_sc_nm": "ëë¡", "shade": 0.2, "heat_score": 19.95 }, "geometry": { "type": "Point", "coordinates": [ 127.1016772, 37.3244272 ] } },
{ "type": "Feature", "properties": { "osmid": 3642437651, "y": 37.3248179, "x": 127.1013037, "junction": null, "street_count": 3, "highway": null, "ref": null, "felt_temp": 36.390338897705078, "heat_grade": 1.0, "index_right": 6282.0, "uid": "ì©ì¸_118816", "sgg_cd": "41460", "sgg_nm": "ì©ì¸ì", "lclsf_cd": "I", "lclsf_nm": "ìê°íê±´ì¡°ì§", "mclsf_cd": "IA", "mclsf_nm": "ê³µëì£¼íì§", "sclsf_cd": "IA4", "sclsf_nm": "ê¸°í ê³µëì£¼íì§", "dclsf_cd": null, "dclsf_nm": null, "ldc_lc_cd": "A", "ldc_lc_nm": "ìê°íê±´ì¡°ì§ì­", "ldc_mc_cd": "A1", "ldc_mc_nm": "ì£¼ê±°ì§ì­", "ldc_sc_cd": "A12", "ldc_sc_nm": "ê³µëì£¼ê±°ìì¤", "shade": 0.2, "heat_score": 20.23 }, "geometry": { "type": "Point", "coordinates": [ 127.1013037, 37.3248179 ] } },
{ "type": "Feature", "properties": { "osmid": 3642437650, "y": 37.3250969, "x": 127.101037, "junction": null, "street_count": 3, "highway": null, "ref": null, "felt_temp": 36.873291015625, "heat_grade": 8.0, "index_right": 6270.0, "uid": "ì©ì¸_119325", "sgg_cd": "41460", "sgg_nm": "ì©ì¸ì", "lclsf_cd": "I", "lclsf_nm": "ìê°íê±´ì¡°ì§", "mclsf_cd": "ID", "mclsf_nm": "êµíµìì¤ì§", "sclsf_cd": "ID3", "sclsf_nm": "ìëë¡", "dclsf_cd": null, "dclsf_nm": null, "ldc_lc_cd": "A", "ldc_lc_nm": "ìê°íê±´ì¡°ì§ì­", "ldc_mc_cd": "A5", "ldc_mc_nm": "êµíµì§ì­", "ldc_sc_cd": "A54", "ldc_sc_nm": "ëë¡", "shade": 0.2, "heat_score": 23.32 }, "geometry": { "type": "Point", "coordinates": [ 127.101037, 37.3250969 ] } },
{ "type": "Feature", "properties": { "osmid": 3641672247, "y": 37.3247977, "x": 127.1005585, "junction": null, "street_count": 4, "highway": null, "ref": null, "felt_temp": 36.854511260986328, "heat_grade": 8.0, "index_right": 6270.0, "uid": "ì©ì¸_119325", "sgg_cd": "41460", "sgg_nm": "ì©ì¸ì", "lclsf_cd": "I", "lclsf_nm": "ìê°íê±´ì¡°ì§", "mclsf_cd": "ID", "mclsf_nm": "êµíµìì¤ì§", "sclsf_cd": "ID3", "sclsf_nm": "ìëë¡", "dclsf_cd": null, "dclsf_nm": null, "ldc_lc_cd": "A", "ldc_lc_nm": "ìê°íê±´ì¡°ì§ì­", "ldc_mc_cd": "A5", "ldc_mc_nm": "êµíµì§ì­", "ldc_sc_cd": "A54", "ldc_sc_nm": "ëë¡", "shade": 0.2, "heat_score": 23.31 }, "geometry": { "type": "Point", "coordinates": [ 127.10055850000002, 37.3247977 ] } },
{ "type": "Feature", "properties": { "osmid": 3642437652, "y": 37.3245205, "x": 127.1008219, "junction": null, "street_count": 3, "highway": null, "ref": null, "felt_temp": 36.642795562744141, "heat_grade": 3.0, "index_right": 6270.0, "uid": "ì©ì¸_119325", "sgg_cd": "41460", "sgg_nm": "ì©ì¸ì", "lclsf_cd": "I", "lclsf_nm": "ìê°íê±´ì¡°ì§", "mclsf_cd": "ID", "mclsf_nm": "êµíµìì¤ì§", "sclsf_cd": "ID3", "sclsf_nm": "ìëë¡", "dclsf_cd": null, "dclsf_nm": null, "ldc_lc_cd": "A", "ldc_lc_nm": "ìê°íê±´ì¡°ì§ì­", "ldc_mc_cd": "A5", "ldc_mc_nm": "êµíµì§ì­", "ldc_sc_cd": "A54", "ldc_sc_nm": "ëë¡", "shade": 0.2, "heat_score": 21.19 }, "geometry": { "type": "Point", "coordinates": [ 127.1008219, 37.3245205 ] } },
{ "type": "Feature", "properties": { "osmid": 3641673371, "y": 37.3244628, "x": 127.1008767, "junction": null, "street_count": 3, "highway": null, "ref": null, "felt_temp": 36.642795562744141, "heat_grade": 3.0, "index_right": 6270.0, "uid": "ì©ì¸_119325", "sgg_cd": "41460", "sgg_nm": "ì©ì¸ì", "lclsf_cd": "I", "lclsf_nm": "ìê°íê±´ì¡°ì§", "mclsf_cd": "ID", "mclsf_nm": "êµíµìì¤ì§", "sclsf_cd": "ID3", "sclsf_nm": "ìëë¡", "dclsf_cd": null, "dclsf_nm": null, "ldc_lc_cd": "A", "ldc_lc_nm": "ìê°íê±´ì¡°ì§ì­", "ldc_mc_cd": "A5", "ldc_mc_nm": "êµíµì§ì­", "ldc_sc_cd": "A54", "ldc_sc_nm": "ëë¡", "shade": 0.2, "heat_score": 21.19 }, "geometry": { "type": "Point", "coordinates": [ 127.1008767, 37.3244628 ] } },
{ "type": "Feature", "properties": { "osmid": 3641673372, "y": 37.3237874, "x": 127.0997139, "junction": null, "street_count": 4, "highway": null, "ref": null, "felt_temp": 36.323444366455078, "heat_grade": 1.0, "index_right": 6270.0, "uid": "ì©ì¸_119325", "sgg_cd": "41460", "sgg_nm": "ì©ì¸ì", "lclsf_cd": "I", "lclsf_nm": "ìê°íê±´ì¡°ì§", "mclsf_cd": "ID", "mclsf_nm": "êµíµìì¤ì§", "sclsf_cd": "ID3", "sclsf_nm": "ìëë¡", "dclsf_cd": null, "dclsf_nm": null, "ldc_lc_cd": "A", "ldc_lc_nm": "ìê°íê±´ì¡°ì§ì­", "ldc_mc_cd": "A5", "ldc_mc_nm": "êµíµì§ì­", "ldc_sc_cd": "A54", "ldc_sc_nm": "ëë¡", "shade": 0.2, "heat_score": 20.19 }, "geometry": { "type": "Point", "coordinates": [ 127.0997139, 37.3237874 ] } },
{ "type": "Feature", "properties": { "osmid": 3641674136, "y": 37.3236098, "x": 127.0985459, "junction": null, "street_count": 3, "highway": null, "ref": null, "felt_temp": 36.824527740478516, "heat_grade": 8.0, "index_right": 6270.0, "uid": "ì©ì¸_119325", "sgg_cd": "41460", "sgg_nm": "ì©ì¸ì", "lclsf_cd": "I", "lclsf_nm": "ìê°íê±´ì¡°ì§", "mclsf_cd": "ID", "mclsf_nm": "êµíµìì¤ì§", "sclsf_cd": "ID3", "sclsf_nm": "ìëë¡", "dclsf_cd": null, "dclsf_nm": null, "ldc_lc_cd": "A", "ldc_lc_nm": "ìê°íê±´ì¡°ì§ì­", "ldc_mc_cd": "A5", "ldc_mc_nm": "êµíµì§ì­", "ldc_sc_cd": "A54", "ldc_sc_nm": "ëë¡", "shade": 0.2, "heat_score": 23.29 }, "geometry": { "type": "Point", "coordinates": [ 127.0985459, 37.3236098 ] } },
{ "type": "Feature", "properties": { "osmid": 3641674129, "y": 37.323493, "x": 127.0983393, "junction": null, "street_count": 4, "highway": null, "ref": null, "felt_temp": 36.843082427978516, "heat_grade": 8.0, "index_right": 6270.0, "uid": "ì©ì¸_119325", "sgg_cd": "41460", "sgg_nm": "ì©ì¸ì", "lclsf_cd": "I", "lclsf_nm": "ìê°íê±´ì¡°ì§", "mclsf_cd": "ID", "mclsf_nm": "êµíµìì¤ì§", "sclsf_cd": "ID3", "sclsf_nm": "ìëë¡", "dclsf_cd": null, "dclsf_nm": null, "ldc_lc_cd": "A", "ldc_lc_nm": "ìê°íê±´ì¡°ì§ì­", "ldc_mc_cd": "A5", "ldc_mc_nm": "êµíµì§ì­", "ldc_sc_cd": "A54", "ldc_sc_nm": "ëë¡", "shade": 0.2, "heat_score": 23.31 }, "geometry": { "type": "Point", "coordinates": [ 127.0983393, 37.323493 ] } },
{ "type": "Feature", "properties": { "osmid": 3641674128, "y": 37.3238448, "x": 127.0980298, "junction": null, "street_count": 4, "highway": null, "ref": null, "felt_temp": 36.689125061035156, "heat_grade": 4.0, "index_right": 6270.0, "uid": "ì©ì¸_119325", "sgg_cd": "41460", "sgg_nm": "ì©ì¸ì", "lclsf_cd": "I", "lclsf_nm": "ìê°íê±´ì¡°ì§", "mclsf_cd": "ID", "mclsf_nm": "êµíµìì¤ì§", "sclsf_cd": "ID3", "sclsf_nm": "ìëë¡", "dclsf_cd": null, "dclsf_nm": null, "ldc_lc_cd": "A", "ldc_lc_nm": "ìê°íê±´ì¡°ì§ì­", "ldc_mc_cd": "A5", "ldc_mc_nm": "êµíµì§ì­", "ldc_sc_cd": "A54", "ldc_sc_nm": "ëë¡", "shade": 0.2, "heat_score": 21.61 }, "geometry": { "type": "Point", "coordinates": [ 127.0980298, 37.3238448 ] } },
{ "type": "Feature", "properties": { "osmid": 3638088182, "y": 37.3242444, "x": 127.0976838, "junction": null, "street_count": 4, "highway": null, "ref": null, "felt_temp": 36.994365692138672, "heat_grade": 8.0, "index_right": 4223.0, "uid": "ì©ì¸_12793", "sgg_cd": "41460", "sgg_nm": "ì©ì¸ì", "lclsf_cd": "I", "lclsf_nm": "ìê°íê±´ì¡°ì§", "mclsf_cd": "ID", "mclsf_nm": "êµíµìì¤ì§", "sclsf_cd": "ID2", "sclsf_nm": "ì¼ë°ëë¡", "dclsf_cd": "ID2_1", "dclsf_nm": "ê°ë¡ì ìë ì¼ë°ëë¡", "ldc_lc_cd": "A", "ldc_lc_nm": "ìê°íê±´ì¡°ì§ì­", "ldc_mc_cd": "A5", "ldc_mc_nm": "êµíµì§ì­", "ldc_sc_cd": "A54", "ldc_sc_nm": "ëë¡", "shade": 0.2, "heat_score": 23.4 }, "geometry": { "type": "Point", "coordinates": [ 127.097683799999984, 37.3242444 ] } },
{ "type": "Feature", "properties": { "osmid": 3653760000, "y": 37.3246794, "x": 127.0972807, "junction": null, "street_count": 3, "highway": null, "ref": null, "felt_temp": 36.137176513671875, "heat_grade": 1.0, "index_right": 6231.0, "uid": "ì©ì¸_119343", "sgg_cd": "41460", "sgg_nm": "ì©ì¸ì", "lclsf_cd": "I", "lclsf_nm": "ìê°íê±´ì¡°ì§", "mclsf_cd": "ID", "mclsf_nm": "êµíµìì¤ì§", "sclsf_cd": "ID3", "sclsf_nm": "ìëë¡", "dclsf_cd": null, "dclsf_nm": null, "ldc_lc_cd": "A", "ldc_lc_nm": "ìê°íê±´ì¡°ì§ì­", "ldc_mc_cd": "A5", "ldc_mc_nm": "êµíµì§ì­", "ldc_sc_cd": "A54", "ldc_sc_nm": "ëë¡", "shade": 0.2, "heat_score": 20.08 }, "geometry": { "type": "Point", "coordinates": [ 127.0972807, 37.3246794 ] } },
{ "type": "Feature", "properties": { "osmid": 3653759997, "y": 37.3242107, "x": 127.0964675, "junction": null, "street_count": 4, "highway": null, "ref": null, "felt_temp": 36.809803009033203, "heat_grade": 7.0, "index_right": 6207.0, "uid": "ì©ì¸_119233", "sgg_cd": "41460", "sgg_nm": "ì©ì¸ì", "lclsf_cd": "I", "lclsf_nm": "ìê°íê±´ì¡°ì§", "mclsf_cd": "ID", "mclsf_nm": "êµíµìì¤ì§", "sclsf_cd": "ID2", "sclsf_nm": "ì¼ë°ëë¡", "dclsf_cd": "ID2_2", "dclsf_nm": "ê°ë¡ì ìë ì¼ë°ëë¡", "ldc_lc_cd": "A", "ldc_lc_nm": "ìê°íê±´ì¡°ì§ì­", "ldc_mc_cd": "A5", "ldc_mc_nm": "êµíµì§ì­", "ldc_sc_cd": "A54", "ldc_sc_nm": "ëë¡", "shade": 0.2, "heat_score": 22.89 }, "geometry": { "type": "Point", "coordinates": [ 127.0964675, 37.3242107 ] } },
{ "type": "Feature", "properties": { "osmid": 3638084967, "y": 37.323784, "x": 127.0968889, "junction": null, "street_count": 4, "highway": null, "ref": null, "felt_temp": 36.833644866943359, "heat_grade": 8.0, "index_right": 4223.0, "uid": "ì©ì¸_12793", "sgg_cd": "41460", "sgg_nm": "ì©ì¸ì", "lclsf_cd": "I", "lclsf_nm": "ìê°íê±´ì¡°ì§", "mclsf_cd": "ID", "mclsf_nm": "êµíµìì¤ì§", "sclsf_cd": "ID2", "sclsf_nm": "ì¼ë°ëë¡", "dclsf_cd": "ID2_1", "dclsf_nm": "ê°ë¡ì ìë ì¼ë°ëë¡", "ldc_lc_cd": "A", "ldc_lc_nm": "ìê°íê±´ì¡°ì§ì­", "ldc_mc_cd": "A5", "ldc_mc_nm": "êµíµì§ì­", "ldc_sc_cd": "A54", "ldc_sc_nm": "ëë¡", "shade": 0.2, "heat_score": 23.3 }, "geometry": { "type": "Point", "coordinates": [ 127.0968889, 37.323784 ] } },
{ "type": "Feature", "properties": { "osmid": 3641792340, "y": 37.3233989, "x": 127.097248, "junction": null, "street_count": 4, "highway": null, "ref": null, "felt_temp": 36.859249114990234, "heat_grade": 8.0, "index_right": 6270.0, "uid": "ì©ì¸_119325", "sgg_cd": "41460", "sgg_nm": "ì©ì¸ì", "lclsf_cd": "I", "lclsf_nm": "ìê°íê±´ì¡°ì§", "mclsf_cd": "ID", "mclsf_nm": "êµíµìì¤ì§", "sclsf_cd": "ID3", "sclsf_nm": "ìëë¡", "dclsf_cd": null, "dclsf_nm": null, "ldc_lc_cd": "A", "ldc_lc_nm": "ìê°íê±´ì¡°ì§ì­", "ldc_mc_cd": "A5", "ldc_mc_nm": "êµíµì§ì­", "ldc_sc_cd": "A54", "ldc_sc_nm": "ëë¡", "shade": 0.2, "heat_score": 23.32 }, "geometry": { "type": "Point", "coordinates": [ 127.097248, 37.3233989 ] } },
{ "type": "Feature", "properties": { "osmid": 3641674128, "y": 37.3238448, "x": 127.0980298, "junction": null, "street_count": 4, "highway": null, "ref": null, "felt_temp": 36.689125061035156, "heat_grade": 4.0, "index_right": 6270.0, "uid": "ì©ì¸_119325", "sgg_cd": "41460", "sgg_nm": "ì©ì¸ì", "lclsf_cd": "I", "lclsf_nm": "ìê°íê±´ì¡°ì§", "mclsf_cd": "ID", "mclsf_nm": "êµíµìì¤ì§", "sclsf_cd": "ID3", "sclsf_nm": "ìëë¡", "dclsf_cd": null, "dclsf_nm": null, "ldc_lc_cd": "A", "ldc_lc_nm": "ìê°íê±´ì¡°ì§ì­", "ldc_mc_cd": "A5", "ldc_mc_nm": "êµíµì§ì­", "ldc_sc_cd": "A54", "ldc_sc_nm": "ëë¡", "shade": 0.2, "heat_score": 21.61 }, "geometry": { "type": "Point", "coordinates": [ 127.0980298, 37.3238448 ] } },
{ "type": "Feature", "properties": { "osmid": 3641673369, "y": 37.3244719, "x": 127.0990664, "junction": null, "street_count": 4, "highway": null, "ref": null, "felt_temp": 36.841495513916016, "heat_grade": 8.0, "index_right": 6270.0, "uid": "ì©ì¸_119325", "sgg_cd": "41460", "sgg_nm": "ì©ì¸ì", "lclsf_cd": "I", "lclsf_nm": "ìê°íê±´ì¡°ì§", "mclsf_cd": "ID", "mclsf_nm": "êµíµìì¤ì§", "sclsf_cd": "ID3", "sclsf_nm": "ìëë¡", "dclsf_cd": null, "dclsf_nm": null, "ldc_lc_cd": "A", "ldc_lc_nm": "ìê°íê±´ì¡°ì§ì­", "ldc_mc_cd": "A5", "ldc_mc_nm": "êµíµì§ì­", "ldc_sc_cd": "A54", "ldc_sc_nm": "ëë¡", "shade": 0.2, "heat_score": 23.3 }, "geometry": { "type": "Point", "coordinates": [ 127.0990664, 37.3244719 ] } },
{ "type": "Feature", "properties": { "osmid": 3638084968, "y": 37.3248457, "x": 127.0987158, "junction": null, "street_count": 3, "highway": null, "ref": null, "felt_temp": 36.898635864257812, "heat_grade": 8.0, "index_right": 4223.0, "uid": "ì©ì¸_12793", "sgg_cd": "41460", "sgg_nm": "ì©ì¸ì", "lclsf_cd": "I", "lclsf_nm": "ìê°íê±´ì¡°ì§", "mclsf_cd": "ID", "mclsf_nm": "êµíµìì¤ì§", "sclsf_cd": "ID2", "sclsf_nm": "ì¼ë°ëë¡", "dclsf_cd": "ID2_1", "dclsf_nm": "ê°ë¡ì ìë ì¼ë°ëë¡", "ldc_lc_cd": "A", "ldc_lc_nm": "ìê°íê±´ì¡°ì§ì­", "ldc_mc_cd": "A5", "ldc_mc_nm": "êµíµì§ì­", "ldc_sc_cd": "A54", "ldc_sc_nm": "ëë¡", "shade": 0.2, "heat_score": 23.34 }, "geometry": { "type": "Point", "coordinates": [ 127.0987158, 37.3248457 ] } },
{ "type": "Feature", "properties": { "osmid": 3638067890, "y": 37.3255422, "x": 127.0998509, "junction": null, "street_count": 4, "highway": null, "ref": null, "felt_temp": 36.903427124023438, "heat_grade": 8.0, "index_right": 4223.0, "uid": "ì©ì¸_12793", "sgg_cd": "41460", "sgg_nm": "ì©ì¸ì", "lclsf_cd": "I", "lclsf_nm": "ìê°íê±´ì¡°ì§", "mclsf_cd": "ID", "mclsf_nm": "êµíµìì¤ì§", "sclsf_cd": "ID2", "sclsf_nm": "ì¼ë°ëë¡", "dclsf_cd": "ID2_1", "dclsf_nm": "ê°ë¡ì ìë ì¼ë°ëë¡", "ldc_lc_cd": "A", "ldc_lc_nm": "ìê°íê±´ì¡°ì§ì­", "ldc_mc_cd": "A5", "ldc_mc_nm": "êµíµì§ì­", "ldc_sc_cd": "A54", "ldc_sc_nm": "ëë¡", "shade": 0.2, "heat_score": 23.34 }, "geometry": { "type": "Point", "coordinates": [ 127.0998509, 37.3255422 ] } },
{ "type": "Feature", "properties": { "osmid": 3641671031, "y": 37.3258793, "x": 127.0995279, "junction": null, "street_count": 3, "highway": null, "ref": null, "felt_temp": 36.558849334716797, "heat_grade": 2.0, "index_right": 6323.0, "uid": "ì©ì¸_119249", "sgg_cd": "41460", "sgg_nm": "ì©ì¸ì", "lclsf_cd": "I", "lclsf_nm": "ìê°íê±´ì¡°ì§", "mclsf_cd": "ID", "mclsf_nm": "êµíµìì¤ì§", "sclsf_cd": "ID2", "sclsf_nm": "ì¼ë°ëë¡", "dclsf_cd": "ID2_2", "dclsf_nm": "ê°ë¡ì ìë ì¼ë°ëë¡", "ldc_lc_cd": "A", "ldc_lc_nm": "ìê°íê±´ì¡°ì§ì­", "ldc_mc_cd": "A5", "ldc_mc_nm": "êµíµì§ì­", "ldc_sc_cd": "A54", "ldc_sc_nm": "ëë¡", "shade": 0.2, "heat_score": 20.74 }, "geometry": { "type": "Point", "coordinates": [ 127.0995279, 37.3258793 ] } },
{ "type": "Feature", "properties": { "osmid": 3641671032, "y": 37.3264083, "x": 127.0993777, "junction": null, "street_count": 3, "highway": null, "ref": null, "felt_temp": 36.906257629394531, "heat_grade": 8.0, "index_right": 6323.0, "uid": "ì©ì¸_119249", "sgg_cd": "41460", "sgg_nm": "ì©ì¸ì", "lclsf_cd": "I", "lclsf_nm": "ìê°íê±´ì¡°ì§", "mclsf_cd": "ID", "mclsf_nm": "êµíµìì¤ì§", "sclsf_cd": "ID2", "sclsf_nm": "ì¼ë°ëë¡", "dclsf_cd": "ID2_2", "dclsf_nm": "ê°ë¡ì ìë ì¼ë°ëë¡", "ldc_lc_cd": "A", "ldc_lc_nm": "ìê°íê±´ì¡°ì§ì­", "ldc_mc_cd": "A5", "ldc_mc_nm": "êµíµì§ì­", "ldc_sc_cd": "A54", "ldc_sc_nm": "ëë¡", "shade": 0.2, "heat_score": 23.34 }, "geometry": { "type": "Point", "coordinates": [ 127.0993777, 37.3264083 ] } },
{ "type": "Feature", "properties": { "osmid": 3641668359, "y": 37.3269348, "x": 127.099989, "junction": null, "street_count": 3, "highway": null, "ref": null, "felt_temp": 36.823867797851562, "heat_grade": 8.0, "index_right": 6323.0, "uid": "ì©ì¸_119249", "sgg_cd": "41460", "sgg_nm": "ì©ì¸ì", "lclsf_cd": "I", "lclsf_nm": "ìê°íê±´ì¡°ì§", "mclsf_cd": "ID", "mclsf_nm": "êµíµìì¤ì§", "sclsf_cd": "ID2", "sclsf_nm": "ì¼ë°ëë¡", "dclsf_cd": "ID2_2", "dclsf_nm": "ê°ë¡ì ìë ì¼ë°ëë¡", "ldc_lc_cd": "A", "ldc_lc_nm": "ìê°íê±´ì¡°ì§ì­", "ldc_mc_cd": "A5", "ldc_mc_nm": "êµíµì§ì­", "ldc_sc_cd": "A54", "ldc_sc_nm": "ëë¡", "shade": 0.2, "heat_score": 23.29 }, "geometry": { "type": "Point", "coordinates": [ 127.099989, 37.3269348 ] } },
{ "type": "Feature", "properties": { "osmid": 3641669063, "y": 37.3271648, "x": 127.1002392, "junction": null, "street_count": 3, "highway": null, "ref": null, "felt_temp": 36.882144927978516, "heat_grade": 8.0, "index_right": 6323.0, "uid": "ì©ì¸_119249", "sgg_cd": "41460", "sgg_nm": "ì©ì¸ì", "lclsf_cd": "I", "lclsf_nm": "ìê°íê±´ì¡°ì§", "mclsf_cd": "ID", "mclsf_nm": "êµíµìì¤ì§", "sclsf_cd": "ID2", "sclsf_nm": "ì¼ë°ëë¡", "dclsf_cd": "ID2_2", "dclsf_nm": "ê°ë¡ì ìë ì¼ë°ëë¡", "ldc_lc_cd": "A", "ldc_lc_nm": "ìê°íê±´ì¡°ì§ì­", "ldc_mc_cd": "A5", "ldc_mc_nm": "êµíµì§ì­", "ldc_sc_cd": "A54", "ldc_sc_nm": "ëë¡", "shade": 0.2, "heat_score": 23.33 }, "geometry": { "type": "Point", "coordinates": [ 127.1002392, 37.3271648 ] } },
{ "type": "Feature", "properties": { "osmid": 3641669065, "y": 37.3266434, "x": 127.1008111, "junction": null, "street_count": 3, "highway": null, "ref": null, "felt_temp": 36.829727172851562, "heat_grade": 8.0, "index_right": 6324.0, "uid": "ì©ì¸_119306", "sgg_cd": "41460", "sgg_nm": "ì©ì¸ì", "lclsf_cd": "I", "lclsf_nm": "ìê°íê±´ì¡°ì§", "mclsf_cd": "ID", "mclsf_nm": "êµíµìì¤ì§", "sclsf_cd": "ID3", "sclsf_nm": "ìëë¡", "dclsf_cd": null, "dclsf_nm": null, "ldc_lc_cd": "A", "ldc_lc_nm": "ìê°íê±´ì¡°ì§ì­", "ldc_mc_cd": "A5", "ldc_mc_nm": "êµíµì§ì­", "ldc_sc_cd": "A54", "ldc_sc_nm": "ëë¡", "shade": 0.2, "heat_score": 23.3 }, "geometry": { "type": "Point", "coordinates": [ 127.1008111, 37.3266434 ] } },
{ "type": "Feature", "properties": { "osmid": 3641668350, "y": 37.3268723, "x": 127.1011955, "junction": null, "street_count": 4, "highway": null, "ref": null, "felt_temp": 36.671562194824219, "heat_grade": 4.0, "index_right": 6324.0, "uid": "ì©ì¸_119306", "sgg_cd": "41460", "sgg_nm": "ì©ì¸ì", "lclsf_cd": "I", "lclsf_nm": "ìê°íê±´ì¡°ì§", "mclsf_cd": "ID", "mclsf_nm": "êµíµìì¤ì§", "sclsf_cd": "ID3", "sclsf_nm": "ìëë¡", "dclsf_cd": null, "dclsf_nm": null, "ldc_lc_cd": "A", "ldc_lc_nm": "ìê°íê±´ì¡°ì§ì­", "ldc_mc_cd": "A5", "ldc_mc_nm": "êµíµì§ì­", "ldc_sc_cd": "A54", "ldc_sc_nm": "ëë¡", "shade": 0.2, "heat_score": 21.6 }, "geometry": { "type": "Point", "coordinates": [ 127.101195500000017, 37.3268723 ] } },
{ "type": "Feature", "properties": { "osmid": 3638087028, "y": 37.3265152, "x": 127.1015051, "junction": "yes", "street_count": 4, "highway": null, "ref": null, "felt_temp": 37.037563323974609, "heat_grade": 9.0, "index_right": 4223.0, "uid": "ì©ì¸_12793", "sgg_cd": "41460", "sgg_nm": "ì©ì¸ì", "lclsf_cd": "I", "lclsf_nm": "ìê°íê±´ì¡°ì§", "mclsf_cd": "ID", "mclsf_nm": "êµíµìì¤ì§", "sclsf_cd": "ID2", "sclsf_nm": "ì¼ë°ëë¡", "dclsf_cd": "ID2_1", "dclsf_nm": "ê°ë¡ì ìë ì¼ë°ëë¡", "ldc_lc_cd": "A", "ldc_lc_nm": "ìê°íê±´ì¡°ì§ì­", "ldc_mc_cd": "A5", "ldc_mc_nm": "êµíµì§ì­", "ldc_sc_cd": "A54", "ldc_sc_nm": "ëë¡", "shade": 0.2, "heat_score": 23.82 }, "geometry": { "type": "Point", "coordinates": [ 127.1015051, 37.32651520000001 ] } },
{ "type": "Feature", "properties": { "osmid": 3638087029, "y": 37.3261304, "x": 127.1017969, "junction": null, "street_count": 4, "highway": null, "ref": null, "felt_temp": 36.711917877197266, "heat_grade": 5.0, "index_right": 6270.0, "uid": "ì©ì¸_119325", "sgg_cd": "41460", "sgg_nm": "ì©ì¸ì", "lclsf_cd": "I", "lclsf_nm": "ìê°íê±´ì¡°ì§", "mclsf_cd": "ID", "mclsf_nm": "êµíµìì¤ì§", "sclsf_cd": "ID3", "sclsf_nm": "ìëë¡", "dclsf_cd": null, "dclsf_nm": null, "ldc_lc_cd": "A", "ldc_lc_nm": "ìê°íê±´ì¡°ì§ì­", "ldc_mc_cd": "A5", "ldc_mc_nm": "êµíµì§ì­", "ldc_sc_cd": "A54", "ldc_sc_nm": "ëë¡", "shade": 0.2, "heat_score": 22.03 }, "geometry": { "type": "Point", "coordinates": [ 127.1017969, 37.3261304 ] } },
{ "type": "Feature", "properties": { "osmid": 3406879331, "y": 37.3261559, "x": 127.1028727, "junction": null, "street_count": 3, "highway": null, "ref": null, "felt_temp": 36.762672424316406, "heat_grade": 6.0, "index_right": 6024.0, "uid": "ì©ì¸_119268", "sgg_cd": "41460", "sgg_nm": "ì©ì¸ì", "lclsf_cd": "I", "lclsf_nm": "ìê°íê±´ì¡°ì§", "mclsf_cd": "ID", "mclsf_nm": "êµíµìì¤ì§", "sclsf_cd": "ID2", "sclsf_nm": "ì¼ë°ëë¡", "dclsf_cd": "ID2_2", "dclsf_nm": "ê°ë¡ì ìë ì¼ë°ëë¡", "ldc_lc_cd": "A", "ldc_lc_nm": "ìê°íê±´ì¡°ì§ì­", "ldc_mc_cd": "A5", "ldc_mc_nm": "êµíµì§ì­", "ldc_sc_cd": "A54", "ldc_sc_nm": "ëë¡", "shade": 0.2, "heat_score": 22.46 }, "geometry": { "type": "Point", "coordinates": [ 127.1028727, 37.3261559 ] } },
{ "type": "Feature", "properties": { "osmid": 3641671616, "y": 37.325238, "x": 127.1029014, "junction": null, "street_count": 3, "highway": null, "ref": null, "felt_temp": 36.997844696044922, "heat_grade": 8.0, "index_right": 6024.0, "uid": "ì©ì¸_119268", "sgg_cd": "41460", "sgg_nm": "ì©ì¸ì", "lclsf_cd": "I", "lclsf_nm": "ìê°íê±´ì¡°ì§", "mclsf_cd": "ID", "mclsf_nm": "êµíµìì¤ì§", "sclsf_cd": "ID2", "sclsf_nm": "ì¼ë°ëë¡", "dclsf_cd": "ID2_2", "dclsf_nm": "ê°ë¡ì ìë ì¼ë°ëë¡", "ldc_lc_cd": "A", "ldc_lc_nm": "ìê°íê±´ì¡°ì§ì­", "ldc_mc_cd": "A5", "ldc_mc_nm": "êµíµì§ì­", "ldc_sc_cd": "A54", "ldc_sc_nm": "ëë¡", "shade": 0.2, "heat_score": 23.4 }, "geometry": { "type": "Point", "coordinates": [ 127.1029014, 37.325238 ] } },
{ "type": "Feature", "properties": { "osmid": 13535969850, "y": 37.3244351, "x": 127.1029149, "junction": null, "street_count": 3, "highway": null, "ref": null, "felt_temp": 36.721725463867188, "heat_grade": 5.0, "index_right": 6024.0, "uid": "ì©ì¸_119268", "sgg_cd": "41460", "sgg_nm": "ì©ì¸ì", "lclsf_cd": "I", "lclsf_nm": "ìê°íê±´ì¡°ì§", "mclsf_cd": "ID", "mclsf_nm": "êµíµìì¤ì§", "sclsf_cd": "ID2", "sclsf_nm": "ì¼ë°ëë¡", "dclsf_cd": "ID2_2", "dclsf_nm": "ê°ë¡ì ìë ì¼ë°ëë¡", "ldc_lc_cd": "A", "ldc_lc_nm": "ìê°íê±´ì¡°ì§ì­", "ldc_mc_cd": "A5", "ldc_mc_nm": "êµíµì§ì­", "ldc_sc_cd": "A54", "ldc_sc_nm": "ëë¡", "shade": 0.2, "heat_score": 22.03 }, "geometry": { "type": "Point", "coordinates": [ 127.102914900000016, 37.3244351 ] } },
{ "type": "Feature", "properties": { "osmid": 3406879334, "y": 37.3243862, "x": 127.1029157, "junction": null, "street_count": 3, "highway": null, "ref": null, "felt_temp": 36.721725463867188, "heat_grade": 5.0, "index_right": 6024.0, "uid": "ì©ì¸_119268", "sgg_cd": "41460", "sgg_nm": "ì©ì¸ì", "lclsf_cd": "I", "lclsf_nm": "ìê°íê±´ì¡°ì§", "mclsf_cd": "ID", "mclsf_nm": "êµíµìì¤ì§", "sclsf_cd": "ID2", "sclsf_nm": "ì¼ë°ëë¡", "dclsf_cd": "ID2_2", "dclsf_nm": "ê°ë¡ì ìë ì¼ë°ëë¡", "ldc_lc_cd": "A", "ldc_lc_nm": "ìê°íê±´ì¡°ì§ì­", "ldc_mc_cd": "A5", "ldc_mc_nm": "êµíµì§ì­", "ldc_sc_cd": "A54", "ldc_sc_nm": "ëë¡", "shade": 0.2, "heat_score": 22.03 }, "geometry": { "type": "Point", "coordinates": [ 127.1029157, 37.3243862 ] } },
{ "type": "Feature", "properties": { "osmid": 7857963317, "y": 37.3241054, "x": 127.1026234, "junction": null, "street_count": 3, "highway": null, "ref": null, "felt_temp": 37.072734832763672, "heat_grade": 9.0, "index_right": 6024.0, "uid": "ì©ì¸_119268", "sgg_cd": "41460", "sgg_nm": "ì©ì¸ì", "lclsf_cd": "I", "lclsf_nm": "ìê°íê±´ì¡°ì§", "mclsf_cd": "ID", "mclsf_nm": "êµíµìì¤ì§", "sclsf_cd": "ID2", "sclsf_nm": "ì¼ë°ëë¡", "dclsf_cd": "ID2_2", "dclsf_nm": "ê°ë¡ì ìë ì¼ë°ëë¡", "ldc_lc_cd": "A", "ldc_lc_nm": "ìê°íê±´ì¡°ì§ì­", "ldc_mc_cd": "A5", "ldc_mc_nm": "êµíµì§ì­", "ldc_sc_cd": "A54", "ldc_sc_nm": "ëë¡", "shade": 0.2, "heat_score": 23.84 }, "geometry": { "type": "Point", "coordinates": [ 127.102623399999985, 37.3241054 ] } },
{ "type": "Feature", "properties": { "osmid": 7857963316, "y": 37.3240356, "x": 127.1024181, "junction": null, "street_count": 3, "highway": null, "ref": null, "felt_temp": 36.766143798828125, "heat_grade": 6.0, "index_right": 6024.0, "uid": "ì©ì¸_119268", "sgg_cd": "41460", "sgg_nm": "ì©ì¸ì", "lclsf_cd": "I", "lclsf_nm": "ìê°íê±´ì¡°ì§", "mclsf_cd": "ID", "mclsf_nm": "êµíµìì¤ì§", "sclsf_cd": "ID2", "sclsf_nm": "ì¼ë°ëë¡", "dclsf_cd": "ID2_2", "dclsf_nm": "ê°ë¡ì ìë ì¼ë°ëë¡", "ldc_lc_cd": "A", "ldc_lc_nm": "ìê°íê±´ì¡°ì§ì­", "ldc_mc_cd": "A5", "ldc_mc_nm": "êµíµì§ì­", "ldc_sc_cd": "A54", "ldc_sc_nm": "ëë¡", "shade": 0.2, "heat_score": 22.46 }, "geometry": { "type": "Point", "coordinates": [ 127.1024181, 37.3240356 ] } },
{ "type": "Feature", "properties": { "osmid": 7857963315, "y": 37.3236804, "x": 127.1016203, "junction": null, "street_count": 3, "highway": null, "ref": null, "felt_temp": 36.554756164550781, "heat_grade": 2.0, "index_right": 4223.0, "uid": "ì©ì¸_12793", "sgg_cd": "41460", "sgg_nm": "ì©ì¸ì", "lclsf_cd": "I", "lclsf_nm": "ìê°íê±´ì¡°ì§", "mclsf_cd": "ID", "mclsf_nm": "êµíµìì¤ì§", "sclsf_cd": "ID2", "sclsf_nm": "ì¼ë°ëë¡", "dclsf_cd": "ID2_1", "dclsf_nm": "ê°ë¡ì ìë ì¼ë°ëë¡", "ldc_lc_cd": "A", "ldc_lc_nm": "ìê°íê±´ì¡°ì§ì­", "ldc_mc_cd": "A5", "ldc_mc_nm": "êµíµì§ì­", "ldc_sc_cd": "A54", "ldc_sc_nm": "ëë¡", "shade": 0.2, "heat_score": 20.73 }, "geometry": { "type": "Point", "coordinates": [ 127.1016203, 37.3236804 ] } },
{ "type": "Feature", "properties": { "osmid": 7857963324, "y": 37.3230039, "x": 127.1004386, "junction": "yes", "street_count": 4, "highway": null, "ref": null, "felt_temp": 37.088951110839844, "heat_grade": 9.0, "index_right": 4223.0, "uid": "ì©ì¸_12793", "sgg_cd": "41460", "sgg_nm": "ì©ì¸ì", "lclsf_cd": "I", "lclsf_nm": "ìê°íê±´ì¡°ì§", "mclsf_cd": "ID", "mclsf_nm": "êµíµìì¤ì§", "sclsf_cd": "ID2", "sclsf_nm": "ì¼ë°ëë¡", "dclsf_cd": "ID2_1", "dclsf_nm": "ê°ë¡ì ìë ì¼ë°ëë¡", "ldc_lc_cd": "A", "ldc_lc_nm": "ìê°íê±´ì¡°ì§ì­", "ldc_mc_cd": "A5", "ldc_mc_nm": "êµíµì§ì­", "ldc_sc_cd": "A54", "ldc_sc_nm": "ëë¡", "shade": 0.2, "heat_score": 23.85 }, "geometry": { "type": "Point", "coordinates": [ 127.1004386, 37.3230039 ] } },
{ "type": "Feature", "properties": { "osmid": 3641673373, "y": 37.3234313, "x": 127.1000425, "junction": null, "street_count": 3, "highway": null, "ref": null, "felt_temp": 36.224563598632812, "heat_grade": 1.0, "index_right": 6019.0, "uid": "ì©ì¸_118921", "sgg_cd": "41460", "sgg_nm": "ì©ì¸ì", "lclsf_cd": "I", "lclsf_nm": "ìê°íê±´ì¡°ì§", "mclsf_cd": "IA", "mclsf_nm": "ê³µëì£¼íì§", "sclsf_cd": "IA4", "sclsf_nm": "ê¸°í ê³µëì£¼íì§", "dclsf_cd": null, "dclsf_nm": null, "ldc_lc_cd": "A", "ldc_lc_nm": "ìê°íê±´ì¡°ì§ì­", "ldc_mc_cd": "A1", "ldc_mc_nm": "ì£¼ê±°ì§ì­", "ldc_sc_cd": "A12", "ldc_sc_nm": "ê³µëì£¼ê±°ìì¤", "shade": 0.2, "heat_score": 20.13 }, "geometry": { "type": "Point", "coordinates": [ 127.100042500000015, 37.3234313 ] } },
{ "type": "Feature", "properties": { "osmid": 3641673372, "y": 37.3237874, "x": 127.0997139, "junction": null, "street_count": 4, "highway": null, "ref": null, "felt_temp": 36.323444366455078, "heat_grade": 1.0, "index_right": 6270.0, "uid": "ì©ì¸_119325", "sgg_cd": "41460", "sgg_nm": "ì©ì¸ì", "lclsf_cd": "I", "lclsf_nm": "ìê°íê±´ì¡°ì§", "mclsf_cd": "ID", "mclsf_nm": "êµíµìì¤ì§", "sclsf_cd": "ID3", "sclsf_nm": "ìëë¡", "dclsf_cd": null, "dclsf_nm": null, "ldc_lc_cd": "A", "ldc_lc_nm": "ìê°íê±´ì¡°ì§ì­", "ldc_mc_cd": "A5", "ldc_mc_nm": "êµíµì§ì­", "ldc_sc_cd": "A54", "ldc_sc_nm": "ëë¡", "shade": 0.2, "heat_score": 20.19 }, "geometry": { "type": "Point", "coordinates": [ 127.0997139, 37.3237874 ] } },
{ "type": "Feature", "properties": { "osmid": 3641673370, "y": 37.3241074, "x": 127.0994083, "junction": null, "street_count": 4, "highway": null, "ref": null, "felt_temp": 36.522422790527344, "heat_grade": 2.0, "index_right": 6270.0, "uid": "ì©ì¸_119325", "sgg_cd": "41460", "sgg_nm": "ì©ì¸ì", "lclsf_cd": "I", "lclsf_nm": "ìê°íê±´ì¡°ì§", "mclsf_cd": "ID", "mclsf_nm": "êµíµìì¤ì§", "sclsf_cd": "ID3", "sclsf_nm": "ìëë¡", "dclsf_cd": null, "dclsf_nm": null, "ldc_lc_cd": "A", "ldc_lc_nm": "ìê°íê±´ì¡°ì§ì­", "ldc_mc_cd": "A5", "ldc_mc_nm": "êµíµì§ì­", "ldc_sc_cd": "A54", "ldc_sc_nm": "ëë¡", "shade": 0.2, "heat_score": 20.71 }, "geometry": { "type": "Point", "coordinates": [ 127.0994083, 37.3241074 ] } },
{ "type": "Feature", "properties": { "osmid": 3641672247, "y": 37.3247977, "x": 127.1005585, "junction": null, "street_count": 4, "highway": null, "ref": null, "felt_temp": 36.854511260986328, "heat_grade": 8.0, "index_right": 6270.0, "uid": "ì©ì¸_119325", "sgg_cd": "41460", "sgg_nm": "ì©ì¸ì", "lclsf_cd": "I", "lclsf_nm": "ìê°íê±´ì¡°ì§", "mclsf_cd": "ID", "mclsf_nm": "êµíµìì¤ì§", "sclsf_cd": "ID3", "sclsf_nm": "ìëë¡", "dclsf_cd": null, "dclsf_nm": null, "ldc_lc_cd": "A", "ldc_lc_nm": "ìê°íê±´ì¡°ì§ì­", "ldc_mc_cd": "A5", "ldc_mc_nm": "êµíµì§ì­", "ldc_sc_cd": "A54", "ldc_sc_nm": "ëë¡", "shade": 0.2, "heat_score": 23.31 }, "geometry": { "type": "Point", "coordinates": [ 127.10055850000002, 37.3247977 ] } },
{ "type": "Feature", "properties": { "osmid": 3641672246, "y": 37.3251679, "x": 127.1002066, "junction": null, "street_count": 4, "highway": null, "ref": null, "felt_temp": 36.491558074951172, "heat_grade": 2.0, "index_right": 6270.0, "uid": "ì©ì¸_119325", "sgg_cd": "41460", "sgg_nm": "ì©ì¸ì", "lclsf_cd": "I", "lclsf_nm": "ìê°íê±´ì¡°ì§", "mclsf_cd": "ID", "mclsf_nm": "êµíµìì¤ì§", "sclsf_cd": "ID3", "sclsf_nm": "ìëë¡", "dclsf_cd": null, "dclsf_nm": null, "ldc_lc_cd": "A", "ldc_lc_nm": "ìê°íê±´ì¡°ì§ì­", "ldc_mc_cd": "A5", "ldc_mc_nm": "êµíµì§ì­", "ldc_sc_cd": "A54", "ldc_sc_nm": "ëë¡", "shade": 0.2, "heat_score": 20.69 }, "geometry": { "type": "Point", "coordinates": [ 127.100206600000021, 37.3251679 ] } },
{ "type": "Feature", "properties": { "osmid": 3638087029, "y": 37.3261304, "x": 127.1017969, "junction": null, "street_count": 4, "highway": null, "ref": null, "felt_temp": 36.711917877197266, "heat_grade": 5.0, "index_right": 6270.0, "uid": "ì©ì¸_119325", "sgg_cd": "41460", "sgg_nm": "ì©ì¸ì", "lclsf_cd": "I", "lclsf_nm": "ìê°íê±´ì¡°ì§", "mclsf_cd": "ID", "mclsf_nm": "êµíµìì¤ì§", "sclsf_cd": "ID3", "sclsf_nm": "ìëë¡", "dclsf_cd": null, "dclsf_nm": null, "ldc_lc_cd": "A", "ldc_lc_nm": "ìê°íê±´ì¡°ì§ì­", "ldc_mc_cd": "A5", "ldc_mc_nm": "êµíµì§ì­", "ldc_sc_cd": "A54", "ldc_sc_nm": "ëë¡", "shade": 0.2, "heat_score": 22.03 }, "geometry": { "type": "Point", "coordinates": [ 127.1017969, 37.3261304 ] } },
{ "type": "Feature", "properties": { "osmid": 3641672248, "y": 37.3257044, "x": 127.1019654, "junction": null, "street_count": 3, "highway": null, "ref": null, "felt_temp": 36.043140411376953, "heat_grade": 1.0, "index_right": 6270.0, "uid": "ì©ì¸_119325", "sgg_cd": "41460", "sgg_nm": "ì©ì¸ì", "lclsf_cd": "I", "lclsf_nm": "ìê°íê±´ì¡°ì§", "mclsf_cd": "ID", "mclsf_nm": "êµíµìì¤ì§", "sclsf_cd": "ID3", "sclsf_nm": "ìëë¡", "dclsf_cd": null, "dclsf_nm": null, "ldc_lc_cd": "A", "ldc_lc_nm": "ìê°íê±´ì¡°ì§ì­", "ldc_mc_cd": "A5", "ldc_mc_nm": "êµíµì§ì­", "ldc_sc_cd": "A54", "ldc_sc_nm": "ëë¡", "shade": 0.2, "heat_score": 20.03 }, "geometry": { "type": "Point", "coordinates": [ 127.101965400000012, 37.3257044 ] } },
{ "type": "Feature", "properties": { "osmid": 3641671615, "y": 37.3252233, "x": 127.1021056, "junction": null, "street_count": 3, "highway": null, "ref": null, "felt_temp": 36.302421569824219, "heat_grade": 1.0, "index_right": 6270.0, "uid": "ì©ì¸_119325", "sgg_cd": "41460", "sgg_nm": "ì©ì¸ì", "lclsf_cd": "I", "lclsf_nm": "ìê°íê±´ì¡°ì§", "mclsf_cd": "ID", "mclsf_nm": "êµíµìì¤ì§", "sclsf_cd": "ID3", "sclsf_nm": "ìëë¡", "dclsf_cd": null, "dclsf_nm": null, "ldc_lc_cd": "A", "ldc_lc_nm": "ìê°íê±´ì¡°ì§ì­", "ldc_mc_cd": "A5", "ldc_mc_nm": "êµíµì§ì­", "ldc_sc_cd": "A54", "ldc_sc_nm": "ëë¡", "shade": 0.2, "heat_score": 20.18 }, "geometry": { "type": "Point", "coordinates": [ 127.1021056, 37.3252233 ] } },
{ "type": "Feature", "properties": { "osmid": 3641672251, "y": 37.3246467, "x": 127.1022571, "junction": null, "street_count": 3, "highway": null, "ref": null, "felt_temp": 36.380329132080078, "heat_grade": 1.0, "index_right": 6270.0, "uid": "ì©ì¸_119325", "sgg_cd": "41460", "sgg_nm": "ì©ì¸ì", "lclsf_cd": "I", "lclsf_nm": "ìê°íê±´ì¡°ì§", "mclsf_cd": "ID", "mclsf_nm": "êµíµìì¤ì§", "sclsf_cd": "ID3", "sclsf_nm": "ìëë¡", "dclsf_cd": null, "dclsf_nm": null, "ldc_lc_cd": "A", "ldc_lc_nm": "ìê°íê±´ì¡°ì§ì­", "ldc_mc_cd": "A5", "ldc_mc_nm": "êµíµì§ì­", "ldc_sc_cd": "A54", "ldc_sc_nm": "ëë¡", "shade": 0.2, "heat_score": 20.23 }, "geometry": { "type": "Point", "coordinates": [ 127.1022571, 37.32464670000001 ] } },
{ "type": "Feature", "properties": { "osmid": 3641672250, "y": 37.3244272, "x": 127.1016772, "junction": null, "street_count": 3, "highway": null, "ref": null, "felt_temp": 35.923011779785156, "heat_grade": 1.0, "index_right": 6270.0, "uid": "ì©ì¸_119325", "sgg_cd": "41460", "sgg_nm": "ì©ì¸ì", "lclsf_cd": "I", "lclsf_nm": "ìê°íê±´ì¡°ì§", "mclsf_cd": "ID", "mclsf_nm": "êµíµìì¤ì§", "sclsf_cd": "ID3", "sclsf_nm": "ìëë¡", "dclsf_cd": null, "dclsf_nm": null, "ldc_lc_cd": "A", "ldc_lc_nm": "ìê°íê±´ì¡°ì§ì­", "ldc_mc_cd": "A5", "ldc_mc_nm": "êµíµì§ì­", "ldc_sc_cd": "A54", "ldc_sc_nm": "ëë¡", "shade": 0.2, "heat_score": 19.95 }, "geometry": { "type": "Point", "coordinates": [ 127.1016772, 37.3244272 ] } }
]
}
