{
"type": "FeatureCollection",
"name": "cool_cycle_1km_route1_edges",
"crs": { "type": "name", "properties": { "name": "urn:ogc:def:crs:OGC:1.3:CRS84" } },
"features": [
{ "type": "Feature", "properties": { "u": 2405708087, "v": 2405708106, "length": 48.875503721288069, "heat_score": 7.27 }, "geometry": { "type": "LineString", "coordinates": [ [ 127.1279291, 37.3309017 ], [ 127.127928900000015, 37.3308703 ], [ 127.1279272, 37.330800600000011 ], [ 127.1279083, 37.3304625 ] ] } },
{ "type": "Feature", "properties": { "u": 2405708106, "v": 2405708161, "length": 76.38589356760987, "heat_score": 7.095 }, "geometry": { "type": "LineString", "coordinates": [ [ 127.1278977, 37.3315882 ], [ 127.1279291, 37.3309017 ] ] } },
{ "type": "Feature", "properties": { "u": 2405708161, "v": 2405708171, "length": 327.60990111701977, "heat_score": -4.23 }, "geometry": { "type": "LineString", "coordinates": [ [ 127.124218200000016, 37.3317762 ], [ 127.1253659, 37.3317979 ], [ 127.126585, 37.3317437 ], [ 127.1274631, 37.331581 ], [ 127.1278977, 37.3315882 ] ] } },
{ "type": "Feature", "properties": { "u": 2405708171, "v": 2405708142, "length": 46.849593304331876, "heat_score": 7.94 }, "geometry": { "type": "LineString", "coordinates": [ [ 127.124218200000016, 37.3317762 ], [ 127.1242121, 37.3313549 ] ] } },
{ "type": "Feature", "properties": { "u": 2405708142, "v": 4169632612, "length": 86.774685165662859, "heat_score": 8.06 }, "geometry": { "type": "LineString", "coordinates": [ [ 127.1232652, 37.3312254 ], [ 127.123561, 37.3312303 ], [ 127.1239287, 37.3313597 ], [ 127.124113200000011, 37.3313559 ], [ 127.1242121, 37.3313549 ] ] } },
{ "type": "Feature", "properties": { "u": 4169632612, "v": 2405708085, "length": 96.397785040379958, "heat_score": -3.665 }, "geometry": { "type": "LineString", "coordinates": [ [ 127.1232652, 37.3312254 ], [ 127.1232704, 37.3310731 ], [ 127.1232682, 37.3306025 ], [ 127.1231793, 37.330369 ] ] } },
{ "type": "Feature", "properties": { "u": 2405708085, "v": 2405708072, "length": 49.826212813718193, "heat_score": -3.65 }, "geometry": { "type": "LineString", "coordinates": [ [ 127.1231793, 37.330369 ], [ 127.1230801, 37.3299279 ] ] } },
{ "type": "Feature", "properties": { "u": 2405708072, "v": 2405708063, "length": 255.58077717319779, "heat_score": -2.99 }, "geometry": { "type": "LineString", "coordinates": [ [ 127.1230801, 37.3299279 ], [ 127.123668, 37.3297938 ], [ 127.1242676, 37.3297026 ], [ 127.1244498, 37.3296927 ], [ 127.12525770000002, 37.3296995 ], [ 127.125934900000019, 37.3297249 ] ] } },
{ "type": "Feature", "properties": { "u": 2405708063, "v": 2405708087, "length": 203.02558545521032, "heat_score": -3.93 }, "geometry": { "type": "LineString", "coordinates": [ [ 127.1279083, 37.3304625 ], [ 127.1277983, 37.3302832 ], [ 127.12768410000001, 37.3301332 ], [ 127.1269732, 37.3299443 ], [ 127.1268481, 37.3299101 ], [ 127.1261228, 37.3297737 ], [ 127.125934900000019, 37.3297249 ] ] } }
]
}
