{
"type": "FeatureCollection",
"name": "cool_cycle_5km_route1_edges",
"crs": { "type": "name", "properties": { "name": "urn:ogc:def:crs:OGC:1.3:CRS84" } },
"features": [
{ "type": "Feature", "properties": { "u": 3638088181, "v": 3638084966, "length": 87.729065047381411, "heat_score": -4.525 }, "geometry": { "type": "LineString", "coordinates": [ [ 127.096239400000016, 37.325803 ], [ 127.095460200000019, 37.3253146 ] ] } },
{ "type": "Feature", "properties": { "u": 3638084966, "v": 3638088208, "length": 88.266836728048403, "heat_score": -4.51 }, "geometry": { "type": "LineString", "coordinates": [ [ 127.0946582, 37.3248421 ], [ 127.095352600000012, 37.3252463 ], [ 127.095460200000019, 37.3253146 ] ] } },
{ "type": "Feature", "properties": { "u": 3638088208, "v": 3638077031, "length": 46.673894918836879, "heat_score": -4.25 }, "geometry": { "type": "LineString", "coordinates": [ [ 127.0946582, 37.3248421 ], [ 127.0944274, 37.3247145 ], [ 127.0944062, 37.3247028 ], [ 127.0942248, 37.3246025 ] ] } },
{ "type": "Feature", "properties": { "u": 3638077031, "v": 842899459, "length": 216.6559891133615, "heat_score": -3.165 }, "geometry": { "type": "LineString", "coordinates": [ [ 127.0942248, 37.3246025 ], [ 127.0943371, 37.3244789 ], [ 127.0948439, 37.323921 ], [ 127.0955389, 37.3231542 ], [ 127.095653100000021, 37.3230282 ], [ 127.0956584, 37.3230224 ] ] } },
{ "type": "Feature", "properties": { "u": 842899459, "v": 6269743767, "length": 97.915747109989638, "heat_score": 7.895 }, "geometry": { "type": "LineString", "coordinates": [ [ 127.094742600000018, 37.3225274 ], [ 127.0954274, 37.3228962 ], [ 127.0955224, 37.3229481 ], [ 127.0956584, 37.3230224 ] ] } },
{ "type": "Feature", "properties": { "u": 6269743767, "v": 842899419, "length": 112.15561855594568, "heat_score": 6.825 }, "geometry": { "type": "LineString", "coordinates": [ [ 127.094742600000018, 37.3225274 ], [ 127.094508200000021, 37.3223961 ], [ 127.093876, 37.322057800000017 ], [ 127.0938541, 37.3220436 ], [ 127.093705499999984, 37.3219477 ] ] } },
{ "type": "Feature", "properties": { "u": 842899419, "v": 3699314313, "length": 40.459937053555663, "heat_score": -4.22 }, "geometry": { "type": "LineString", "coordinates": [ [ 127.093964, 37.3216475 ], [ 127.093845500000015, 37.3217831 ], [ 127.093767200000016, 37.3218728 ], [ 127.093705499999984, 37.3219477 ] ] } },
{ "type": "Feature", "properties": { "u": 3699314313, "v": 3638077027, "length": 41.410553107527875, "heat_score": -4.23 }, "geometry": { "type": "LineString", "coordinates": [ [ 127.093964, 37.3216475 ], [ 127.0941728, 37.3214096 ], [ 127.094232, 37.3213421 ] ] } },
{ "type": "Feature", "properties": { "u": 3638077027, "v": 3638077029, "length": 219.54515015701281, "heat_score": -4.205 }, "geometry": { "type": "LineString", "coordinates": [ [ 127.096058500000012, 37.3214335 ], [ 127.0959656, 37.3215322 ], [ 127.0954884, 37.3220388 ], [ 127.0950348, 37.321781 ], [ 127.0948409, 37.3216708 ], [ 127.0943588, 37.3214106 ], [ 127.094232, 37.3213421 ] ] } },
{ "type": "Feature", "properties": { "u": 3638077029, "v": 3638077030, "length": 74.193302168624015, "heat_score": -3.125 }, "geometry": { "type": "LineString", "coordinates": [ [ 127.0967371, 37.3218259 ], [ 127.096635100000015, 37.3217669 ], [ 127.0961816, 37.3215047 ], [ 127.096058500000012, 37.3214335 ] ] } },
{ "type": "Feature", "properties": { "u": 3638077030, "v": 7857963328, "length": 93.366003789928186, "heat_score": -3.15 }, "geometry": { "type": "LineString", "coordinates": [ [ 127.097361500000019, 37.3211488 ], [ 127.0972452, 37.3212749 ], [ 127.0967371, 37.3218259 ] ] } },
{ "type": "Feature", "properties": { "u": 7857963328, "v": 414694371, "length": 810.50517508504481, "heat_score": -3.145 }, "geometry": { "type": "LineString", "coordinates": [ [ 127.097361500000019, 37.3211488 ], [ 127.0969318, 37.3208324 ], [ 127.096266400000019, 37.3203978 ], [ 127.095430599999986, 37.3198328 ], [ 127.0948005, 37.3194673 ], [ 127.0944321, 37.3192623 ], [ 127.0941385, 37.319082 ], [ 127.0939672, 37.3189768 ], [ 127.0929177, 37.31833240000001 ], [ 127.0903171, 37.316801 ], [ 127.0901614, 37.3166525 ] ] } },
{ "type": "Feature", "properties": { "u": 414694371, "v": 1994672751, "length": 167.090007261469, "heat_score": -3.155 }, "geometry": { "type": "LineString", "coordinates": [ [ 127.0886562, 37.3157442 ], [ 127.0901614, 37.3166525 ] ] } },
{ "type": "Feature", "properties": { "u": 1994672751, "v": 3655080125, "length": 160.83810730577073, "heat_score": 8.425 }, "geometry": { "type": "LineString", "coordinates": [ [ 127.087638699999985, 37.3169431 ], [ 127.087927900000011, 37.3165986 ], [ 127.0886562, 37.3157442 ] ] } },
{ "type": "Feature", "properties": { "u": 3655080125, "v": 1994672752, "length": 146.31604154409646, "heat_score": 8.59 }, "geometry": { "type": "LineString", "coordinates": [ [ 127.087638699999985, 37.3169431 ], [ 127.0869382, 37.3177664 ], [ 127.0867422, 37.3180479 ] ] } },
{ "type": "Feature", "properties": { "u": 1994672752, "v": 842899463, "length": 79.974526329469285, "heat_score": -2.99 }, "geometry": { "type": "LineString", "coordinates": [ [ 127.0867422, 37.3180479 ], [ 127.0867087, 37.3180363 ], [ 127.086657200000019, 37.3180228 ], [ 127.0865428, 37.3180082 ], [ 127.0864104, 37.3179872 ], [ 127.0862696, 37.3179858 ], [ 127.086137699999981, 37.3179822 ], [ 127.0859974, 37.3179964 ], [ 127.085857, 37.3180349 ] ] } },
{ "type": "Feature", "properties": { "u": 842899463, "v": 11831009774, "length": 169.60728686121215, "heat_score": -2.985 }, "geometry": { "type": "LineString", "coordinates": [ [ 127.0841426, 37.31871790000001 ], [ 127.085055, 37.3183484 ], [ 127.0852901, 37.3182624 ], [ 127.085547700000021, 37.3181678 ], [ 127.085857, 37.3180349 ] ] } },
{ "type": "Feature", "properties": { "u": 11831009774, "v": 11831008067, "length": 20.745024550195076, "heat_score": -2.985 }, "geometry": { "type": "LineString", "coordinates": [ [ 127.0841426, 37.31871790000001 ], [ 127.0839278, 37.3187929 ] ] } },
{ "type": "Feature", "properties": { "u": 11831008067, "v": 842899428, "length": 26.878159477464941, "heat_score": -2.98 }, "geometry": { "type": "LineString", "coordinates": [ [ 127.0839278, 37.3187929 ], [ 127.083799299999981, 37.3188339 ], [ 127.0836481, 37.3188874 ] ] } },
{ "type": "Feature", "properties": { "u": 842899428, "v": 13539327752, "length": 12.368843478303724, "heat_score": -2.975 }, "geometry": { "type": "LineString", "coordinates": [ [ 127.083519800000019, 37.3189317 ], [ 127.0836481, 37.3188874 ] ] } },
{ "type": "Feature", "properties": { "u": 13539327752, "v": 13539327750, "length": 24.346445792214688, "heat_score": -2.99 }, "geometry": { "type": "LineString", "coordinates": [ [ 127.083519800000019, 37.3189317 ], [ 127.083479400000016, 37.3188613 ], [ 127.083402299999989, 37.31873370000001 ] ] } },
{ "type": "Feature", "properties": { "u": 13539327750, "v": 11831008065, "length": 37.26202335088513, "heat_score": -3.12 }, "geometry": { "type": "LineString", "coordinates": [ [ 127.083253, 37.3190433 ], [ 127.0833413, 37.3189161 ], [ 127.083380199999979, 37.3188386 ], [ 127.083402299999989, 37.31873370000001 ] ] } },
{ "type": "Feature", "properties": { "u": 11831008065, "v": 13539327752, "length": 26.678116799415687, "heat_score": -3.12 }, "geometry": { "type": "LineString", "coordinates": [ [ 127.083519800000019, 37.3189317 ], [ 127.0834586, 37.3189529 ], [ 127.0833177, 37.3190148 ], [ 127.083253, 37.3190433 ] ] } },
{ "type": "Feature", "properties": { "u": 13539327752, "v": 13539327755, "length": 51.128917343503964, "heat_score": -3.54 }, "geometry": { "type": "LineString", "coordinates": [ [ 127.0837942, 37.319336300000018 ], [ 127.083613400000019, 37.3190596 ], [ 127.083519800000019, 37.3189317 ] ] } },
{ "type": "Feature", "properties": { "u": 13539327755, "v": 11831009773, "length": 73.153227853748291, "heat_score": -3.67 }, "geometry": { "type": "LineString", "coordinates": [ [ 127.0837942, 37.319336300000018 ], [ 127.0835867, 37.3191973 ], [ 127.083503300000018, 37.31915630000001 ], [ 127.083435900000012, 37.3191443 ], [ 127.0833486, 37.3191412 ], [ 127.0830472, 37.3191449 ] ] } },
{ "type": "Feature", "properties": { "u": 11831009773, "v": 3529513828, "length": 59.619732686719118, "heat_score": -3.29 }, "geometry": { "type": "LineString", "coordinates": [ [ 127.0830472, 37.3191449 ], [ 127.082442500000013, 37.319382 ] ] } },
{ "type": "Feature", "properties": { "u": 3529513828, "v": 12794837217, "length": 328.86656831242186, "heat_score": -3.34 }, "geometry": { "type": "LineString", "coordinates": [ [ 127.080060099999983, 37.3216088 ], [ 127.080266400000014, 37.321375 ], [ 127.0804832, 37.3210828 ], [ 127.080639, 37.32089710000001 ], [ 127.0809205, 37.3205718 ], [ 127.0810652, 37.320422 ], [ 127.081135, 37.3203566 ], [ 127.081238, 37.32026 ], [ 127.0813502, 37.3201595 ], [ 127.08158, 37.3199539 ], [ 127.081808899999984, 37.3197465 ], [ 127.081895500000016, 37.3196693 ], [ 127.0819656, 37.3196158 ], [ 127.0820366, 37.319567 ], [ 127.0821222, 37.3195211 ], [ 127.082258900000014, 37.3194584 ], [ 127.082385800000011, 37.3194075 ], [ 127.082442500000013, 37.319382 ] ] } },
{ "type": "Feature", "properties": { "u": 12794837217, "v": 1924789280, "length": 46.722340808798421, "heat_score": -3.165 }, "geometry": { "type": "LineString", "coordinates": [ [ 127.080060099999983, 37.3216088 ], [ 127.080035400000014, 37.3216401 ], [ 127.0799615, 37.3217259 ], [ 127.0798704, 37.3218317 ], [ 127.079766699999979, 37.3219582 ] ] } },
{ "type": "Feature", "properties": { "u": 1924789280, "v": 3707678681, "length": 55.058599340119954, "heat_score": -3.115 }, "geometry": { "type": "LineString", "coordinates": [ [ 127.0799336, 37.3224252 ], [ 127.079923800000017, 37.3223161 ], [ 127.079890899999981, 37.3221531 ], [ 127.079874600000011, 37.3221146 ], [ 127.079848200000015, 37.3220518 ], [ 127.079766699999979, 37.3219582 ] ] } },
{ "type": "Feature", "properties": { "u": 3707678681, "v": 3660317658, "length": 252.70377555499033, "heat_score": -4.25 }, "geometry": { "type": "LineString", "coordinates": [ [ 127.0799336, 37.3224252 ], [ 127.0803587, 37.3239014 ], [ 127.0804042, 37.3240059 ], [ 127.080468600000017, 37.324023 ], [ 127.080549, 37.3240273 ], [ 127.08120390000002, 37.3239314 ] ] } },
{ "type": "Feature", "properties": { "u": 3660317658, "v": 3529506336, "length": 74.725283976282313, "heat_score": -5.25 }, "geometry": { "type": "LineString", "coordinates": [ [ 127.08120390000002, 37.3239314 ], [ 127.082035, 37.3238097 ] ] } },
{ "type": "Feature", "properties": { "u": 3529506336, "v": 3529506337, "length": 51.489123545063038, "heat_score": -4.3 }, "geometry": { "type": "LineString", "coordinates": [ [ 127.0825983, 37.3236924 ], [ 127.082035, 37.3238097 ] ] } },
{ "type": "Feature", "properties": { "u": 3529506337, "v": 8482871796, "length": 91.214694386898685, "heat_score": -3.305 }, "geometry": { "type": "LineString", "coordinates": [ [ 127.0821527, 37.3229642 ], [ 127.08227909999998, 37.3230791 ], [ 127.0823757, 37.3231943 ], [ 127.0824454, 37.3233308 ], [ 127.0825259, 37.323495 ], [ 127.0825983, 37.3236924 ] ] } },
{ "type": "Feature", "properties": { "u": 8482871796, "v": 3529513830, "length": 341.78572426459607, "heat_score": -3.295 }, "geometry": { "type": "LineString", "coordinates": [ [ 127.0821527, 37.3229642 ], [ 127.0821289, 37.3229426 ], [ 127.081951900000021, 37.3228317 ], [ 127.0817963, 37.322708 ], [ 127.0816461, 37.322588500000016 ], [ 127.081538800000018, 37.3224435 ], [ 127.0814691, 37.3223027 ], [ 127.0814423, 37.322179 ], [ 127.0814154, 37.3220126 ], [ 127.0813725, 37.3217737 ], [ 127.081356400000018, 37.321633 ], [ 127.0814744, 37.3215988 ], [ 127.0816998, 37.321556200000011 ], [ 127.081994800000018, 37.321505 ], [ 127.082198600000012, 37.3214623 ], [ 127.082418599999983, 37.3214197 ], [ 127.082601, 37.3213898 ], [ 127.0829067, 37.3213429 ], [ 127.083228600000012, 37.3213045 ] ] } },
{ "type": "Feature", "properties": { "u": 3529513830, "v": 3529513813, "length": 149.13028604617142, "heat_score": -3.165 }, "geometry": { "type": "LineString", "coordinates": [ [ 127.083228600000012, 37.3213045 ], [ 127.083732900000015, 37.321249 ], [ 127.084086900000017, 37.3212149 ], [ 127.084208799999985, 37.3212028 ], [ 127.084559, 37.321168 ], [ 127.084752499999979, 37.3211622 ], [ 127.0849024, 37.3211455 ] ] } },
{ "type": "Feature", "properties": { "u": 3529513813, "v": 13539327774, "length": 291.35593917360535, "heat_score": -3.16 }, "geometry": { "type": "LineString", "coordinates": [ [ 127.0869739, 37.32314010000001 ], [ 127.086342800000011, 37.3227374 ], [ 127.0862212, 37.3226395 ], [ 127.086103300000019, 37.3225464 ], [ 127.0859758, 37.3224357 ], [ 127.0857973, 37.32228030000001 ], [ 127.0855728, 37.3220678 ], [ 127.0853131, 37.321775 ], [ 127.08518, 37.3216089 ], [ 127.085068, 37.3214416 ], [ 127.0849422, 37.3212119 ], [ 127.0849024, 37.3211455 ] ] } },
{ "type": "Feature", "properties": { "u": 13539327774, "v": 13539327778, "length": 399.82163559064753, "heat_score": -3.135 }, "geometry": { "type": "LineString", "coordinates": [ [ 127.0905735, 37.325315 ], [ 127.090492199999986, 37.3252606 ], [ 127.089748799999981, 37.3248275 ], [ 127.0888981, 37.3242939 ], [ 127.087925400000017, 37.3237293 ], [ 127.0876123, 37.3235434 ], [ 127.0869739, 37.32314010000001 ] ] } },
{ "type": "Feature", "properties": { "u": 13539327778, "v": 3677038134, "length": 15.496281366366416, "heat_score": -2.98 }, "geometry": { "type": "LineString", "coordinates": [ [ 127.0905735, 37.325315 ], [ 127.0906788, 37.3252036 ] ] } },
{ "type": "Feature", "properties": { "u": 3677038134, "v": 414694398, "length": 214.67521703660648, "heat_score": -3.16 }, "geometry": { "type": "LineString", "coordinates": [ [ 127.0906788, 37.3252036 ], [ 127.0907628, 37.3252527 ], [ 127.0924877, 37.3262821 ], [ 127.0926264, 37.326356 ] ] } },
{ "type": "Feature", "properties": { "u": 414694398, "v": 13539327784, "length": 12.631967915442782, "heat_score": -3.3 }, "geometry": { "type": "LineString", "coordinates": [ [ 127.092535900000016, 37.3264439 ], [ 127.0926264, 37.326356 ] ] } },
{ "type": "Feature", "properties": { "u": 13539327784, "v": 13116724457, "length": 20.008766557674331, "heat_score": -3.315 }, "geometry": { "type": "LineString", "coordinates": [ [ 127.0927481, 37.3265064 ], [ 127.092535900000016, 37.3264439 ] ] } },
{ "type": "Feature", "properties": { "u": 13116724457, "v": 842899414, "length": 221.49055210020782, "heat_score": -3.3 }, "geometry": { "type": "LineString", "coordinates": [ [ 127.0927481, 37.3265064 ], [ 127.093163200000021, 37.3268511 ], [ 127.094323, 37.3278628 ], [ 127.0944496, 37.3279681 ] ] } },
{ "type": "Feature", "properties": { "u": 842899414, "v": 3641671895, "length": 271.44846172742228, "heat_score": -3.555 }, "geometry": { "type": "LineString", "coordinates": [ [ 127.0965318, 37.3262125 ], [ 127.095941, 37.3268688 ], [ 127.0955664, 37.3272652 ], [ 127.095439099999979, 37.327390800000011 ], [ 127.095380700000021, 37.3274369 ], [ 127.09537060000001, 37.3274436 ], [ 127.095313500000017, 37.3274807 ], [ 127.0951932, 37.32755 ], [ 127.094635200000013, 37.3278693 ], [ 127.0944496, 37.3279681 ] ] } },
{ "type": "Feature", "properties": { "u": 3641671895, "v": 842899402, "length": 22.569631562029649, "heat_score": -3.97 }, "geometry": { "type": "LineString", "coordinates": [ [ 127.0965318, 37.3262125 ], [ 127.096582, 37.3261551 ], [ 127.0966785, 37.3260464 ] ] } },
{ "type": "Feature", "properties": { "u": 842899402, "v": 3638088181, "length": 47.328450578435948, "heat_score": -4.65 }, "geometry": { "type": "LineString", "coordinates": [ [ 127.096239400000016, 37.325803 ], [ 127.0966785, 37.3260464 ] ] } }
]
}
