{
"type": "FeatureCollection",
"name": "cool_cycle_1km_route2_nodes",
"crs": { "type": "name", "properties": { "name": "urn:ogc:def:crs:OGC:1.3:CRS84" } },
"features": [
{ "type": "Feature", "properties": { "osmid": 3525982789, "y": 37.328298, "x": 127.0683924, "junction": "yes", "street_count": 4, "highway": null, "ref": null, "felt_temp": 36.734748840332031, "heat_grade": 6.0, "index_right": 4223.0, "uid": "ì©ì¸_12793", "sgg_cd": "41460", "sgg_nm": "ì©ì¸ì", "lclsf_cd": "I", "lclsf_nm": "ìê°íê±´ì¡°ì§", "mclsf_cd": "ID", "mclsf_nm": "êµíµìì¤ì§", "sclsf_cd": "ID2", "sclsf_nm": "ì¼ë°ëë¡", "dclsf_cd": "ID2_1", "dclsf_nm": "ê°ë¡ì ìë ì¼ë°ëë¡", "ldc_lc_cd": "A", "ldc_lc_nm": "ìê°íê±´ì¡°ì§ì­", "ldc_mc_cd": "A5", "ldc_mc_nm": "êµíµì§ì­", "ldc_sc_cd": "A54", "ldc_sc_nm": "ëë¡", "shade": 0.9, "heat_score": -3.85, "heat_grade_norm": 0.556 }, "geometry": { "type": "Point", "coordinates": [ 127.0683924, 37.328298 ] } },
{ "type": "Feature", "properties": { "osmid": 3706019522, "y": 37.3288015, "x": 127.0678253, "junction": null, "street_count": 3, "highway": null, "ref": null, "felt_temp": 36.554977416992188, "heat_grade": 2.0, "index_right": 4223.0, "uid": "ì©ì¸_12793", "sgg_cd": "41460", "sgg_nm": "ì©ì¸ì", "lclsf_cd": "I", "lclsf_nm": "ìê°íê±´ì¡°ì§", "mclsf_cd": "ID", "mclsf_nm": "êµíµìì¤ì§", "sclsf_cd": "ID2", "sclsf_nm": "ì¼ë°ëë¡", "dclsf_cd": "ID2_1", "dclsf_nm": "ê°ë¡ì ìë ì¼ë°ëë¡", "ldc_lc_cd": "A", "ldc_lc_nm": "ìê°íê±´ì¡°ì§ì­", "ldc_mc_cd": "A5", "ldc_mc_nm": "êµíµì§ì­", "ldc_sc_cd": "A54", "ldc_sc_nm": "ëë¡", "shade": 0.9, "heat_score": -4.84, "heat_grade_norm": 0.111 }, "geometry": { "type": "Point", "coordinates": [ 127.06782530000001, 37.3288015 ] } },
{ "type": "Feature", "properties": { "osmid": 2651554894, "y": 37.3312331, "x": 127.0650574, "junction": "yes", "street_count": 4, "highway": null, "ref": null, "felt_temp": 36.981224060058594, "heat_grade": 8.0, "index_right": 4223.0, "uid": "ì©ì¸_12793", "sgg_cd": "41460", "sgg_nm": "ì©ì¸ì", "lclsf_cd": "I", "lclsf_nm": "ìê°íê±´ì¡°ì§", "mclsf_cd": "ID", "mclsf_nm": "êµíµìì¤ì§", "sclsf_cd": "ID2", "sclsf_nm": "ì¼ë°ëë¡", "dclsf_cd": "ID2_1", "dclsf_nm": "ê°ë¡ì ìë ì¼ë°ëë¡", "ldc_lc_cd": "A", "ldc_lc_nm": "ìê°íê±´ì¡°ì§ì­", "ldc_mc_cd": "A5", "ldc_mc_nm": "êµíµì§ì­", "ldc_sc_cd": "A54", "ldc_sc_nm": "ëë¡", "shade": 0.9, "heat_score": -3.26, "heat_grade_norm": 0.778 }, "geometry": { "type": "Point", "coordinates": [ 127.0650574, 37.3312331 ] } },
{ "type": "Feature", "properties": { "osmid": 3528551437, "y": 37.3306782, "x": 127.0645389, "junction": null, "street_count": 3, "highway": null, "ref": null, "felt_temp": 36.914318084716797, "heat_grade": 8.0, "index_right": 4223.0, "uid": "ì©ì¸_12793", "sgg_cd": "41460", "sgg_nm": "ì©ì¸ì", "lclsf_cd": "I", "lclsf_nm": "ìê°íê±´ì¡°ì§", "mclsf_cd": "ID", "mclsf_nm": "êµíµìì¤ì§", "sclsf_cd": "ID2", "sclsf_nm": "ì¼ë°ëë¡", "dclsf_cd": "ID2_1", "dclsf_nm": "ê°ë¡ì ìë ì¼ë°ëë¡", "ldc_lc_cd": "A", "ldc_lc_nm": "ìê°íê±´ì¡°ì§ì­", "ldc_mc_cd": "A5", "ldc_mc_nm": "êµíµì§ì­", "ldc_sc_cd": "A54", "ldc_sc_nm": "ëë¡", "shade": 0.9, "heat_score": -3.3, "heat_grade_norm": 0.778 }, "geometry": { "type": "Point", "coordinates": [ 127.0645389, 37.3306782 ] } },
{ "type": "Feature", "properties": { "osmid": 3528551422, "y": 37.3274704, "x": 127.0672246, "junction": "yes", "street_count": 4, "highway": null, "ref": null, "felt_temp": 36.741714477539062, "heat_grade": 6.0, "index_right": 4223.0, "uid": "ì©ì¸_12793", "sgg_cd": "41460", "sgg_nm": "ì©ì¸ì", "lclsf_cd": "I", "lclsf_nm": "ìê°íê±´ì¡°ì§", "mclsf_cd": "ID", "mclsf_nm": "êµíµìì¤ì§", "sclsf_cd": "ID2", "sclsf_nm": "ì¼ë°ëë¡", "dclsf_cd": "ID2_1", "dclsf_nm": "ê°ë¡ì ìë ì¼ë°ëë¡", "ldc_lc_cd": "A", "ldc_lc_nm": "ìê°íê±´ì¡°ì§ì­", "ldc_mc_cd": "A5", "ldc_mc_nm": "êµíµì§ì­", "ldc_sc_cd": "A54", "ldc_sc_nm": "ëë¡", "shade": 0.9, "heat_score": -3.84, "heat_grade_norm": 0.556 }, "geometry": { "type": "Point", "coordinates": [ 127.067224600000017, 37.32747040000001 ] } },
{ "type": "Feature", "properties": { "osmid": 3528551421, "y": 37.3277779, "x": 127.0676508, "junction": null, "street_count": 3, "highway": null, "ref": null, "felt_temp": 36.799461364746094, "heat_grade": 7.0, "index_right": 4223.0, "uid": "ì©ì¸_12793", "sgg_cd": "41460", "sgg_nm": "ì©ì¸ì", "lclsf_cd": "I", "lclsf_nm": "ìê°íê±´ì¡°ì§", "mclsf_cd": "ID", "mclsf_nm": "êµíµìì¤ì§", "sclsf_cd": "ID2", "sclsf_nm": "ì¼ë°ëë¡", "dclsf_cd": "ID2_1", "dclsf_nm": "ê°ë¡ì ìë ì¼ë°ëë¡", "ldc_lc_cd": "A", "ldc_lc_nm": "ìê°íê±´ì¡°ì§ì­", "ldc_mc_cd": "A5", "ldc_mc_nm": "êµíµì§ì­", "ldc_sc_cd": "A54", "ldc_sc_nm": "ëë¡", "shade": 0.9, "heat_score": -3.59, "heat_grade_norm": 0.667 }, "geometry": { "type": "Point", "coordinates": [ 127.067650799999981, 37.3277779 ] } },
{ "type": "Feature", "properties": { "osmid": 3706019517, "y": 37.3280344, "x": 127.0680165, "junction": null, "street_count": 3, "highway": null, "ref": null, "felt_temp": 36.1300048828125, "heat_grade": 1.0, "index_right": 4223.0, "uid": "ì©ì¸_12793", "sgg_cd": "41460", "sgg_nm": "ì©ì¸ì", "lclsf_cd": "I", "lclsf_nm": "ìê°íê±´ì¡°ì§", "mclsf_cd": "ID", "mclsf_nm": "êµíµìì¤ì§", "sclsf_cd": "ID2", "sclsf_nm": "ì¼ë°ëë¡", "dclsf_cd": "ID2_1", "dclsf_nm": "ê°ë¡ì ìë ì¼ë°ëë¡", "ldc_lc_cd": "A", "ldc_lc_nm": "ìê°íê±´ì¡°ì§ì­", "ldc_mc_cd": "A5", "ldc_mc_nm": "êµíµì§ì­", "ldc_sc_cd": "A54", "ldc_sc_nm": "ëë¡", "shade": 0.9, "heat_score": -5.32, "heat_grade_norm": 0.0 }, "geometry": { "type": "Point", "coordinates": [ 127.068016499999985, 37.3280344 ] } },
{ "type": "Feature", "properties": { "osmid": 3525982789, "y": 37.328298, "x": 127.0683924, "junction": "yes", "street_count": 4, "highway": null, "ref": null, "felt_temp": 36.734748840332031, "heat_grade": 6.0, "index_right": 4223.0, "uid": "ì©ì¸_12793", "sgg_cd": "41460", "sgg_nm": "ì©ì¸ì", "lclsf_cd": "I", "lclsf_nm": "ìê°íê±´ì¡°ì§", "mclsf_cd": "ID", "mclsf_nm": "êµíµìì¤ì§", "sclsf_cd": "ID2", "sclsf_nm": "ì¼ë°ëë¡", "dclsf_cd": "ID2_1", "dclsf_nm": "ê°ë¡ì ìë ì¼ë°ëë¡", "ldc_lc_cd": "A", "ldc_lc_nm": "ìê°íê±´ì¡°ì§ì­", "ldc_mc_cd": "A5", "ldc_mc_nm": "êµíµì§ì­", "ldc_sc_cd": "A54", "ldc_sc_nm": "ëë¡", "shade": 0.9, "heat_score": -3.85, "heat_grade_norm": 0.556 }, "geometry": { "type": "Point", "coordinates": [ 127.0683924, 37.328298 ] } }
]
}
