{
"type": "FeatureCollection",
"name": "cool_cycle_1km_route1_nodes",
"crs": { "type": "name", "properties": { "name": "urn:ogc:def:crs:OGC:1.3:CRS84" } },
"features": [
{ "type": "Feature", "properties": { "osmid": 2405708087, "y": 37.3304625, "x": 127.1279083, "junction": "yes", "street_count": 3, "highway": null, "ref": null, "felt_temp": 36.533985137939453, "heat_grade": 2.0, "index_right": 7312.0, "uid": "ì©ì¸_119251", "sgg_cd": "41460", "sgg_nm": "ì©ì¸ì", "lclsf_cd": "I", "lclsf_nm": "ìê°íê±´ì¡°ì§", "mclsf_cd": "ID", "mclsf_nm": "êµíµìì¤ì§", "sclsf_cd": "ID2", "sclsf_nm": "ì¼ë°ëë¡", "dclsf_cd": "ID2_1", "dclsf_nm": "ê°ë¡ì ìë ì¼ë°ëë¡", "ldc_lc_cd": "A", "ldc_lc_nm": "ìê°íê±´ì¡°ì§ì­", "ldc_mc_cd": "A5", "ldc_mc_nm": "êµíµì§ì­", "ldc_sc_cd": "A54", "ldc_sc_nm": "ëë¡", "shade": 0.9, "heat_score": -4.86, "heat_grade_norm": 0.111 }, "geometry": { "type": "Point", "coordinates": [ 127.1279083, 37.3304625 ] } },
{ "type": "Feature", "properties": { "osmid": 2405708106, "y": 37.3309017, "x": 127.1279291, "junction": "yes", "street_count": 4, "highway": null, "ref": null, "felt_temp": 36.597759246826172, "heat_grade": 3.0, "index_right": 7348.0, "uid": "ì©ì¸_119245", "sgg_cd": "41460", "sgg_nm": "ì©ì¸ì", "lclsf_cd": "I", "lclsf_nm": "ìê°íê±´ì¡°ì§", "mclsf_cd": "ID", "mclsf_nm": "êµíµìì¤ì§", "sclsf_cd": "ID2", "sclsf_nm": "ì¼ë°ëë¡", "dclsf_cd": "ID2_2", "dclsf_nm": "ê°ë¡ì ìë ì¼ë°ëë¡", "ldc_lc_cd": "A", "ldc_lc_nm": "ìê°íê±´ì¡°ì§ì­", "ldc_mc_cd": "A5", "ldc_mc_nm": "êµíµì§ì­", "ldc_sc_cd": "A54", "ldc_sc_nm": "ëë¡", "shade": 0.1, "heat_score": 19.4, "heat_grade_norm": 0.222 }, "geometry": { "type": "Point", "coordinates": [ 127.1279291, 37.3309017 ] } },
{ "type": "Feature", "properties": { "osmid": 2405708161, "y": 37.3315882, "x": 127.1278977, "junction": "yes", "street_count": 4, "highway": null, "ref": null, "felt_temp": 36.323749542236328, "heat_grade": 1.0, "index_right": 7587.0, "uid": "ì©ì¸_121407", "sgg_cd": "41460", "sgg_nm": "ì©ì¸ì", "lclsf_cd": "I", "lclsf_nm": "ìê°íê±´ì¡°ì§", "mclsf_cd": "ID", "mclsf_nm": "êµíµìì¤ì§", "sclsf_cd": "ID2", "sclsf_nm": "ì¼ë°ëë¡", "dclsf_cd": "ID2_1", "dclsf_nm": "ê°ë¡ì ìë ì¼ë°ëë¡", "ldc_lc_cd": "A", "ldc_lc_nm": "ìê°íê±´ì¡°ì§ì­", "ldc_mc_cd": "A5", "ldc_mc_nm": "êµíµì§ì­", "ldc_sc_cd": "A54", "ldc_sc_nm": "ëë¡", "shade": 0.9, "heat_score": -5.21, "heat_grade_norm": 0.0 }, "geometry": { "type": "Point", "coordinates": [ 127.1278977, 37.3315882 ] } },
{ "type": "Feature", "properties": { "osmid": 2405708171, "y": 37.3317762, "x": 127.1242182, "junction": null, "street_count": 3, "highway": null, "ref": null, "felt_temp": 36.994617462158203, "heat_grade": 8.0, "index_right": 7152.0, "uid": "ì©ì¸_119228", "sgg_cd": "41460", "sgg_nm": "ì©ì¸ì", "lclsf_cd": "I", "lclsf_nm": "ìê°íê±´ì¡°ì§", "mclsf_cd": "ID", "mclsf_nm": "êµíµìì¤ì§", "sclsf_cd": "ID2", "sclsf_nm": "ì¼ë°ëë¡", "dclsf_cd": "ID2_1", "dclsf_nm": "ê°ë¡ì ìë ì¼ë°ëë¡", "ldc_lc_cd": "A", "ldc_lc_nm": "ìê°íê±´ì¡°ì§ì­", "ldc_mc_cd": "A5", "ldc_mc_nm": "êµíµì§ì­", "ldc_sc_cd": "A54", "ldc_sc_nm": "ëë¡", "shade": 0.9, "heat_score": -3.25, "heat_grade_norm": 0.778 }, "geometry": { "type": "Point", "coordinates": [ 127.124218200000016, 37.3317762 ] } },
{ "type": "Feature", "properties": { "osmid": 2405708142, "y": 37.3313549, "x": 127.1242121, "junction": null, "street_count": 3, "highway": null, "ref": null, "felt_temp": 36.516361236572266, "heat_grade": 2.0, "index_right": 7348.0, "uid": "ì©ì¸_119245", "sgg_cd": "41460", "sgg_nm": "ì©ì¸ì", "lclsf_cd": "I", "lclsf_nm": "ìê°íê±´ì¡°ì§", "mclsf_cd": "ID", "mclsf_nm": "êµíµìì¤ì§", "sclsf_cd": "ID2", "sclsf_nm": "ì¼ë°ëë¡", "dclsf_cd": "ID2_2", "dclsf_nm": "ê°ë¡ì ìë ì¼ë°ëë¡", "ldc_lc_cd": "A", "ldc_lc_nm": "ìê°íê±´ì¡°ì§ì­", "ldc_mc_cd": "A5", "ldc_mc_nm": "êµíµì§ì­", "ldc_sc_cd": "A54", "ldc_sc_nm": "ëë¡", "shade": 0.1, "heat_score": 19.13, "heat_grade_norm": 0.111 }, "geometry": { "type": "Point", "coordinates": [ 127.1242121, 37.3313549 ] } },
{ "type": "Feature", "properties": { "osmid": 4169632612, "y": 37.3312254, "x": 127.1232652, "junction": null, "street_count": 3, "highway": null, "ref": null, "felt_temp": 37.016376495361328, "heat_grade": 9.0, "index_right": 7152.0, "uid": "ì©ì¸_119228", "sgg_cd": "41460", "sgg_nm": "ì©ì¸ì", "lclsf_cd": "I", "lclsf_nm": "ìê°íê±´ì¡°ì§", "mclsf_cd": "ID", "mclsf_nm": "êµíµìì¤ì§", "sclsf_cd": "ID2", "sclsf_nm": "ì¼ë°ëë¡", "dclsf_cd": "ID2_1", "dclsf_nm": "ê°ë¡ì ìë ì¼ë°ëë¡", "ldc_lc_cd": "A", "ldc_lc_nm": "ìê°íê±´ì¡°ì§ì­", "ldc_mc_cd": "A5", "ldc_mc_nm": "êµíµì§ì­", "ldc_sc_cd": "A54", "ldc_sc_nm": "ëë¡", "shade": 0.9, "heat_score": -3.01, "heat_grade_norm": 0.889 }, "geometry": { "type": "Point", "coordinates": [ 127.1232652, 37.3312254 ] } },
{ "type": "Feature", "properties": { "osmid": 2405708085, "y": 37.330369, "x": 127.1231793, "junction": null, "street_count": 3, "highway": null, "ref": null, "felt_temp": 36.689701080322266, "heat_grade": 4.0, "index_right": 7152.0, "uid": "ì©ì¸_119228", "sgg_cd": "41460", "sgg_nm": "ì©ì¸ì", "lclsf_cd": "I", "lclsf_nm": "ìê°íê±´ì¡°ì§", "mclsf_cd": "ID", "mclsf_nm": "êµíµìì¤ì§", "sclsf_cd": "ID2", "sclsf_nm": "ì¼ë°ëë¡", "dclsf_cd": "ID2_1", "dclsf_nm": "ê°ë¡ì ìë ì¼ë°ëë¡", "ldc_lc_cd": "A", "ldc_lc_nm": "ìê°íê±´ì¡°ì§ì­", "ldc_mc_cd": "A5", "ldc_mc_nm": "êµíµì§ì­", "ldc_sc_cd": "A54", "ldc_sc_nm": "ëë¡", "shade": 0.9, "heat_score": -4.32, "heat_grade_norm": 0.333 }, "geometry": { "type": "Point", "coordinates": [ 127.1231793, 37.330369 ] } },
{ "type": "Feature", "properties": { "osmid": 2405708072, "y": 37.3299279, "x": 127.1230801, "junction": "yes", "street_count": 4, "highway": null, "ref": null, "felt_temp": 37.073402404785156, "heat_grade": 9.0, "index_right": 7152.0, "uid": "ì©ì¸_119228", "sgg_cd": "41460", "sgg_nm": "ì©ì¸ì", "lclsf_cd": "I", "lclsf_nm": "ìê°íê±´ì¡°ì§", "mclsf_cd": "ID", "mclsf_nm": "êµíµìì¤ì§", "sclsf_cd": "ID2", "sclsf_nm": "ì¼ë°ëë¡", "dclsf_cd": "ID2_1", "dclsf_nm": "ê°ë¡ì ìë ì¼ë°ëë¡", "ldc_lc_cd": "A", "ldc_lc_nm": "ìê°íê±´ì¡°ì§ì­", "ldc_mc_cd": "A5", "ldc_mc_nm": "êµíµì§ì­", "ldc_sc_cd": "A54", "ldc_sc_nm": "ëë¡", "shade": 0.9, "heat_score": -2.98, "heat_grade_norm": 0.889 }, "geometry": { "type": "Point", "coordinates": [ 127.1230801, 37.3299279 ] } },
{ "type": "Feature", "properties": { "osmid": 2405708063, "y": 37.3297249, "x": 127.1259349, "junction": null, "street_count": 3, "highway": null, "ref": null, "felt_temp": 37.043937683105469, "heat_grade": 9.0, "index_right": 7152.0, "uid": "ì©ì¸_119228", "sgg_cd": "41460", "sgg_nm": "ì©ì¸ì", "lclsf_cd": "I", "lclsf_nm": "ìê°íê±´ì¡°ì§", "mclsf_cd": "ID", "mclsf_nm": "êµíµìì¤ì§", "sclsf_cd": "ID2", "sclsf_nm": "ì¼ë°ëë¡", "dclsf_cd": "ID2_1", "dclsf_nm": "ê°ë¡ì ìë ì¼ë°ëë¡", "ldc_lc_cd": "A", "ldc_lc_nm": "ìê°íê±´ì¡°ì§ì­", "ldc_mc_cd": "A5", "ldc_mc_nm": "êµíµì§ì­", "ldc_sc_cd": "A54", "ldc_sc_nm": "ëë¡", "shade": 0.9, "heat_score": -3.0, "heat_grade_norm": 0.889 }, "geometry": { "type": "Point", "coordinates": [ 127.125934900000019, 37.3297249 ] } },
{ "type": "Feature", "properties": { "osmid": 2405708087, "y": 37.3304625, "x": 127.1279083, "junction": "yes", "street_count": 3, "highway": null, "ref": null, "felt_temp": 36.533985137939453, "heat_grade": 2.0, "index_right": 7312.0, "uid": "ì©ì¸_119251", "sgg_cd": "41460", "sgg_nm": "ì©ì¸ì", "lclsf_cd": "I", "lclsf_nm": "ìê°íê±´ì¡°ì§", "mclsf_cd": "ID", "mclsf_nm": "êµíµìì¤ì§", "sclsf_cd": "ID2", "sclsf_nm": "ì¼ë°ëë¡", "dclsf_cd": "ID2_1", "dclsf_nm": "ê°ë¡ì ìë ì¼ë°ëë¡", "ldc_lc_cd": "A", "ldc_lc_nm": "ìê°íê±´ì¡°ì§ì­", "ldc_mc_cd": "A5", "ldc_mc_nm": "êµíµì§ì­", "ldc_sc_cd": "A54", "ldc_sc_nm": "ëë¡", "shade": 0.9, "heat_score": -4.86, "heat_grade_norm": 0.111 }, "geometry": { "type": "Point", "coordinates": [ 127.1279083, 37.3304625 ] } }
]
}
