{
"type": "FeatureCollection",
"name": "cool_cycle_7km_route2_edges",
"crs": { "type": "name", "properties": { "name": "urn:ogc:def:crs:OGC:1.3:CRS84" } },
"features": [
{ "type": "Feature", "properties": { "u": 3660317658, "v": 3707678681, "length": 252.70377555499033, "heat_score": -4.25 }, "geometry": { "type": "LineString", "coordinates": [ [ 127.0799336, 37.3224252 ], [ 127.0803587, 37.3239014 ], [ 127.0804042, 37.3240059 ], [ 127.080468600000017, 37.324023 ], [ 127.080549, 37.3240273 ], [ 127.08120390000002, 37.3239314 ] ] } },
{ "type": "Feature", "properties": { "u": 3707678681, "v": 1924789280, "length": 55.058599340119954, "heat_score": -3.115 }, "geometry": { "type": "LineString", "coordinates": [ [ 127.0799336, 37.3224252 ], [ 127.079923800000017, 37.3223161 ], [ 127.079890899999981, 37.3221531 ], [ 127.079874600000011, 37.3221146 ], [ 127.079848200000015, 37.3220518 ], [ 127.079766699999979, 37.3219582 ] ] } },
{ "type": "Feature", "properties": { "u": 1924789280, "v": 12794837217, "length": 46.722340808798421, "heat_score": -3.165 }, "geometry": { "type": "LineString", "coordinates": [ [ 127.080060099999983, 37.3216088 ], [ 127.080035400000014, 37.3216401 ], [ 127.0799615, 37.3217259 ], [ 127.0798704, 37.3218317 ], [ 127.079766699999979, 37.3219582 ] ] } },
{ "type": "Feature", "properties": { "u": 12794837217, "v": 3707678681, "length": 91.512453091489988, "heat_score": -3.3 }, "geometry": { "type": "LineString", "coordinates": [ [ 127.080060099999983, 37.3216088 ], [ 127.0800389, 37.32177690000001 ], [ 127.080013899999983, 37.3219131 ], [ 127.0800107, 37.3219263 ], [ 127.079983299999981, 37.3220858 ], [ 127.0799401, 37.322326 ], [ 127.0799336, 37.3224252 ] ] } },
{ "type": "Feature", "properties": { "u": 3707678681, "v": 3707678649, "length": 64.670709686093929, "heat_score": -3.54 }, "geometry": { "type": "LineString", "coordinates": [ [ 127.0799336, 37.3224252 ], [ 127.0798616, 37.3223525 ], [ 127.079821100000018, 37.3223052 ], [ 127.0797528, 37.3222429 ], [ 127.0797196, 37.3222263 ], [ 127.0796864, 37.3222097 ], [ 127.079593499999987, 37.3221835 ], [ 127.0794879, 37.3221725 ], [ 127.0794673, 37.322170600000014 ], [ 127.079445299999989, 37.3221686 ], [ 127.0793326, 37.3221692 ] ] } },
{ "type": "Feature", "properties": { "u": 3707678649, "v": 3707678650, "length": 37.462336263793702, "heat_score": 4.485 }, "geometry": { "type": "LineString", "coordinates": [ [ 127.079249, 37.3224853 ], [ 127.0793416, 37.3223082 ], [ 127.079363, 37.3222611 ], [ 127.0793326, 37.3221692 ] ] } },
{ "type": "Feature", "properties": { "u": 3707678650, "v": 3707678657, "length": 106.27677214848005, "heat_score": 13.24 }, "geometry": { "type": "LineString", "coordinates": [ [ 127.0786616, 37.323318300000011 ], [ 127.0787113, 37.323259600000014 ], [ 127.0787916, 37.3231529 ], [ 127.078903, 37.3229887 ], [ 127.079027699999983, 37.3228095 ], [ 127.079127, 37.3226463 ], [ 127.079249, 37.3224853 ] ] } },
{ "type": "Feature", "properties": { "u": 3707678657, "v": 3707678661, "length": 97.311718398772399, "heat_score": 4.165 }, "geometry": { "type": "LineString", "coordinates": [ [ 127.0777235, 37.3237203 ], [ 127.0778838, 37.3237017 ], [ 127.078025899999986, 37.3236755 ], [ 127.0781614, 37.3236414 ], [ 127.078347799999989, 37.3235635 ], [ 127.0786616, 37.323318300000011 ] ] } },
{ "type": "Feature", "properties": { "u": 3707678661, "v": 3529505225, "length": 94.645486208519486, "heat_score": -4.175 }, "geometry": { "type": "LineString", "coordinates": [ [ 127.0777235, 37.3237203 ], [ 127.0776984, 37.323554 ], [ 127.0776335, 37.3233383 ], [ 127.077547699999982, 37.3231676 ], [ 127.077503, 37.3230589 ], [ 127.0773947, 37.3229197 ] ] } },
{ "type": "Feature", "properties": { "u": 3529505225, "v": 3707678662, "length": 211.31779252702691, "heat_score": -3.125 }, "geometry": { "type": "LineString", "coordinates": [ [ 127.0753983, 37.3239581 ], [ 127.075515899999985, 37.323895 ], [ 127.0760752, 37.3236177 ], [ 127.0765427, 37.3233881 ], [ 127.0770113, 37.3231673 ], [ 127.077195100000012, 37.3230627 ], [ 127.0773947, 37.3229197 ] ] } },
{ "type": "Feature", "properties": { "u": 3707678662, "v": 12735464747, "length": 13.948554955801558, "heat_score": -3.665 }, "geometry": { "type": "LineString", "coordinates": [ [ 127.0752612, 37.3240201 ], [ 127.0753437, 37.3239841 ], [ 127.0753983, 37.3239581 ] ] } },
{ "type": "Feature", "properties": { "u": 12735464747, "v": 11832084109, "length": 199.64504413890515, "heat_score": -3.675 }, "geometry": { "type": "LineString", "coordinates": [ [ 127.0752612, 37.3240201 ], [ 127.0749304, 37.3241643 ], [ 127.0744578, 37.3244068 ], [ 127.0743438, 37.3244443 ], [ 127.074007900000012, 37.3246031 ], [ 127.073840500000017, 37.3246904 ], [ 127.0737409, 37.3247424 ], [ 127.073547100000013, 37.3248265 ], [ 127.0733309, 37.3249468 ] ] } },
{ "type": "Feature", "properties": { "u": 11832084109, "v": 1924789289, "length": 242.05737223972704, "heat_score": -3.3 }, "geometry": { "type": "LineString", "coordinates": [ [ 127.0733309, 37.3249468 ], [ 127.07313640000001, 37.3250252 ], [ 127.0724905, 37.32534540000001 ], [ 127.072353299999989, 37.325405600000011 ], [ 127.0718902, 37.3256087 ], [ 127.071327200000013, 37.3259391 ], [ 127.07107259999998, 37.3261559 ] ] } },
{ "type": "Feature", "properties": { "u": 1924789289, "v": 11832084111, "length": 39.381196551044994, "heat_score": -3.705 }, "geometry": { "type": "LineString", "coordinates": [ [ 127.0712178, 37.3264907 ], [ 127.0711509, 37.326341 ], [ 127.07107259999998, 37.3261559 ] ] } },
{ "type": "Feature", "properties": { "u": 11832084111, "v": 11832084116, "length": 51.302210672242524, "heat_score": -4.625 }, "geometry": { "type": "LineString", "coordinates": [ [ 127.0712178, 37.3264907 ], [ 127.0711155, 37.3264199 ], [ 127.0710846, 37.326404 ], [ 127.071053600000013, 37.3263882 ], [ 127.0709903, 37.3263832 ], [ 127.0709461, 37.3263972 ], [ 127.0708481, 37.3264303 ], [ 127.070697100000018, 37.3264513 ] ] } },
{ "type": "Feature", "properties": { "u": 11832084116, "v": 3525982789, "length": 289.67971579228697, "heat_score": -4.51 }, "geometry": { "type": "LineString", "coordinates": [ [ 127.070697100000018, 37.3264513 ], [ 127.07014, 37.3268895 ], [ 127.069688400000018, 37.32719 ], [ 127.069273200000012, 37.3275159 ], [ 127.0683924, 37.328298 ] ] } },
{ "type": "Feature", "properties": { "u": 3525982789, "v": 3706019522, "length": 75.158391591689863, "heat_score": -4.345 }, "geometry": { "type": "LineString", "coordinates": [ [ 127.06782530000001, 37.3288015 ], [ 127.0683924, 37.328298 ] ] } },
{ "type": "Feature", "properties": { "u": 3706019522, "v": 2651554894, "length": 364.70245915060991, "heat_score": -4.05 }, "geometry": { "type": "LineString", "coordinates": [ [ 127.06782530000001, 37.3288015 ], [ 127.067342, 37.3292307 ], [ 127.067041900000021, 37.3294925 ], [ 127.0652084, 37.3310923 ], [ 127.0650574, 37.3312331 ] ] } },
{ "type": "Feature", "properties": { "u": 2651554894, "v": 3528551437, "length": 76.896083885681094, "heat_score": -3.28 }, "geometry": { "type": "LineString", "coordinates": [ [ 127.0645389, 37.3306782 ], [ 127.06455480000001, 37.3307007 ], [ 127.06476, 37.3309193 ], [ 127.064862500000018, 37.3310285 ], [ 127.0649153, 37.3310866 ], [ 127.0650574, 37.3312331 ] ] } },
{ "type": "Feature", "properties": { "u": 3528551437, "v": 3525982780, "length": 237.05720321553929, "heat_score": -3.15 }, "geometry": { "type": "LineString", "coordinates": [ [ 127.0645389, 37.3306782 ], [ 127.0644439, 37.3305776 ], [ 127.063876300000018, 37.3299207 ], [ 127.0633169, 37.3292443 ], [ 127.0631751, 37.32908 ], [ 127.06303, 37.3289163 ] ] } },
{ "type": "Feature", "properties": { "u": 3525982780, "v": 12797121181, "length": 596.25191482259083, "heat_score": -2.825 }, "geometry": { "type": "LineString", "coordinates": [ [ 127.060503, 37.3240802 ], [ 127.06066490000002, 37.32435430000001 ], [ 127.0608719, 37.324705 ], [ 127.0609423, 37.3248191 ], [ 127.061116400000017, 37.3251388 ], [ 127.0611251, 37.3251548 ], [ 127.061166899999989, 37.3252458 ], [ 127.061252300000021, 37.3254716 ], [ 127.0613051, 37.3256877 ], [ 127.0613623, 37.3259336 ], [ 127.0613855, 37.3262332 ], [ 127.06139570000002, 37.3264438 ], [ 127.0613974, 37.3265897 ], [ 127.061388500000021, 37.3267133 ], [ 127.061393099999989, 37.3267923 ], [ 127.061425200000016, 37.3269629 ], [ 127.0614742, 37.3270978 ], [ 127.0615304, 37.3272093 ], [ 127.061620599999983, 37.327336 ], [ 127.061795799999985, 37.3275464 ], [ 127.0619456, 37.3276975 ], [ 127.0623093, 37.3281166 ], [ 127.0629147, 37.3287829 ], [ 127.06303, 37.3289163 ] ] } },
{ "type": "Feature", "properties": { "u": 12797121181, "v": 8433422839, "length": 100.21714935135985, "heat_score": -2.805 }, "geometry": { "type": "LineString", "coordinates": [ [ 127.060503, 37.3240802 ], [ 127.0602394, 37.323634 ], [ 127.0601649, 37.3235081 ], [ 127.060104, 37.3234053 ], [ 127.060003499999979, 37.3232719 ] ] } },
{ "type": "Feature", "properties": { "u": 8433422839, "v": 2600902198, "length": 86.54460654157144, "heat_score": -2.835 }, "geometry": { "type": "LineString", "coordinates": [ [ 127.060003499999979, 37.3232719 ], [ 127.059983, 37.323237 ], [ 127.0598486, 37.3229817 ], [ 127.0597375, 37.3228137 ], [ 127.0596772, 37.3227358 ], [ 127.0595621, 37.3225788 ] ] } },
{ "type": "Feature", "properties": { "u": 2600902198, "v": 8566507153, "length": 68.897554444308838, "heat_score": 9.29 }, "geometry": { "type": "LineString", "coordinates": [ [ 127.059137899999982, 37.3220593 ], [ 127.0594616, 37.3224434 ], [ 127.0595621, 37.3225788 ] ] } },
{ "type": "Feature", "properties": { "u": 8566507153, "v": 8566507152, "length": 84.61130905536919, "heat_score": 9.3 }, "geometry": { "type": "LineString", "coordinates": [ [ 127.0591186, 37.3227826 ], [ 127.059212400000021, 37.3226391 ], [ 127.05924370000001, 37.3225748 ], [ 127.0592643, 37.3225076 ], [ 127.0592593, 37.32242020000001 ], [ 127.059137899999982, 37.3220593 ] ] } },
{ "type": "Feature", "properties": { "u": 8566507152, "v": 2600902198, "length": 45.304131623411976, "heat_score": -2.7 }, "geometry": { "type": "LineString", "coordinates": [ [ 127.0591186, 37.3227826 ], [ 127.059352, 37.3226703 ], [ 127.0595621, 37.3225788 ] ] } },
{ "type": "Feature", "properties": { "u": 2600902198, "v": 8566507154, "length": 52.926269690049061, "heat_score": -2.825 }, "geometry": { "type": "LineString", "coordinates": [ [ 127.0600557, 37.32231 ], [ 127.059735499999988, 37.3224757 ], [ 127.0595621, 37.3225788 ] ] } },
{ "type": "Feature", "properties": { "u": 8566507154, "v": 3485484232, "length": 350.28047148689024, "heat_score": -3.14 }, "geometry": { "type": "LineString", "coordinates": [ [ 127.0600557, 37.32231 ], [ 127.0604802, 37.3220965 ], [ 127.060692299999985, 37.3219541 ], [ 127.0608871, 37.321782 ], [ 127.0609765, 37.3216848 ], [ 127.0610197, 37.3216364 ], [ 127.0610945, 37.3215526 ], [ 127.0612281, 37.321371 ], [ 127.0612966, 37.3212779 ], [ 127.061352, 37.3211714 ], [ 127.061393, 37.3210875 ], [ 127.0614275, 37.3209649 ], [ 127.061467, 37.3208317 ], [ 127.061580500000019, 37.3204548 ], [ 127.0616141, 37.3202936 ], [ 127.06173720000001, 37.3197675 ], [ 127.061766300000016, 37.3196256 ] ] } },
{ "type": "Feature", "properties": { "u": 3485484232, "v": 3485490159, "length": 309.80487640999002, "heat_score": -3.145 }, "geometry": { "type": "LineString", "coordinates": [ [ 127.0624599, 37.316932 ], [ 127.0623755, 37.3170412 ], [ 127.062347, 37.317078 ], [ 127.0622756, 37.3171719 ], [ 127.0622332, 37.317228 ], [ 127.062195100000011, 37.3172856 ], [ 127.062141600000018, 37.31737960000001 ], [ 127.0621161, 37.3174369 ], [ 127.0620876, 37.317494100000012 ], [ 127.0620709, 37.3175438 ], [ 127.062045, 37.3176223 ], [ 127.062032800000011, 37.3176683 ], [ 127.062013599999986, 37.3177848 ], [ 127.061938200000014, 37.3183605 ], [ 127.06184, 37.3191589 ], [ 127.061815200000012, 37.3194006 ], [ 127.0618117, 37.3194168 ], [ 127.061791299999982, 37.31951080000001 ], [ 127.0617821, 37.319552 ], [ 127.061766300000016, 37.3196256 ] ] } },
{ "type": "Feature", "properties": { "u": 3485490159, "v": 13539755744, "length": 241.65362641163878, "heat_score": -3.27 }, "geometry": { "type": "LineString", "coordinates": [ [ 127.0646746, 37.3157164 ], [ 127.064568900000012, 37.3157261 ], [ 127.0644274, 37.3157594 ], [ 127.064335400000019, 37.3157859 ], [ 127.0642322, 37.3158298 ], [ 127.064033600000016, 37.3159223 ], [ 127.063783699999988, 37.3160382 ], [ 127.063598099999979, 37.3161348 ], [ 127.06354970000001, 37.3161643 ], [ 127.0632714, 37.3163393 ], [ 127.0631256, 37.31644210000001 ], [ 127.0628874, 37.3166214 ], [ 127.062750100000017, 37.3167386 ], [ 127.062598600000015, 37.3168674 ], [ 127.0624599, 37.316932 ] ] } },
{ "type": "Feature", "properties": { "u": 13539755744, "v": 12696461660, "length": 753.71626990767516, "heat_score": -3.585 }, "geometry": { "type": "LineString", "coordinates": [ [ 127.0726451, 37.3150298 ], [ 127.0722472, 37.3151561 ], [ 127.07187660000001, 37.3152761 ], [ 127.0711688, 37.3154842 ], [ 127.070304400000012, 37.3157515 ], [ 127.0692534, 37.3160919 ], [ 127.0684883, 37.3163413 ], [ 127.0682696, 37.3164087 ], [ 127.0681099, 37.3164639 ], [ 127.067963600000013, 37.3164906 ], [ 127.0678192, 37.3165078 ], [ 127.0676854, 37.3165125 ], [ 127.0675436, 37.316512400000015 ], [ 127.0673871, 37.3165002 ], [ 127.067229199999986, 37.3164702 ], [ 127.0669644, 37.3164079 ], [ 127.066746400000014, 37.3163364 ], [ 127.0663263, 37.3161882 ], [ 127.0657205, 37.3159664 ], [ 127.0655119, 37.3158903 ], [ 127.0653225, 37.315818 ], [ 127.065152400000017, 37.3157575 ], [ 127.0651007, 37.3157412 ], [ 127.064932400000018, 37.3157127 ], [ 127.0647623, 37.3157084 ], [ 127.0646746, 37.3157164 ] ] } },
{ "type": "Feature", "properties": { "u": 12696461660, "v": 3715335589, "length": 549.63883460090426, "heat_score": -4.2 }, "geometry": { "type": "LineString", "coordinates": [ [ 127.075902200000016, 37.311455 ], [ 127.0754596, 37.3118028 ], [ 127.0752739, 37.3119468 ], [ 127.0751221, 37.3120783 ], [ 127.0750171, 37.3121535 ], [ 127.0749066, 37.3122496 ], [ 127.0748205, 37.31234220000001 ], [ 127.0747351, 37.3124576 ], [ 127.0746818, 37.3125704 ], [ 127.0746367, 37.3126853 ], [ 127.074619700000014, 37.3127669 ], [ 127.0746083, 37.3128462 ], [ 127.0745905, 37.3130212 ], [ 127.0746016, 37.3131505 ], [ 127.0746394, 37.3134267 ], [ 127.0746568, 37.3135123 ], [ 127.0746765, 37.3136031 ], [ 127.074692, 37.313658200000013 ], [ 127.0747008, 37.3137317 ], [ 127.0746913, 37.3138546 ], [ 127.074671900000013, 37.3140007 ], [ 127.0746157, 37.3141419 ], [ 127.074532300000016, 37.3142643 ], [ 127.07443840000002, 37.3143686 ], [ 127.0743654, 37.314437 ], [ 127.0742711, 37.3145063 ], [ 127.0740836, 37.3145997 ], [ 127.0739516, 37.3146473 ], [ 127.073822, 37.3146882 ], [ 127.07367, 37.3147314 ], [ 127.0732667, 37.3148474 ], [ 127.0728629, 37.31496 ], [ 127.0726451, 37.3150298 ] ] } },
{ "type": "Feature", "properties": { "u": 3715335589, "v": 3715331240, "length": 145.18221734391273, "heat_score": -4.03 }, "geometry": { "type": "LineString", "coordinates": [ [ 127.075902200000016, 37.311455 ], [ 127.0759846, 37.3115392 ], [ 127.0760246, 37.311564 ], [ 127.076073800000017, 37.3115779 ], [ 127.0768616, 37.311787699999989 ], [ 127.0769127, 37.3117887 ], [ 127.0769546, 37.3117752 ], [ 127.077004, 37.31175 ], [ 127.0770994, 37.3116907 ], [ 127.077207900000019, 37.3116159 ], [ 127.0772487, 37.3115844 ], [ 127.0773185, 37.3115306 ] ] } },
{ "type": "Feature", "properties": { "u": 3715331240, "v": 842899492, "length": 132.95531857136365, "heat_score": -3.255 }, "geometry": { "type": "LineString", "coordinates": [ [ 127.0773185, 37.3115306 ], [ 127.077564199999983, 37.3116899 ], [ 127.077594100000013, 37.3117088 ], [ 127.0777577, 37.3118122 ], [ 127.0779522, 37.311922 ], [ 127.078506899999979, 37.31226250000001 ] ] } },
{ "type": "Feature", "properties": { "u": 842899492, "v": 13521746025, "length": 20.093226273590233, "heat_score": -3.135 }, "geometry": { "type": "LineString", "coordinates": [ [ 127.078692700000019, 37.3123665 ], [ 127.078506899999979, 37.31226250000001 ] ] } },
{ "type": "Feature", "properties": { "u": 13521746025, "v": 12794611279, "length": 25.26766011931667, "heat_score": -3.0 }, "geometry": { "type": "LineString", "coordinates": [ [ 127.078692700000019, 37.3123665 ], [ 127.0788801, 37.3124725 ], [ 127.0789264, 37.31249720000001 ] ] } },
{ "type": "Feature", "properties": { "u": 12794611279, "v": 13539327720, "length": 21.047041786980309, "heat_score": -2.995 }, "geometry": { "type": "LineString", "coordinates": [ [ 127.0790694, 37.3126485 ], [ 127.0789763, 37.31255 ], [ 127.0789264, 37.31249720000001 ] ] } },
{ "type": "Feature", "properties": { "u": 13539327720, "v": 12794611286, "length": 14.141599247728006, "heat_score": -3.145 }, "geometry": { "type": "LineString", "coordinates": [ [ 127.0790694, 37.3126485 ], [ 127.07913210000001, 37.3126558 ], [ 127.0792267, 37.3126711 ] ] } },
{ "type": "Feature", "properties": { "u": 12794611286, "v": 842899376, "length": 8.7094969533932112, "heat_score": -3.57 }, "geometry": { "type": "LineString", "coordinates": [ [ 127.0792267, 37.3126711 ], [ 127.0793065, 37.312717 ] ] } },
{ "type": "Feature", "properties": { "u": 842899376, "v": 842899493, "length": 60.645200561569993, "heat_score": -3.425 }, "geometry": { "type": "LineString", "coordinates": [ [ 127.0793004, 37.3123816 ], [ 127.079166500000014, 37.3123939 ], [ 127.079100200000013, 37.3124061 ], [ 127.079083400000016, 37.3124255 ], [ 127.0790736, 37.3124463 ], [ 127.0790742, 37.3124837 ], [ 127.0790794, 37.3125055 ], [ 127.079104700000016, 37.3125336 ], [ 127.07922, 37.3126274 ], [ 127.0793065, 37.312717 ] ] } },
{ "type": "Feature", "properties": { "u": 842899493, "v": 842899424, "length": 150.17720559247533, "heat_score": -3.13 }, "geometry": { "type": "LineString", "coordinates": [ [ 127.0793004, 37.3123816 ], [ 127.07972, 37.3124019 ], [ 127.079846900000021, 37.3124048 ], [ 127.079948900000019, 37.3124027 ], [ 127.0801153, 37.3123992 ], [ 127.080158700000013, 37.312399 ], [ 127.080228099999985, 37.3123986 ], [ 127.0805452, 37.312397 ], [ 127.0806253, 37.3123975 ], [ 127.080789399999986, 37.3124203 ], [ 127.080994, 37.3124371 ] ] } },
{ "type": "Feature", "properties": { "u": 842899424, "v": 6152750610, "length": 57.518544897430246, "heat_score": -3.545 }, "geometry": { "type": "LineString", "coordinates": [ [ 127.0805981, 37.3128475 ], [ 127.080994, 37.3124371 ] ] } },
{ "type": "Feature", "properties": { "u": 6152750610, "v": 6152750617, "length": 80.86979690831032, "heat_score": -3.54 }, "geometry": { "type": "LineString", "coordinates": [ [ 127.0797676, 37.3130345 ], [ 127.0799114, 37.3130667 ], [ 127.080072, 37.31306570000001 ], [ 127.0801136, 37.313062 ], [ 127.080159699999982, 37.3130535 ], [ 127.0801766, 37.3130508 ], [ 127.080198900000013, 37.3130492 ], [ 127.0802195, 37.3130423 ], [ 127.0802812, 37.3130252 ], [ 127.0804532, 37.3129229 ], [ 127.0805981, 37.3128475 ] ] } },
{ "type": "Feature", "properties": { "u": 6152750617, "v": 842899426, "length": 50.101290386548236, "heat_score": -3.41 }, "geometry": { "type": "LineString", "coordinates": [ [ 127.0797676, 37.3130345 ], [ 127.0798431, 37.313085900000011 ], [ 127.0800001, 37.3131789 ], [ 127.0800539, 37.3132108 ], [ 127.0802048, 37.3133203 ] ] } },
{ "type": "Feature", "properties": { "u": 842899426, "v": 13539327729, "length": 9.9103586157520827, "heat_score": -3.465 }, "geometry": { "type": "LineString", "coordinates": [ [ 127.080143100000015, 37.3133947 ], [ 127.0802048, 37.3133203 ] ] } },
{ "type": "Feature", "properties": { "u": 13539327729, "v": 842899389, "length": 321.43921271221416, "heat_score": -3.33 }, "geometry": { "type": "LineString", "coordinates": [ [ 127.080143100000015, 37.3133947 ], [ 127.0800289, 37.3135311 ], [ 127.079999700000016, 37.3135656 ], [ 127.079849, 37.3137332 ], [ 127.0797946, 37.3137978 ], [ 127.0796165, 37.31397350000001 ], [ 127.079604300000014, 37.3139807 ], [ 127.079543, 37.3140525 ], [ 127.07944310000002, 37.31416 ], [ 127.0792666, 37.3143048 ], [ 127.078959500000011, 37.3145398 ], [ 127.0788189, 37.3146382 ], [ 127.078671200000016, 37.3147163 ], [ 127.0784445, 37.3148322 ], [ 127.078313599999987, 37.3148988 ], [ 127.078200100000018, 37.3149428 ], [ 127.078087399999987, 37.3149669 ], [ 127.0780169, 37.3149834 ], [ 127.0779636, 37.3149924 ], [ 127.0778955, 37.3150231 ], [ 127.077860500000014, 37.3150827 ], [ 127.0777772, 37.3153237 ], [ 127.0777756, 37.3153746 ], [ 127.077774, 37.3154254 ] ] } },
{ "type": "Feature", "properties": { "u": 842899389, "v": 3520971537, "length": 204.7205012718656, "heat_score": -3.33 }, "geometry": { "type": "LineString", "coordinates": [ [ 127.0799384, 37.3147894 ], [ 127.079843700000012, 37.314822 ], [ 127.0792614, 37.3150222 ], [ 127.0784238, 37.3152967 ], [ 127.078173100000015, 37.315365 ], [ 127.078061299999987, 37.3153862 ], [ 127.07788960000002, 37.3154096 ], [ 127.077774, 37.3154254 ] ] } },
{ "type": "Feature", "properties": { "u": 3520971537, "v": 3520971523, "length": 53.477805303133167, "heat_score": -3.295 }, "geometry": { "type": "LineString", "coordinates": [ [ 127.0799384, 37.3147894 ], [ 127.079973699999982, 37.3148475 ], [ 127.0800089, 37.31490560000001 ], [ 127.080082599999983, 37.3150359 ], [ 127.080136200000013, 37.3151189 ], [ 127.0802028, 37.3152218 ] ] } },
{ "type": "Feature", "properties": { "u": 3520971523, "v": 13539327749, "length": 88.288139043189588, "heat_score": -3.285 }, "geometry": { "type": "LineString", "coordinates": [ [ 127.0811156, 37.3149003 ], [ 127.0809997, 37.3149388 ], [ 127.0803451, 37.31517130000001 ], [ 127.0802028, 37.3152218 ] ] } },
{ "type": "Feature", "properties": { "u": 13539327749, "v": 13539327739, "length": 104.93927250892878, "heat_score": -3.32 }, "geometry": { "type": "LineString", "coordinates": [ [ 127.0816127, 37.315757 ], [ 127.0814117, 37.3154339 ], [ 127.0812195, 37.31508980000001 ], [ 127.0811156, 37.3149003 ] ] } },
{ "type": "Feature", "properties": { "u": 13539327739, "v": 13539327750, "length": 366.91226932745428, "heat_score": -3.15 }, "geometry": { "type": "LineString", "coordinates": [ [ 127.083402299999989, 37.31873370000001 ], [ 127.083357600000014, 37.3186617 ], [ 127.083303200000017, 37.318574 ], [ 127.0832812, 37.3185329 ], [ 127.0832244, 37.3184335 ], [ 127.083002, 37.3180775 ], [ 127.0828033, 37.317764 ], [ 127.0825872, 37.317400200000016 ], [ 127.082318300000011, 37.316956 ], [ 127.081922, 37.3162896 ], [ 127.0816127, 37.315757 ] ] } },
{ "type": "Feature", "properties": { "u": 13539327750, "v": 13539327752, "length": 24.346445792214688, "heat_score": -2.99 }, "geometry": { "type": "LineString", "coordinates": [ [ 127.083519800000019, 37.3189317 ], [ 127.083479400000016, 37.3188613 ], [ 127.083402299999989, 37.31873370000001 ] ] } },
{ "type": "Feature", "properties": { "u": 13539327752, "v": 11831008065, "length": 26.678116799415687, "heat_score": -3.12 }, "geometry": { "type": "LineString", "coordinates": [ [ 127.083519800000019, 37.3189317 ], [ 127.0834586, 37.3189529 ], [ 127.0833177, 37.3190148 ], [ 127.083253, 37.3190433 ] ] } },
{ "type": "Feature", "properties": { "u": 11831008065, "v": 11831009773, "length": 21.420400278464214, "heat_score": -3.25 }, "geometry": { "type": "LineString", "coordinates": [ [ 127.0830472, 37.3191449 ], [ 127.083253, 37.3190433 ] ] } },
{ "type": "Feature", "properties": { "u": 11831009773, "v": 3529513828, "length": 59.619732686719118, "heat_score": -3.29 }, "geometry": { "type": "LineString", "coordinates": [ [ 127.0830472, 37.3191449 ], [ 127.082442500000013, 37.319382 ] ] } },
{ "type": "Feature", "properties": { "u": 3529513828, "v": 3529513823, "length": 138.39673571032586, "heat_score": -3.585 }, "geometry": { "type": "LineString", "coordinates": [ [ 127.082442500000013, 37.319382 ], [ 127.082568800000018, 37.3195298 ], [ 127.0826761, 37.319709 ], [ 127.0827238, 37.3197918 ], [ 127.0828531, 37.3200161 ], [ 127.082986100000014, 37.3202708 ], [ 127.0829979, 37.3202934 ], [ 127.0830891, 37.320511 ] ] } },
{ "type": "Feature", "properties": { "u": 3529513823, "v": 3529513830, "length": 89.1589817452099, "heat_score": -3.585 }, "geometry": { "type": "LineString", "coordinates": [ [ 127.083228600000012, 37.3213045 ], [ 127.0832179, 37.3212192 ], [ 127.0831696, 37.3208693 ], [ 127.0831267, 37.3206518 ], [ 127.0830891, 37.320511 ] ] } },
{ "type": "Feature", "properties": { "u": 3529513830, "v": 8482871796, "length": 341.78572426459607, "heat_score": -3.295 }, "geometry": { "type": "LineString", "coordinates": [ [ 127.0821527, 37.3229642 ], [ 127.0821289, 37.3229426 ], [ 127.081951900000021, 37.3228317 ], [ 127.0817963, 37.322708 ], [ 127.0816461, 37.322588500000016 ], [ 127.081538800000018, 37.3224435 ], [ 127.0814691, 37.3223027 ], [ 127.0814423, 37.322179 ], [ 127.0814154, 37.3220126 ], [ 127.0813725, 37.3217737 ], [ 127.081356400000018, 37.321633 ], [ 127.0814744, 37.3215988 ], [ 127.0816998, 37.321556200000011 ], [ 127.081994800000018, 37.321505 ], [ 127.082198600000012, 37.3214623 ], [ 127.082418599999983, 37.3214197 ], [ 127.082601, 37.3213898 ], [ 127.0829067, 37.3213429 ], [ 127.083228600000012, 37.3213045 ] ] } },
{ "type": "Feature", "properties": { "u": 8482871796, "v": 3529506337, "length": 91.214694386898685, "heat_score": -3.305 }, "geometry": { "type": "LineString", "coordinates": [ [ 127.0821527, 37.3229642 ], [ 127.08227909999998, 37.3230791 ], [ 127.0823757, 37.3231943 ], [ 127.0824454, 37.3233308 ], [ 127.0825259, 37.323495 ], [ 127.0825983, 37.3236924 ] ] } },
{ "type": "Feature", "properties": { "u": 3529506337, "v": 3529506336, "length": 51.489123545063038, "heat_score": -4.3 }, "geometry": { "type": "LineString", "coordinates": [ [ 127.0825983, 37.3236924 ], [ 127.082035, 37.3238097 ] ] } },
{ "type": "Feature", "properties": { "u": 3529506336, "v": 3660317658, "length": 74.725283976282313, "heat_score": -5.25 }, "geometry": { "type": "LineString", "coordinates": [ [ 127.08120390000002, 37.3239314 ], [ 127.082035, 37.3238097 ] ] } }
]
}
