{
"type": "FeatureCollection",
"name": "cool_cycle_shelter1_route2_edges",
"crs": { "type": "name", "properties": { "name": "urn:ogc:def:crs:OGC:1.3:CRS84" } },
"features": [
{ "type": "Feature", "properties": { "u": 3707678661, "v": 3707678657, "length": 97.311718398772399, "heat_score": 4.165 }, "geometry": { "type": "LineString", "coordinates": [ [ 127.0777235, 37.3237203 ], [ 127.0778838, 37.3237017 ], [ 127.078025899999986, 37.3236755 ], [ 127.0781614, 37.3236414 ], [ 127.078347799999989, 37.3235635 ], [ 127.0786616, 37.323318300000011 ] ] } },
{ "type": "Feature", "properties": { "u": 3707678657, "v": 3707678698, "length": 33.495912830821787, "heat_score": 13.68 }, "geometry": { "type": "LineString", "coordinates": [ [ 127.078947299999982, 37.3235161 ], [ 127.0786616, 37.323318300000011 ] ] } },
{ "type": "Feature", "properties": { "u": 3707678698, "v": 3707679845, "length": 119.04837857375246, "heat_score": 13.26 }, "geometry": { "type": "LineString", "coordinates": [ [ 127.0796012, 37.3225867 ], [ 127.079574900000011, 37.3226224 ], [ 127.0795462, 37.3226862 ], [ 127.079534700000011, 37.3227119 ], [ 127.07949170000002, 37.3227823 ], [ 127.0794676, 37.3228314 ], [ 127.0794461, 37.322882600000014 ], [ 127.0793818, 37.3229828 ], [ 127.0792825, 37.32311510000001 ], [ 127.0791793, 37.3232601 ], [ 127.079086799999985, 37.3233604 ], [ 127.078986200000017, 37.323483 ], [ 127.078947299999982, 37.3235161 ] ] } },
{ "type": "Feature", "properties": { "u": 3707679845, "v": 3707678650, "length": 33.121909656217369, "heat_score": 12.82 }, "geometry": { "type": "LineString", "coordinates": [ [ 127.0796012, 37.3225867 ], [ 127.079249, 37.3224853 ] ] } },
{ "type": "Feature", "properties": { "u": 3707678650, "v": 3707678649, "length": 37.462336263793702, "heat_score": 4.485 }, "geometry": { "type": "LineString", "coordinates": [ [ 127.079249, 37.3224853 ], [ 127.0793416, 37.3223082 ], [ 127.079363, 37.3222611 ], [ 127.0793326, 37.3221692 ] ] } },
{ "type": "Feature", "properties": { "u": 3707678649, "v": 1924789280, "length": 45.036097237574651, "heat_score": -3.405 }, "geometry": { "type": "LineString", "coordinates": [ [ 127.0793326, 37.3221692 ], [ 127.079523, 37.3220867 ], [ 127.0795787, 37.3220599 ], [ 127.079766699999979, 37.3219582 ] ] } },
{ "type": "Feature", "properties": { "u": 1924789280, "v": 3707678681, "length": 55.058599340119954, "heat_score": -3.115 }, "geometry": { "type": "LineString", "coordinates": [ [ 127.0799336, 37.3224252 ], [ 127.079923800000017, 37.3223161 ], [ 127.079890899999981, 37.3221531 ], [ 127.079874600000011, 37.3221146 ], [ 127.079848200000015, 37.3220518 ], [ 127.079766699999979, 37.3219582 ] ] } },
{ "type": "Feature", "properties": { "u": 3707678681, "v": 12794837217, "length": 91.512453091489988, "heat_score": -3.3 }, "geometry": { "type": "LineString", "coordinates": [ [ 127.080060099999983, 37.3216088 ], [ 127.0800389, 37.32177690000001 ], [ 127.080013899999983, 37.3219131 ], [ 127.0800107, 37.3219263 ], [ 127.079983299999981, 37.3220858 ], [ 127.0799401, 37.322326 ], [ 127.0799336, 37.3224252 ] ] } },
{ "type": "Feature", "properties": { "u": 12794837217, "v": 3529513828, "length": 328.86656831242186, "heat_score": -3.34 }, "geometry": { "type": "LineString", "coordinates": [ [ 127.080060099999983, 37.3216088 ], [ 127.080266400000014, 37.321375 ], [ 127.0804832, 37.3210828 ], [ 127.080639, 37.32089710000001 ], [ 127.0809205, 37.3205718 ], [ 127.0810652, 37.320422 ], [ 127.081135, 37.3203566 ], [ 127.081238, 37.32026 ], [ 127.0813502, 37.3201595 ], [ 127.08158, 37.3199539 ], [ 127.081808899999984, 37.3197465 ], [ 127.081895500000016, 37.3196693 ], [ 127.0819656, 37.3196158 ], [ 127.0820366, 37.319567 ], [ 127.0821222, 37.3195211 ], [ 127.082258900000014, 37.3194584 ], [ 127.082385800000011, 37.3194075 ], [ 127.082442500000013, 37.319382 ] ] } },
{ "type": "Feature", "properties": { "u": 3529513828, "v": 11831009773, "length": 59.619732686719118, "heat_score": -3.29 }, "geometry": { "type": "LineString", "coordinates": [ [ 127.0830472, 37.3191449 ], [ 127.082442500000013, 37.319382 ] ] } },
{ "type": "Feature", "properties": { "u": 11831009773, "v": 11831008065, "length": 21.420400278464214, "heat_score": -3.25 }, "geometry": { "type": "LineString", "coordinates": [ [ 127.0830472, 37.3191449 ], [ 127.083253, 37.3190433 ] ] } },
{ "type": "Feature", "properties": { "u": 11831008065, "v": 13539327752, "length": 26.678116799415687, "heat_score": -3.12 }, "geometry": { "type": "LineString", "coordinates": [ [ 127.083519800000019, 37.3189317 ], [ 127.0834586, 37.3189529 ], [ 127.0833177, 37.3190148 ], [ 127.083253, 37.3190433 ] ] } },
{ "type": "Feature", "properties": { "u": 13539327752, "v": 842899428, "length": 12.368843478303724, "heat_score": -2.975 }, "geometry": { "type": "LineString", "coordinates": [ [ 127.083519800000019, 37.3189317 ], [ 127.0836481, 37.3188874 ] ] } },
{ "type": "Feature", "properties": { "u": 842899428, "v": 13539327751, "length": 31.235770972881248, "heat_score": -2.98 }, "geometry": { "type": "LineString", "coordinates": [ [ 127.0834954, 37.3186341 ], [ 127.0835169, 37.3186692 ], [ 127.08360519999998, 37.3188148 ], [ 127.0836481, 37.3188874 ] ] } },
{ "type": "Feature", "properties": { "u": 13539327751, "v": 11831008067, "length": 42.943328792385621, "heat_score": -3.0 }, "geometry": { "type": "LineString", "coordinates": [ [ 127.0834954, 37.3186341 ], [ 127.083665700000012, 37.3187352 ], [ 127.08376410000001, 37.3187669 ], [ 127.0839278, 37.3187929 ] ] } },
{ "type": "Feature", "properties": { "u": 11831008067, "v": 842899428, "length": 26.878159477464941, "heat_score": -2.98 }, "geometry": { "type": "LineString", "coordinates": [ [ 127.0839278, 37.3187929 ], [ 127.083799299999981, 37.3188339 ], [ 127.0836481, 37.3188874 ] ] } },
{ "type": "Feature", "properties": { "u": 842899428, "v": 13539327756, "length": 45.003667754928955, "heat_score": -3.755 }, "geometry": { "type": "LineString", "coordinates": [ [ 127.0836481, 37.3188874 ], [ 127.0837384, 37.319023 ], [ 127.0838806, 37.3192474 ] ] } },
{ "type": "Feature", "properties": { "u": 13539327756, "v": 11831009774, "length": 68.590107906335277, "heat_score": -3.76 }, "geometry": { "type": "LineString", "coordinates": [ [ 127.0841426, 37.31871790000001 ], [ 127.0840235, 37.3188275 ], [ 127.0839113, 37.3189044 ], [ 127.0838648, 37.3189728 ], [ 127.083854100000011, 37.3190379 ], [ 127.0838569, 37.3191055 ], [ 127.0838806, 37.3192474 ] ] } },
{ "type": "Feature", "properties": { "u": 11831009774, "v": 842899463, "length": 169.60728686121215, "heat_score": -2.985 }, "geometry": { "type": "LineString", "coordinates": [ [ 127.0841426, 37.31871790000001 ], [ 127.085055, 37.3183484 ], [ 127.0852901, 37.3182624 ], [ 127.085547700000021, 37.3181678 ], [ 127.085857, 37.3180349 ] ] } },
{ "type": "Feature", "properties": { "u": 842899463, "v": 1994672752, "length": 79.974526329469285, "heat_score": -2.99 }, "geometry": { "type": "LineString", "coordinates": [ [ 127.0867422, 37.3180479 ], [ 127.0867087, 37.3180363 ], [ 127.086657200000019, 37.3180228 ], [ 127.0865428, 37.3180082 ], [ 127.0864104, 37.3179872 ], [ 127.0862696, 37.3179858 ], [ 127.086137699999981, 37.3179822 ], [ 127.0859974, 37.3179964 ], [ 127.085857, 37.3180349 ] ] } },
{ "type": "Feature", "properties": { "u": 1994672752, "v": 3655080125, "length": 146.31604154409646, "heat_score": 8.59 }, "geometry": { "type": "LineString", "coordinates": [ [ 127.087638699999985, 37.3169431 ], [ 127.0869382, 37.3177664 ], [ 127.0867422, 37.3180479 ] ] } },
{ "type": "Feature", "properties": { "u": 3655080125, "v": 3696997293, "length": 161.83182950181953, "heat_score": 8.455 }, "geometry": { "type": "LineString", "coordinates": [ [ 127.089146200000016, 37.3177682 ], [ 127.087638699999985, 37.3169431 ] ] } },
{ "type": "Feature", "properties": { "u": 3696997293, "v": 414694371, "length": 153.1366129197734, "heat_score": -3.125 }, "geometry": { "type": "LineString", "coordinates": [ [ 127.089146200000016, 37.3177682 ], [ 127.0894914, 37.3173889 ], [ 127.0901614, 37.3166525 ] ] } },
{ "type": "Feature", "properties": { "u": 414694371, "v": 7857963328, "length": 810.50517508504481, "heat_score": -3.145 }, "geometry": { "type": "LineString", "coordinates": [ [ 127.097361500000019, 37.3211488 ], [ 127.0969318, 37.3208324 ], [ 127.096266400000019, 37.3203978 ], [ 127.095430599999986, 37.3198328 ], [ 127.0948005, 37.3194673 ], [ 127.0944321, 37.3192623 ], [ 127.0941385, 37.319082 ], [ 127.0939672, 37.3189768 ], [ 127.0929177, 37.31833240000001 ], [ 127.0903171, 37.316801 ], [ 127.0901614, 37.3166525 ] ] } },
{ "type": "Feature", "properties": { "u": 7857963328, "v": 3638077030, "length": 93.366003789928186, "heat_score": -3.15 }, "geometry": { "type": "LineString", "coordinates": [ [ 127.097361500000019, 37.3211488 ], [ 127.0972452, 37.3212749 ], [ 127.0967371, 37.3218259 ] ] } },
{ "type": "Feature", "properties": { "u": 3638077030, "v": 3638077029, "length": 74.193302168624015, "heat_score": -3.125 }, "geometry": { "type": "LineString", "coordinates": [ [ 127.0967371, 37.3218259 ], [ 127.096635100000015, 37.3217669 ], [ 127.0961816, 37.3215047 ], [ 127.096058500000012, 37.3214335 ] ] } },
{ "type": "Feature", "properties": { "u": 3638077029, "v": 842899420, "length": 139.12601177244784, "heat_score": -3.28 }, "geometry": { "type": "LineString", "coordinates": [ [ 127.096058500000012, 37.3214335 ], [ 127.09595520000002, 37.3213748 ], [ 127.095630900000018, 37.3211905 ], [ 127.0954103, 37.3210651 ], [ 127.0949009, 37.3207735 ], [ 127.09478, 37.3207043 ] ] } },
{ "type": "Feature", "properties": { "u": 842899420, "v": 3699314315, "length": 30.44666057314614, "heat_score": 5.06 }, "geometry": { "type": "LineString", "coordinates": [ [ 127.0944996, 37.3205454 ], [ 127.0947327, 37.3206775 ], [ 127.09478, 37.3207043 ] ] } },
{ "type": "Feature", "properties": { "u": 3699314315, "v": 3699314314, "length": 125.45472188422974, "heat_score": 13.675 }, "geometry": { "type": "LineString", "coordinates": [ [ 127.0944996, 37.3205454 ], [ 127.0940993, 37.3210127 ], [ 127.093706, 37.3214806 ] ] } },
{ "type": "Feature", "properties": { "u": 3699314314, "v": 3699314313, "length": 29.409302230792875, "heat_score": 5.31 }, "geometry": { "type": "LineString", "coordinates": [ [ 127.093706, 37.3214806 ], [ 127.0939137, 37.321615 ], [ 127.093964, 37.3216475 ] ] } },
{ "type": "Feature", "properties": { "u": 3699314313, "v": 842899419, "length": 40.459937053555663, "heat_score": -4.22 }, "geometry": { "type": "LineString", "coordinates": [ [ 127.093964, 37.3216475 ], [ 127.093845500000015, 37.3217831 ], [ 127.093767200000016, 37.3218728 ], [ 127.093705499999984, 37.3219477 ] ] } },
{ "type": "Feature", "properties": { "u": 842899419, "v": 6269743767, "length": 112.15561855594568, "heat_score": 6.825 }, "geometry": { "type": "LineString", "coordinates": [ [ 127.094742600000018, 37.3225274 ], [ 127.094508200000021, 37.3223961 ], [ 127.093876, 37.322057800000017 ], [ 127.0938541, 37.3220436 ], [ 127.093705499999984, 37.3219477 ] ] } },
{ "type": "Feature", "properties": { "u": 6269743767, "v": 842899459, "length": 97.915747109989638, "heat_score": 7.895 }, "geometry": { "type": "LineString", "coordinates": [ [ 127.094742600000018, 37.3225274 ], [ 127.0954274, 37.3228962 ], [ 127.0955224, 37.3229481 ], [ 127.0956584, 37.3230224 ] ] } },
{ "type": "Feature", "properties": { "u": 842899459, "v": 3638087285, "length": 49.997122702519562, "heat_score": -3.125 }, "geometry": { "type": "LineString", "coordinates": [ [ 127.0961002, 37.323303 ], [ 127.095817, 37.3231231 ], [ 127.095678, 37.3230348 ], [ 127.0956638, 37.3230259 ], [ 127.0956584, 37.3230224 ] ] } },
{ "type": "Feature", "properties": { "u": 3638087285, "v": 3641792346, "length": 53.496593079207237, "heat_score": 4.745 }, "geometry": { "type": "LineString", "coordinates": [ [ 127.0964603, 37.3229164 ], [ 127.0961517, 37.3232477 ], [ 127.0961002, 37.323303 ] ] } },
{ "type": "Feature", "properties": { "u": 3641792346, "v": 3641792340, "length": 87.920446223381091, "heat_score": 13.7 }, "geometry": { "type": "LineString", "coordinates": [ [ 127.0964603, 37.3229164 ], [ 127.097248, 37.3233989 ] ] } },
{ "type": "Feature", "properties": { "u": 3641792340, "v": 3641674128, "length": 85.07295269045288, "heat_score": 14.175 }, "geometry": { "type": "LineString", "coordinates": [ [ 127.097248, 37.3233989 ], [ 127.0980298, 37.3238448 ] ] } },
{ "type": "Feature", "properties": { "u": 3641674128, "v": 3641674129, "length": 47.741302481374461, "heat_score": 14.17 }, "geometry": { "type": "LineString", "coordinates": [ [ 127.0983393, 37.323493 ], [ 127.0980298, 37.3238448 ] ] } },
{ "type": "Feature", "properties": { "u": 3641674129, "v": 3641674136, "length": 22.414717890342978, "heat_score": 14.655 }, "geometry": { "type": "LineString", "coordinates": [ [ 127.0985459, 37.3236098 ], [ 127.0983393, 37.323493 ] ] } },
{ "type": "Feature", "properties": { "u": 3641674136, "v": 3641673370, "length": 94.21613651906037, "heat_score": 13.895 }, "geometry": { "type": "LineString", "coordinates": [ [ 127.0985459, 37.3236098 ], [ 127.0994083, 37.3241074 ] ] } },
{ "type": "Feature", "properties": { "u": 3641673370, "v": 3641672247, "length": 127.41956063898088, "heat_score": 13.905 }, "geometry": { "type": "LineString", "coordinates": [ [ 127.0994083, 37.3241074 ], [ 127.10055850000002, 37.3247977 ] ] } },
{ "type": "Feature", "properties": { "u": 3641672247, "v": 3642437650, "length": 53.82425599172835, "heat_score": 14.675 }, "geometry": { "type": "LineString", "coordinates": [ [ 127.101037, 37.3250969 ], [ 127.10055850000002, 37.3247977 ] ] } },
{ "type": "Feature", "properties": { "u": 3642437650, "v": 3641672248, "length": 106.31180620347659, "heat_score": 13.655 }, "geometry": { "type": "LineString", "coordinates": [ [ 127.101037, 37.3250969 ], [ 127.101965400000012, 37.3257044 ] ] } },
{ "type": "Feature", "properties": { "u": 3641672248, "v": 3638087029, "length": 49.656991665949143, "heat_score": 13.275 }, "geometry": { "type": "LineString", "coordinates": [ [ 127.101965400000012, 37.3257044 ], [ 127.1017969, 37.3261304 ] ] } },
{ "type": "Feature", "properties": { "u": 3638087029, "v": 3641672246, "length": 176.71430220933169, "heat_score": 13.52 }, "geometry": { "type": "LineString", "coordinates": [ [ 127.100206600000021, 37.3251679 ], [ 127.1017969, 37.3261304 ] ] } },
{ "type": "Feature", "properties": { "u": 3641672246, "v": 3641672247, "length": 51.601608047933659, "heat_score": 13.895 }, "geometry": { "type": "LineString", "coordinates": [ [ 127.10055850000002, 37.3247977 ], [ 127.100206600000021, 37.3251679 ] ] } },
{ "type": "Feature", "properties": { "u": 3641672247, "v": 3642437652, "length": 38.633357235754922, "heat_score": 14.05 }, "geometry": { "type": "LineString", "coordinates": [ [ 127.1008219, 37.3245205 ], [ 127.10055850000002, 37.3247977 ] ] } },
{ "type": "Feature", "properties": { "u": 3642437652, "v": 3641673371, "length": 8.0401889449574035, "heat_score": 13.43 }, "geometry": { "type": "LineString", "coordinates": [ [ 127.1008219, 37.3245205 ], [ 127.1008767, 37.3244628 ] ] } },
{ "type": "Feature", "properties": { "u": 3641673371, "v": 3641673372, "length": 127.32676414290825, "heat_score": 13.11 }, "geometry": { "type": "LineString", "coordinates": [ [ 127.0997139, 37.3237874 ], [ 127.1008767, 37.3244628 ] ] } },
{ "type": "Feature", "properties": { "u": 3641673372, "v": 3641673370, "length": 44.680277691866216, "heat_score": 12.965 }, "geometry": { "type": "LineString", "coordinates": [ [ 127.0997139, 37.3237874 ], [ 127.0994083, 37.3241074 ] ] } },
{ "type": "Feature", "properties": { "u": 3641673370, "v": 3641673369, "length": 50.563993744727341, "heat_score": 13.9 }, "geometry": { "type": "LineString", "coordinates": [ [ 127.0994083, 37.3241074 ], [ 127.0990664, 37.3244719 ] ] } },
{ "type": "Feature", "properties": { "u": 3641673369, "v": 3641674128, "length": 115.16947858481565, "heat_score": 14.17 }, "geometry": { "type": "LineString", "coordinates": [ [ 127.0980298, 37.3238448 ], [ 127.0990664, 37.3244719 ] ] } },
{ "type": "Feature", "properties": { "u": 3641674128, "v": 3638088182, "length": 53.947999186482356, "heat_score": 5.215 }, "geometry": { "type": "LineString", "coordinates": [ [ 127.0980298, 37.3238448 ], [ 127.0977439, 37.3241749 ], [ 127.097683799999984, 37.3242444 ] ] } },
{ "type": "Feature", "properties": { "u": 3638088182, "v": 3653760000, "length": 60.084247783375524, "heat_score": 4.715 }, "geometry": { "type": "LineString", "coordinates": [ [ 127.0972807, 37.3246794 ], [ 127.0975993, 37.3243356 ], [ 127.097683799999984, 37.3242444 ] ] } },
{ "type": "Feature", "properties": { "u": 3653760000, "v": 3653759999, "length": 51.221371184950492, "heat_score": 12.91 }, "geometry": { "type": "LineString", "coordinates": [ [ 127.096937, 37.3250502 ], [ 127.0972807, 37.3246794 ] ] } },
{ "type": "Feature", "properties": { "u": 3653759999, "v": 3653759998, "length": 51.560472312136937, "heat_score": 13.13 }, "geometry": { "type": "LineString", "coordinates": [ [ 127.096591100000012, 37.3254235 ], [ 127.096937, 37.3250502 ] ] } },
{ "type": "Feature", "properties": { "u": 3653759998, "v": 3638088181, "length": 52.419619657670573, "heat_score": 3.955 }, "geometry": { "type": "LineString", "coordinates": [ [ 127.096239400000016, 37.325803 ], [ 127.096275700000021, 37.3257639 ], [ 127.096591100000012, 37.3254235 ] ] } },
{ "type": "Feature", "properties": { "u": 3638088181, "v": 3638084966, "length": 87.729065047381411, "heat_score": -4.525 }, "geometry": { "type": "LineString", "coordinates": [ [ 127.096239400000016, 37.325803 ], [ 127.095460200000019, 37.3253146 ] ] } },
{ "type": "Feature", "properties": { "u": 3638084966, "v": 3638088208, "length": 88.266836728048403, "heat_score": -4.51 }, "geometry": { "type": "LineString", "coordinates": [ [ 127.0946582, 37.3248421 ], [ 127.095352600000012, 37.3252463 ], [ 127.095460200000019, 37.3253146 ] ] } },
{ "type": "Feature", "properties": { "u": 3638088208, "v": 3638077031, "length": 46.673894918836879, "heat_score": -4.25 }, "geometry": { "type": "LineString", "coordinates": [ [ 127.0946582, 37.3248421 ], [ 127.0944274, 37.3247145 ], [ 127.0944062, 37.3247028 ], [ 127.0942248, 37.3246025 ] ] } },
{ "type": "Feature", "properties": { "u": 3638077031, "v": 414694398, "length": 240.87890604888145, "heat_score": -3.315 }, "geometry": { "type": "LineString", "coordinates": [ [ 127.0942248, 37.3246025 ], [ 127.094100800000021, 37.3247201 ], [ 127.093631099999982, 37.3252447 ], [ 127.092758500000016, 37.3262209 ], [ 127.0926264, 37.326356 ] ] } },
{ "type": "Feature", "properties": { "u": 414694398, "v": 3677038134, "length": 214.67521703660648, "heat_score": -3.16 }, "geometry": { "type": "LineString", "coordinates": [ [ 127.0906788, 37.3252036 ], [ 127.0907628, 37.3252527 ], [ 127.0924877, 37.3262821 ], [ 127.0926264, 37.326356 ] ] } },
{ "type": "Feature", "properties": { "u": 3677038134, "v": 13539327778, "length": 15.496281366366416, "heat_score": -2.98 }, "geometry": { "type": "LineString", "coordinates": [ [ 127.0905735, 37.325315 ], [ 127.0906788, 37.3252036 ] ] } },
{ "type": "Feature", "properties": { "u": 13539327778, "v": 13539327774, "length": 399.82163559064753, "heat_score": -3.135 }, "geometry": { "type": "LineString", "coordinates": [ [ 127.0905735, 37.325315 ], [ 127.090492199999986, 37.3252606 ], [ 127.089748799999981, 37.3248275 ], [ 127.0888981, 37.3242939 ], [ 127.087925400000017, 37.3237293 ], [ 127.0876123, 37.3235434 ], [ 127.0869739, 37.32314010000001 ] ] } },
{ "type": "Feature", "properties": { "u": 13539327774, "v": 3529513813, "length": 291.35593917360535, "heat_score": -3.16 }, "geometry": { "type": "LineString", "coordinates": [ [ 127.0869739, 37.32314010000001 ], [ 127.086342800000011, 37.3227374 ], [ 127.0862212, 37.3226395 ], [ 127.086103300000019, 37.3225464 ], [ 127.0859758, 37.3224357 ], [ 127.0857973, 37.32228030000001 ], [ 127.0855728, 37.3220678 ], [ 127.0853131, 37.321775 ], [ 127.08518, 37.3216089 ], [ 127.085068, 37.3214416 ], [ 127.0849422, 37.3212119 ], [ 127.0849024, 37.3211455 ] ] } },
{ "type": "Feature", "properties": { "u": 3529513813, "v": 11831009780, "length": 117.38112651735794, "heat_score": -3.15 }, "geometry": { "type": "LineString", "coordinates": [ [ 127.0849024, 37.3211455 ], [ 127.0848569, 37.3210696 ], [ 127.0847577, 37.3209004 ], [ 127.084677700000015, 37.3207907 ], [ 127.0843232, 37.3201961 ] ] } },
{ "type": "Feature", "properties": { "u": 11831009780, "v": 3529513823, "length": 114.63615914743707, "heat_score": -3.57 }, "geometry": { "type": "LineString", "coordinates": [ [ 127.0843232, 37.3201961 ], [ 127.084104600000018, 37.3202432 ], [ 127.0835169, 37.3203999 ], [ 127.0830891, 37.320511 ] ] } },
{ "type": "Feature", "properties": { "u": 3529513823, "v": 3529513830, "length": 89.1589817452099, "heat_score": -3.585 }, "geometry": { "type": "LineString", "coordinates": [ [ 127.083228600000012, 37.3213045 ], [ 127.0832179, 37.3212192 ], [ 127.0831696, 37.3208693 ], [ 127.0831267, 37.3206518 ], [ 127.0830891, 37.320511 ] ] } },
{ "type": "Feature", "properties": { "u": 3529513830, "v": 8482871796, "length": 341.78572426459607, "heat_score": -3.295 }, "geometry": { "type": "LineString", "coordinates": [ [ 127.0821527, 37.3229642 ], [ 127.0821289, 37.3229426 ], [ 127.081951900000021, 37.3228317 ], [ 127.0817963, 37.322708 ], [ 127.0816461, 37.322588500000016 ], [ 127.081538800000018, 37.3224435 ], [ 127.0814691, 37.3223027 ], [ 127.0814423, 37.322179 ], [ 127.0814154, 37.3220126 ], [ 127.0813725, 37.3217737 ], [ 127.081356400000018, 37.321633 ], [ 127.0814744, 37.3215988 ], [ 127.0816998, 37.321556200000011 ], [ 127.081994800000018, 37.321505 ], [ 127.082198600000012, 37.3214623 ], [ 127.082418599999983, 37.3214197 ], [ 127.082601, 37.3213898 ], [ 127.0829067, 37.3213429 ], [ 127.083228600000012, 37.3213045 ] ] } },
{ "type": "Feature", "properties": { "u": 8482871796, "v": 3529506337, "length": 91.214694386898685, "heat_score": -3.305 }, "geometry": { "type": "LineString", "coordinates": [ [ 127.0821527, 37.3229642 ], [ 127.08227909999998, 37.3230791 ], [ 127.0823757, 37.3231943 ], [ 127.0824454, 37.3233308 ], [ 127.0825259, 37.323495 ], [ 127.0825983, 37.3236924 ] ] } },
{ "type": "Feature", "properties": { "u": 3529506337, "v": 3529506336, "length": 51.489123545063038, "heat_score": -4.3 }, "geometry": { "type": "LineString", "coordinates": [ [ 127.0825983, 37.3236924 ], [ 127.082035, 37.3238097 ] ] } },
{ "type": "Feature", "properties": { "u": 3529506336, "v": 3660317658, "length": 74.725283976282313, "heat_score": -5.25 }, "geometry": { "type": "LineString", "coordinates": [ [ 127.08120390000002, 37.3239314 ], [ 127.082035, 37.3238097 ] ] } },
{ "type": "Feature", "properties": { "u": 3660317658, "v": 3707678681, "length": 252.70377555499033, "heat_score": -4.25 }, "geometry": { "type": "LineString", "coordinates": [ [ 127.0799336, 37.3224252 ], [ 127.0803587, 37.3239014 ], [ 127.0804042, 37.3240059 ], [ 127.080468600000017, 37.324023 ], [ 127.080549, 37.3240273 ], [ 127.08120390000002, 37.3239314 ] ] } },
{ "type": "Feature", "properties": { "u": 3707678681, "v": 3707678649, "length": 64.670709686093929, "heat_score": -3.54 }, "geometry": { "type": "LineString", "coordinates": [ [ 127.0799336, 37.3224252 ], [ 127.0798616, 37.3223525 ], [ 127.079821100000018, 37.3223052 ], [ 127.0797528, 37.3222429 ], [ 127.0797196, 37.3222263 ], [ 127.0796864, 37.3222097 ], [ 127.079593499999987, 37.3221835 ], [ 127.0794879, 37.3221725 ], [ 127.0794673, 37.322170600000014 ], [ 127.079445299999989, 37.3221686 ], [ 127.0793326, 37.3221692 ] ] } },
{ "type": "Feature", "properties": { "u": 3707678649, "v": 3529505225, "length": 191.53356191090748, "heat_score": -3.415 }, "geometry": { "type": "LineString", "coordinates": [ [ 127.0793326, 37.3221692 ], [ 127.0792341, 37.3222026 ], [ 127.079116400000018, 37.3222315 ], [ 127.0789988, 37.3222604 ], [ 127.078737500000017, 37.3223333 ], [ 127.07845589999998, 37.3224206 ], [ 127.0782117, 37.3225229 ], [ 127.07800610000001, 37.3226169 ], [ 127.07780480000001, 37.3227208 ], [ 127.0775613, 37.3228372 ], [ 127.0773947, 37.3229197 ] ] } },
{ "type": "Feature", "properties": { "u": 3529505225, "v": 3707678662, "length": 211.31779252702691, "heat_score": -3.125 }, "geometry": { "type": "LineString", "coordinates": [ [ 127.0753983, 37.3239581 ], [ 127.075515899999985, 37.323895 ], [ 127.0760752, 37.3236177 ], [ 127.0765427, 37.3233881 ], [ 127.0770113, 37.3231673 ], [ 127.077195100000012, 37.3230627 ], [ 127.0773947, 37.3229197 ] ] } },
{ "type": "Feature", "properties": { "u": 3707678662, "v": 3707678661, "length": 213.84582592878428, "heat_score": -4.3 }, "geometry": { "type": "LineString", "coordinates": [ [ 127.0753983, 37.3239581 ], [ 127.075501799999984, 37.3240105 ], [ 127.075545500000018, 37.3240378 ], [ 127.075565, 37.3240499 ], [ 127.0756589, 37.3240754 ], [ 127.075835900000015, 37.3240669 ], [ 127.0760089, 37.3240392 ], [ 127.07614839999998, 37.3240136 ], [ 127.0762731, 37.3239859 ], [ 127.0763737, 37.3239667 ], [ 127.0764622, 37.3239496 ], [ 127.0765802, 37.3239283 ], [ 127.076682099999985, 37.3239005 ], [ 127.076806800000014, 37.3238728 ], [ 127.076941, 37.3238451 ], [ 127.077087100000014, 37.3238195 ], [ 127.0772454, 37.323796 ], [ 127.0773969, 37.3237673 ], [ 127.077594100000013, 37.3237416 ], [ 127.0777235, 37.3237203 ] ] } }
]
}
