{
"type": "FeatureCollection",
"name": "cool_cycle_3km_route3_edges",
"crs": { "type": "name", "properties": { "name": "urn:ogc:def:crs:OGC:1.3:CRS84" } },
"features": [
{ "type": "Feature", "properties": { "u": 3485490152, "v": 3528563908, "length": 842.47653278598284, "heat_score": 8.475 }, "geometry": { "type": "LineString", "coordinates": [ [ 127.0703978, 37.3253977 ], [ 127.0703344, 37.3253263 ], [ 127.0702171, 37.3251942 ], [ 127.0699469, 37.3248885 ], [ 127.0696013, 37.3245901 ], [ 127.069107300000013, 37.3242304 ], [ 127.0686874, 37.3240051 ], [ 127.068384599999987, 37.3238439 ], [ 127.06814820000001, 37.3236996 ], [ 127.0677493, 37.3234615 ], [ 127.067414899999989, 37.323234 ], [ 127.06711580000001, 37.3229678 ], [ 127.0667696, 37.3225937 ], [ 127.06660549999998, 37.3223987 ], [ 127.066474, 37.322184300000011 ], [ 127.06637929999998, 37.3219247 ], [ 127.066284600000017, 37.3216004 ], [ 127.0661832, 37.3210874 ], [ 127.066166200000012, 37.3210151 ], [ 127.0661665, 37.3209072 ], [ 127.0661632, 37.3207702 ], [ 127.0661385, 37.320636 ], [ 127.066016, 37.3201733 ], [ 127.0658027, 37.3193297 ], [ 127.0657709, 37.3191974 ] ] } },
{ "type": "Feature", "properties": { "u": 3528563908, "v": 3528563900, "length": 249.64136715975485, "heat_score": 8.1 }, "geometry": { "type": "LineString", "coordinates": [ [ 127.0703978, 37.3253977 ], [ 127.070249500000017, 37.3254511 ], [ 127.070183200000017, 37.3254749 ], [ 127.0699696, 37.3255815 ], [ 127.0699117, 37.3256034 ], [ 127.0697977, 37.3256696 ], [ 127.069694400000017, 37.3257357 ], [ 127.0695884, 37.3258135 ], [ 127.069339, 37.3259639 ], [ 127.0689085, 37.3262465 ], [ 127.068150800000012, 37.3267435 ] ] } },
{ "type": "Feature", "properties": { "u": 3528563900, "v": 3528551420, "length": 49.564559980089228, "heat_score": 7.15 }, "geometry": { "type": "LineString", "coordinates": [ [ 127.068150800000012, 37.3267435 ], [ 127.06822050000001, 37.3268 ], [ 127.068461900000017, 37.3270175 ], [ 127.0685236, 37.3270762 ] ] } },
{ "type": "Feature", "properties": { "u": 3528551420, "v": 3528566606, "length": 163.46962726509594, "heat_score": 7.91 }, "geometry": { "type": "LineString", "coordinates": [ [ 127.0679274, 37.3275555 ], [ 127.0682527, 37.3277928 ], [ 127.068277200000011, 37.3278078 ], [ 127.068287600000019, 37.3278142 ], [ 127.0683332, 37.3278248 ], [ 127.0683734, 37.3278227 ], [ 127.0684136, 37.3278056 ], [ 127.0686756, 37.3275696 ], [ 127.0688589, 37.3274046 ], [ 127.0688696, 37.3273769 ], [ 127.0688696, 37.3273556 ], [ 127.0688566, 37.3273429 ], [ 127.0688106, 37.327298 ], [ 127.068706, 37.3272106 ], [ 127.0686148, 37.3271402 ], [ 127.0685236, 37.3270762 ] ] } },
{ "type": "Feature", "properties": { "u": 3528566606, "v": 3528551421, "length": 34.780862994865167, "heat_score": -3.455 }, "geometry": { "type": "LineString", "coordinates": [ [ 127.0679274, 37.3275555 ], [ 127.0677039, 37.3277352 ], [ 127.067650799999981, 37.3277779 ] ] } },
{ "type": "Feature", "properties": { "u": 3528551421, "v": 3528551422, "length": 50.886389134647736, "heat_score": -3.715 }, "geometry": { "type": "LineString", "coordinates": [ [ 127.067224600000017, 37.32747040000001 ], [ 127.0672939, 37.3275205 ], [ 127.067365600000016, 37.3275728 ], [ 127.067551400000013, 37.3277082 ], [ 127.067650799999981, 37.3277779 ] ] } },
{ "type": "Feature", "properties": { "u": 3528551422, "v": 3525982780, "length": 461.09872048610595, "heat_score": -3.42 }, "geometry": { "type": "LineString", "coordinates": [ [ 127.067224600000017, 37.32747040000001 ], [ 127.067141800000016, 37.3274105 ], [ 127.066821799999985, 37.327179200000018 ], [ 127.0667091, 37.3271195 ], [ 127.0665965, 37.3270683 ], [ 127.0664825, 37.3270396 ], [ 127.066317600000019, 37.3270171 ], [ 127.066247899999979, 37.3270204 ], [ 127.0661781, 37.3270236 ], [ 127.066068, 37.32703870000001 ], [ 127.0660386, 37.3270427 ], [ 127.0659367, 37.327061900000011 ], [ 127.0658348, 37.3271024 ], [ 127.065711300000018, 37.3271579 ], [ 127.0655987, 37.3272219 ], [ 127.0653227, 37.3274202 ], [ 127.0652621, 37.327459 ], [ 127.0642853, 37.3281161 ], [ 127.064225399999984, 37.3281576 ], [ 127.064101, 37.3282373 ], [ 127.0632036, 37.32881230000001 ], [ 127.06303, 37.3289163 ] ] } },
{ "type": "Feature", "properties": { "u": 3525982780, "v": 12797121181, "length": 596.25191482259083, "heat_score": -2.825 }, "geometry": { "type": "LineString", "coordinates": [ [ 127.060503, 37.3240802 ], [ 127.06066490000002, 37.32435430000001 ], [ 127.0608719, 37.324705 ], [ 127.0609423, 37.3248191 ], [ 127.061116400000017, 37.3251388 ], [ 127.0611251, 37.3251548 ], [ 127.061166899999989, 37.3252458 ], [ 127.061252300000021, 37.3254716 ], [ 127.0613051, 37.3256877 ], [ 127.0613623, 37.3259336 ], [ 127.0613855, 37.3262332 ], [ 127.06139570000002, 37.3264438 ], [ 127.0613974, 37.3265897 ], [ 127.061388500000021, 37.3267133 ], [ 127.061393099999989, 37.3267923 ], [ 127.061425200000016, 37.3269629 ], [ 127.0614742, 37.3270978 ], [ 127.0615304, 37.3272093 ], [ 127.061620599999983, 37.327336 ], [ 127.061795799999985, 37.3275464 ], [ 127.0619456, 37.3276975 ], [ 127.0623093, 37.3281166 ], [ 127.0629147, 37.3287829 ], [ 127.06303, 37.3289163 ] ] } },
{ "type": "Feature", "properties": { "u": 12797121181, "v": 8433422839, "length": 100.21714935135985, "heat_score": -2.805 }, "geometry": { "type": "LineString", "coordinates": [ [ 127.060503, 37.3240802 ], [ 127.0602394, 37.323634 ], [ 127.0601649, 37.3235081 ], [ 127.060104, 37.3234053 ], [ 127.060003499999979, 37.3232719 ] ] } },
{ "type": "Feature", "properties": { "u": 8433422839, "v": 2600902198, "length": 86.54460654157144, "heat_score": -2.835 }, "geometry": { "type": "LineString", "coordinates": [ [ 127.060003499999979, 37.3232719 ], [ 127.059983, 37.323237 ], [ 127.0598486, 37.3229817 ], [ 127.0597375, 37.3228137 ], [ 127.0596772, 37.3227358 ], [ 127.0595621, 37.3225788 ] ] } },
{ "type": "Feature", "properties": { "u": 2600902198, "v": 8566507154, "length": 52.926269690049061, "heat_score": -2.825 }, "geometry": { "type": "LineString", "coordinates": [ [ 127.0600557, 37.32231 ], [ 127.059735499999988, 37.3224757 ], [ 127.0595621, 37.3225788 ] ] } },
{ "type": "Feature", "properties": { "u": 8566507154, "v": 3485484232, "length": 350.28047148689024, "heat_score": -3.14 }, "geometry": { "type": "LineString", "coordinates": [ [ 127.0600557, 37.32231 ], [ 127.0604802, 37.3220965 ], [ 127.060692299999985, 37.3219541 ], [ 127.0608871, 37.321782 ], [ 127.0609765, 37.3216848 ], [ 127.0610197, 37.3216364 ], [ 127.0610945, 37.3215526 ], [ 127.0612281, 37.321371 ], [ 127.0612966, 37.3212779 ], [ 127.061352, 37.3211714 ], [ 127.061393, 37.3210875 ], [ 127.0614275, 37.3209649 ], [ 127.061467, 37.3208317 ], [ 127.061580500000019, 37.3204548 ], [ 127.0616141, 37.3202936 ], [ 127.06173720000001, 37.3197675 ], [ 127.061766300000016, 37.3196256 ] ] } },
{ "type": "Feature", "properties": { "u": 3485484232, "v": 3485490152, "length": 398.86965678671646, "heat_score": -3.715 }, "geometry": { "type": "LineString", "coordinates": [ [ 127.0657709, 37.3191974 ], [ 127.065628, 37.3192822 ], [ 127.0652498, 37.3195066 ], [ 127.0647977, 37.3198 ], [ 127.0645861, 37.3199254 ], [ 127.064283, 37.3200637 ], [ 127.0641646, 37.3201055 ], [ 127.064019500000015, 37.3201406 ], [ 127.0638162, 37.3201652 ], [ 127.063636100000011, 37.3201679 ], [ 127.063492399999987, 37.3201475 ], [ 127.063369, 37.3201245 ], [ 127.063336099999987, 37.3201183 ], [ 127.0631947, 37.3200741 ], [ 127.062991, 37.32 ], [ 127.0627701, 37.3199108 ], [ 127.0625475, 37.3198388 ], [ 127.0625315, 37.3198336 ], [ 127.061986200000021, 37.319691 ], [ 127.061766300000016, 37.3196256 ] ] } }
]
}
