{
"type": "FeatureCollection",
"name": "cool_cycle_1km_route2_edges",
"crs": { "type": "name", "properties": { "name": "urn:ogc:def:crs:OGC:1.3:CRS84" } },
"features": [
{ "type": "Feature", "properties": { "u": 3525982789, "v": 3706019522, "length": 75.158391591689863, "heat_score": -4.345 }, "geometry": { "type": "LineString", "coordinates": [ [ 127.06782530000001, 37.3288015 ], [ 127.0683924, 37.328298 ] ] } },
{ "type": "Feature", "properties": { "u": 3706019522, "v": 2651554894, "length": 364.70245915060991, "heat_score": -4.05 }, "geometry": { "type": "LineString", "coordinates": [ [ 127.06782530000001, 37.3288015 ], [ 127.067342, 37.3292307 ], [ 127.067041900000021, 37.3294925 ], [ 127.0652084, 37.3310923 ], [ 127.0650574, 37.3312331 ] ] } },
{ "type": "Feature", "properties": { "u": 2651554894, "v": 3528551437, "length": 76.896083885681094, "heat_score": -3.28 }, "geometry": { "type": "LineString", "coordinates": [ [ 127.0645389, 37.3306782 ], [ 127.06455480000001, 37.3307007 ], [ 127.06476, 37.3309193 ], [ 127.064862500000018, 37.3310285 ], [ 127.0649153, 37.3310866 ], [ 127.0650574, 37.3312331 ] ] } },
{ "type": "Feature", "properties": { "u": 3528551437, "v": 3528551422, "length": 470.2738489825856, "heat_score": -3.57 }, "geometry": { "type": "LineString", "coordinates": [ [ 127.0645389, 37.3306782 ], [ 127.064740700000016, 37.33063760000001 ], [ 127.0650334, 37.3304849 ], [ 127.0650879, 37.3304592 ], [ 127.0652747, 37.330364 ], [ 127.065297099999981, 37.3303526 ], [ 127.065440400000014, 37.3302587 ], [ 127.0655408, 37.3301384 ], [ 127.0656268, 37.3300052 ], [ 127.065635400000019, 37.3299254 ], [ 127.065642900000014, 37.3298397 ], [ 127.0656176, 37.3296861 ], [ 127.065565500000019, 37.3294785 ], [ 127.0654849, 37.3292563 ], [ 127.065477, 37.3291598 ], [ 127.0654849, 37.3290687 ], [ 127.065517200000016, 37.3289764 ], [ 127.0655653, 37.328881 ], [ 127.0656326, 37.3287973 ], [ 127.065720900000017, 37.3287061 ], [ 127.065988, 37.32849 ], [ 127.0660267, 37.3284587 ], [ 127.0665445, 37.3280497 ], [ 127.066655, 37.3279624 ], [ 127.0667174, 37.3279136 ], [ 127.066875199999984, 37.3277933 ], [ 127.0670961, 37.3276248 ], [ 127.0672039, 37.3275426 ], [ 127.067224600000017, 37.32747040000001 ] ] } },
{ "type": "Feature", "properties": { "u": 3528551422, "v": 3528551421, "length": 50.886389134647736, "heat_score": -3.715 }, "geometry": { "type": "LineString", "coordinates": [ [ 127.067224600000017, 37.32747040000001 ], [ 127.0672939, 37.3275205 ], [ 127.067365600000016, 37.3275728 ], [ 127.067551400000013, 37.3277082 ], [ 127.067650799999981, 37.3277779 ] ] } },
{ "type": "Feature", "properties": { "u": 3528551421, "v": 3706019517, "length": 43.11659592337768, "heat_score": -4.455 }, "geometry": { "type": "LineString", "coordinates": [ [ 127.068016499999985, 37.3280344 ], [ 127.067650799999981, 37.3277779 ] ] } },
{ "type": "Feature", "properties": { "u": 3706019517, "v": 3525982789, "length": 44.315117139411612, "heat_score": -4.585 }, "geometry": { "type": "LineString", "coordinates": [ [ 127.068016499999985, 37.3280344 ], [ 127.0683924, 37.328298 ] ] } }
]
}
