{
"type": "FeatureCollection",
"name": "cool_cycle_1km_route2_nodes",
"crs": { "type": "name", "properties": { "name": "urn:ogc:def:crs:OGC:1.3:CRS84" } },
"features": [
{ "type": "Feature", "properties": { "osmid": 878203466, "y": 37.3361211, "x": 127.0936201, "junction": null, "street_count": 3, "highway": null, "ref": null, "felt_temp": 36.312393188476562, "heat_grade": 1.0, "index_right": 4223.0, "uid": "ì©ì¸_12793", "sgg_cd": "41460", "sgg_nm": "ì©ì¸ì", "lclsf_cd": "I", "lclsf_nm": "ìê°íê±´ì¡°ì§", "mclsf_cd": "ID", "mclsf_nm": "êµíµìì¤ì§", "sclsf_cd": "ID2", "sclsf_nm": "ì¼ë°ëë¡", "dclsf_cd": "ID2_1", "dclsf_nm": "ê°ë¡ì ìë ì¼ë°ëë¡", "ldc_lc_cd": "A", "ldc_lc_nm": "ìê°íê±´ì¡°ì§ì­", "ldc_mc_cd": "A5", "ldc_mc_nm": "êµíµì§ì­", "ldc_sc_cd": "A54", "ldc_sc_nm": "ëë¡", "shade": 0.9, "heat_score": -5.21, "heat_grade_norm": 0.0 }, "geometry": { "type": "Point", "coordinates": [ 127.0936201, 37.3361211 ] } },
{ "type": "Feature", "properties": { "osmid": 3663151886, "y": 37.3358229, "x": 127.0936143, "junction": null, "street_count": 3, "highway": null, "ref": null, "felt_temp": 36.679061889648438, "heat_grade": 4.0, "index_right": 4223.0, "uid": "ì©ì¸_12793", "sgg_cd": "41460", "sgg_nm": "ì©ì¸ì", "lclsf_cd": "I", "lclsf_nm": "ìê°íê±´ì¡°ì§", "mclsf_cd": "ID", "mclsf_nm": "êµíµìì¤ì§", "sclsf_cd": "ID2", "sclsf_nm": "ì¼ë°ëë¡", "dclsf_cd": "ID2_1", "dclsf_nm": "ê°ë¡ì ìë ì¼ë°ëë¡", "ldc_lc_cd": "A", "ldc_lc_nm": "ìê°íê±´ì¡°ì§ì­", "ldc_mc_cd": "A5", "ldc_mc_nm": "êµíµì§ì­", "ldc_sc_cd": "A54", "ldc_sc_nm": "ëë¡", "shade": 0.9, "heat_score": -4.33, "heat_grade_norm": 0.333 }, "geometry": { "type": "Point", "coordinates": [ 127.093614299999984, 37.335822899999989 ] } },
{ "type": "Feature", "properties": { "osmid": 3663151885, "y": 37.3354349, "x": 127.0936068, "junction": null, "street_count": 3, "highway": null, "ref": null, "felt_temp": 37.112644195556641, "heat_grade": 9.0, "index_right": 4223.0, "uid": "ì©ì¸_12793", "sgg_cd": "41460", "sgg_nm": "ì©ì¸ì", "lclsf_cd": "I", "lclsf_nm": "ìê°íê±´ì¡°ì§", "mclsf_cd": "ID", "mclsf_nm": "êµíµìì¤ì§", "sclsf_cd": "ID2", "sclsf_nm": "ì¼ë°ëë¡", "dclsf_cd": "ID2_1", "dclsf_nm": "ê°ë¡ì ìë ì¼ë°ëë¡", "ldc_lc_cd": "A", "ldc_lc_nm": "ìê°íê±´ì¡°ì§ì­", "ldc_mc_cd": "A5", "ldc_mc_nm": "êµíµì§ì­", "ldc_sc_cd": "A54", "ldc_sc_nm": "ëë¡", "shade": 0.9, "heat_score": -2.95, "heat_grade_norm": 0.889 }, "geometry": { "type": "Point", "coordinates": [ 127.0936068, 37.3354349 ] } },
{ "type": "Feature", "properties": { "osmid": 3663143096, "y": 37.3350353, "x": 127.0935991, "junction": null, "street_count": 3, "highway": null, "ref": null, "felt_temp": 36.740566253662109, "heat_grade": 6.0, "index_right": 4223.0, "uid": "ì©ì¸_12793", "sgg_cd": "41460", "sgg_nm": "ì©ì¸ì", "lclsf_cd": "I", "lclsf_nm": "ìê°íê±´ì¡°ì§", "mclsf_cd": "ID", "mclsf_nm": "êµíµìì¤ì§", "sclsf_cd": "ID2", "sclsf_nm": "ì¼ë°ëë¡", "dclsf_cd": "ID2_1", "dclsf_nm": "ê°ë¡ì ìë ì¼ë°ëë¡", "ldc_lc_cd": "A", "ldc_lc_nm": "ìê°íê±´ì¡°ì§ì­", "ldc_mc_cd": "A5", "ldc_mc_nm": "êµíµì§ì­", "ldc_sc_cd": "A54", "ldc_sc_nm": "ëë¡", "shade": 0.9, "heat_score": -3.84, "heat_grade_norm": 0.556 }, "geometry": { "type": "Point", "coordinates": [ 127.0935991, 37.3350353 ] } },
{ "type": "Feature", "properties": { "osmid": 878203531, "y": 37.3341014, "x": 127.093581, "junction": null, "street_count": 4, "highway": null, "ref": null, "felt_temp": 36.485694885253906, "heat_grade": 1.0, "index_right": 4223.0, "uid": "ì©ì¸_12793", "sgg_cd": "41460", "sgg_nm": "ì©ì¸ì", "lclsf_cd": "I", "lclsf_nm": "ìê°íê±´ì¡°ì§", "mclsf_cd": "ID", "mclsf_nm": "êµíµìì¤ì§", "sclsf_cd": "ID2", "sclsf_nm": "ì¼ë°ëë¡", "dclsf_cd": "ID2_1", "dclsf_nm": "ê°ë¡ì ìë ì¼ë°ëë¡", "ldc_lc_cd": "A", "ldc_lc_nm": "ìê°íê±´ì¡°ì§ì­", "ldc_mc_cd": "A5", "ldc_mc_nm": "êµíµì§ì­", "ldc_sc_cd": "A54", "ldc_sc_nm": "ëë¡", "shade": 0.9, "heat_score": -5.11, "heat_grade_norm": 0.0 }, "geometry": { "type": "Point", "coordinates": [ 127.093581, 37.3341014 ] } },
{ "type": "Feature", "properties": { "osmid": 3663124802, "y": 37.3341056, "x": 127.0943129, "junction": null, "street_count": 3, "highway": null, "ref": null, "felt_temp": 36.359844207763672, "heat_grade": 1.0, "index_right": 4223.0, "uid": "ì©ì¸_12793", "sgg_cd": "41460", "sgg_nm": "ì©ì¸ì", "lclsf_cd": "I", "lclsf_nm": "ìê°íê±´ì¡°ì§", "mclsf_cd": "ID", "mclsf_nm": "êµíµìì¤ì§", "sclsf_cd": "ID2", "sclsf_nm": "ì¼ë°ëë¡", "dclsf_cd": "ID2_1", "dclsf_nm": "ê°ë¡ì ìë ì¼ë°ëë¡", "ldc_lc_cd": "A", "ldc_lc_nm": "ìê°íê±´ì¡°ì§ì­", "ldc_mc_cd": "A5", "ldc_mc_nm": "êµíµì§ì­", "ldc_sc_cd": "A54", "ldc_sc_nm": "ëë¡", "shade": 0.9, "heat_score": -5.18, "heat_grade_norm": 0.0 }, "geometry": { "type": "Point", "coordinates": [ 127.09431290000002, 37.3341056 ] } },
{ "type": "Feature", "properties": { "osmid": 3663097719, "y": 37.33411, "x": 127.0949865, "junction": null, "street_count": 3, "highway": null, "ref": null, "felt_temp": 36.902976989746094, "heat_grade": 8.0, "index_right": 4223.0, "uid": "ì©ì¸_12793", "sgg_cd": "41460", "sgg_nm": "ì©ì¸ì", "lclsf_cd": "I", "lclsf_nm": "ìê°íê±´ì¡°ì§", "mclsf_cd": "ID", "mclsf_nm": "êµíµìì¤ì§", "sclsf_cd": "ID2", "sclsf_nm": "ì¼ë°ëë¡", "dclsf_cd": "ID2_1", "dclsf_nm": "ê°ë¡ì ìë ì¼ë°ëë¡", "ldc_lc_cd": "A", "ldc_lc_nm": "ìê°íê±´ì¡°ì§ì­", "ldc_mc_cd": "A5", "ldc_mc_nm": "êµíµì§ì­", "ldc_sc_cd": "A54", "ldc_sc_nm": "ëë¡", "shade": 0.9, "heat_score": -3.3, "heat_grade_norm": 0.778 }, "geometry": { "type": "Point", "coordinates": [ 127.094986500000019, 37.33411 ] } },
{ "type": "Feature", "properties": { "osmid": 3663097718, "y": 37.33411, "x": 127.0953566, "junction": null, "street_count": 3, "highway": null, "ref": null, "felt_temp": 36.723087310791016, "heat_grade": 5.0, "index_right": 4223.0, "uid": "ì©ì¸_12793", "sgg_cd": "41460", "sgg_nm": "ì©ì¸ì", "lclsf_cd": "I", "lclsf_nm": "ìê°íê±´ì¡°ì§", "mclsf_cd": "ID", "mclsf_nm": "êµíµìì¤ì§", "sclsf_cd": "ID2", "sclsf_nm": "ì¼ë°ëë¡", "dclsf_cd": "ID2_1", "dclsf_nm": "ê°ë¡ì ìë ì¼ë°ëë¡", "ldc_lc_cd": "A", "ldc_lc_nm": "ìê°íê±´ì¡°ì§ì­", "ldc_mc_cd": "A5", "ldc_mc_nm": "êµíµì§ì­", "ldc_sc_cd": "A54", "ldc_sc_nm": "ëë¡", "shade": 0.9, "heat_score": -4.08, "heat_grade_norm": 0.444 }, "geometry": { "type": "Point", "coordinates": [ 127.0953566, 37.33411 ] } },
{ "type": "Feature", "properties": { "osmid": 3663115226, "y": 37.3338562, "x": 127.095366, "junction": null, "street_count": 3, "highway": null, "ref": null, "felt_temp": 36.664066314697266, "heat_grade": 3.0, "index_right": 9034.0, "uid": "ì©ì¸_119272", "sgg_cd": "41460", "sgg_nm": "ì©ì¸ì", "lclsf_cd": "I", "lclsf_nm": "ìê°íê±´ì¡°ì§", "mclsf_cd": "ID", "mclsf_nm": "êµíµìì¤ì§", "sclsf_cd": "ID3", "sclsf_nm": "ìëë¡", "dclsf_cd": null, "dclsf_nm": null, "ldc_lc_cd": "A", "ldc_lc_nm": "ìê°íê±´ì¡°ì§ì­", "ldc_mc_cd": "A5", "ldc_mc_nm": "êµíµì§ì­", "ldc_sc_cd": "A54", "ldc_sc_nm": "ëë¡", "shade": 0.3, "heat_score": 13.44, "heat_grade_norm": 0.222 }, "geometry": { "type": "Point", "coordinates": [ 127.095366, 37.3338562 ] } },
{ "type": "Feature", "properties": { "osmid": 3663115227, "y": 37.3338519, "x": 127.0967306, "junction": null, "street_count": 4, "highway": null, "ref": null, "felt_temp": 36.509910583496094, "heat_grade": 2.0, "index_right": 4223.0, "uid": "ì©ì¸_12793", "sgg_cd": "41460", "sgg_nm": "ì©ì¸ì", "lclsf_cd": "I", "lclsf_nm": "ìê°íê±´ì¡°ì§", "mclsf_cd": "ID", "mclsf_nm": "êµíµìì¤ì§", "sclsf_cd": "ID2", "sclsf_nm": "ì¼ë°ëë¡", "dclsf_cd": "ID2_1", "dclsf_nm": "ê°ë¡ì ìë ì¼ë°ëë¡", "ldc_lc_cd": "A", "ldc_lc_nm": "ìê°íê±´ì¡°ì§ì­", "ldc_mc_cd": "A5", "ldc_mc_nm": "êµíµì§ì­", "ldc_sc_cd": "A54", "ldc_sc_nm": "ëë¡", "shade": 0.9, "heat_score": -4.87, "heat_grade_norm": 0.111 }, "geometry": { "type": "Point", "coordinates": [ 127.096730599999987, 37.3338519 ] } },
{ "type": "Feature", "properties": { "osmid": 3663115229, "y": 37.3346654, "x": 127.0972381, "junction": null, "street_count": 3, "highway": null, "ref": null, "felt_temp": 36.604148864746094, "heat_grade": 3.0, "index_right": 4223.0, "uid": "ì©ì¸_12793", "sgg_cd": "41460", "sgg_nm": "ì©ì¸ì", "lclsf_cd": "I", "lclsf_nm": "ìê°íê±´ì¡°ì§", "mclsf_cd": "ID", "mclsf_nm": "êµíµìì¤ì§", "sclsf_cd": "ID2", "sclsf_nm": "ì¼ë°ëë¡", "dclsf_cd": "ID2_1", "dclsf_nm": "ê°ë¡ì ìë ì¼ë°ëë¡", "ldc_lc_cd": "A", "ldc_lc_nm": "ìê°íê±´ì¡°ì§ì­", "ldc_mc_cd": "A5", "ldc_mc_nm": "êµíµì§ì­", "ldc_sc_cd": "A54", "ldc_sc_nm": "ëë¡", "shade": 0.9, "heat_score": -4.59, "heat_grade_norm": 0.222 }, "geometry": { "type": "Point", "coordinates": [ 127.0972381, 37.3346654 ] } },
{ "type": "Feature", "properties": { "osmid": 3663106223, "y": 37.3346691, "x": 127.0977617, "junction": null, "street_count": 3, "highway": null, "ref": null, "felt_temp": 37.005725860595703, "heat_grade": 8.0, "index_right": 4223.0, "uid": "ì©ì¸_12793", "sgg_cd": "41460", "sgg_nm": "ì©ì¸ì", "lclsf_cd": "I", "lclsf_nm": "ìê°íê±´ì¡°ì§", "mclsf_cd": "ID", "mclsf_nm": "êµíµìì¤ì§", "sclsf_cd": "ID2", "sclsf_nm": "ì¼ë°ëë¡", "dclsf_cd": "ID2_1", "dclsf_nm": "ê°ë¡ì ìë ì¼ë°ëë¡", "ldc_lc_cd": "A", "ldc_lc_nm": "ìê°íê±´ì¡°ì§ì­", "ldc_mc_cd": "A5", "ldc_mc_nm": "êµíµì§ì­", "ldc_sc_cd": "A54", "ldc_sc_nm": "ëë¡", "shade": 0.9, "heat_score": -3.24, "heat_grade_norm": 0.778 }, "geometry": { "type": "Point", "coordinates": [ 127.097761700000021, 37.3346691 ] } },
{ "type": "Feature", "properties": { "osmid": 3908284730, "y": 37.3361278, "x": 127.0977617, "junction": "yes", "street_count": 4, "highway": null, "ref": null, "felt_temp": 36.734039306640625, "heat_grade": 6.0, "index_right": 4223.0, "uid": "ì©ì¸_12793", "sgg_cd": "41460", "sgg_nm": "ì©ì¸ì", "lclsf_cd": "I", "lclsf_nm": "ìê°íê±´ì¡°ì§", "mclsf_cd": "ID", "mclsf_nm": "êµíµìì¤ì§", "sclsf_cd": "ID2", "sclsf_nm": "ì¼ë°ëë¡", "dclsf_cd": "ID2_1", "dclsf_nm": "ê°ë¡ì ìë ì¼ë°ëë¡", "ldc_lc_cd": "A", "ldc_lc_nm": "ìê°íê±´ì¡°ì§ì­", "ldc_mc_cd": "A5", "ldc_mc_nm": "êµíµì§ì­", "ldc_sc_cd": "A54", "ldc_sc_nm": "ëë¡", "shade": 0.9, "heat_score": -3.85, "heat_grade_norm": 0.556 }, "geometry": { "type": "Point", "coordinates": [ 127.097761700000021, 37.3361278 ] } },
{ "type": "Feature", "properties": { "osmid": 3636126875, "y": 37.3361263, "x": 127.0958418, "junction": null, "street_count": 3, "highway": null, "ref": null, "felt_temp": 35.988876342773438, "heat_grade": 1.0, "index_right": 4223.0, "uid": "ì©ì¸_12793", "sgg_cd": "41460", "sgg_nm": "ì©ì¸ì", "lclsf_cd": "I", "lclsf_nm": "ìê°íê±´ì¡°ì§", "mclsf_cd": "ID", "mclsf_nm": "êµíµìì¤ì§", "sclsf_cd": "ID2", "sclsf_nm": "ì¼ë°ëë¡", "dclsf_cd": "ID2_1", "dclsf_nm": "ê°ë¡ì ìë ì¼ë°ëë¡", "ldc_lc_cd": "A", "ldc_lc_nm": "ìê°íê±´ì¡°ì§ì­", "ldc_mc_cd": "A5", "ldc_mc_nm": "êµíµì§ì­", "ldc_sc_cd": "A54", "ldc_sc_nm": "ëë¡", "shade": 0.9, "heat_score": -5.41, "heat_grade_norm": 0.0 }, "geometry": { "type": "Point", "coordinates": [ 127.0958418, 37.3361263 ] } },
{ "type": "Feature", "properties": { "osmid": 878203466, "y": 37.3361211, "x": 127.0936201, "junction": null, "street_count": 3, "highway": null, "ref": null, "felt_temp": 36.312393188476562, "heat_grade": 1.0, "index_right": 4223.0, "uid": "ì©ì¸_12793", "sgg_cd": "41460", "sgg_nm": "ì©ì¸ì", "lclsf_cd": "I", "lclsf_nm": "ìê°íê±´ì¡°ì§", "mclsf_cd": "ID", "mclsf_nm": "êµíµìì¤ì§", "sclsf_cd": "ID2", "sclsf_nm": "ì¼ë°ëë¡", "dclsf_cd": "ID2_1", "dclsf_nm": "ê°ë¡ì ìë ì¼ë°ëë¡", "ldc_lc_cd": "A", "ldc_lc_nm": "ìê°íê±´ì¡°ì§ì­", "ldc_mc_cd": "A5", "ldc_mc_nm": "êµíµì§ì­", "ldc_sc_cd": "A54", "ldc_sc_nm": "ëë¡", "shade": 0.9, "heat_score": -5.21, "heat_grade_norm": 0.0 }, "geometry": { "type": "Point", "coordinates": [ 127.0936201, 37.3361211 ] } }
]
}
