{
"type": "FeatureCollection",
"name": "cool_cycle_3km_route2_edges",
"crs": { "type": "name", "properties": { "name": "urn:ogc:def:crs:OGC:1.3:CRS84" } },
"features": [
{ "type": "Feature", "properties": { "u": 12696461660, "v": 13539755744, "length": 753.71626990767516, "heat_score": -3.585 }, "geometry": { "type": "LineString", "coordinates": [ [ 127.0726451, 37.3150298 ], [ 127.0722472, 37.3151561 ], [ 127.07187660000001, 37.3152761 ], [ 127.0711688, 37.3154842 ], [ 127.070304400000012, 37.3157515 ], [ 127.0692534, 37.3160919 ], [ 127.0684883, 37.3163413 ], [ 127.0682696, 37.3164087 ], [ 127.0681099, 37.3164639 ], [ 127.067963600000013, 37.3164906 ], [ 127.0678192, 37.3165078 ], [ 127.0676854, 37.3165125 ], [ 127.0675436, 37.316512400000015 ], [ 127.0673871, 37.3165002 ], [ 127.067229199999986, 37.3164702 ], [ 127.0669644, 37.3164079 ], [ 127.066746400000014, 37.3163364 ], [ 127.0663263, 37.3161882 ], [ 127.0657205, 37.3159664 ], [ 127.0655119, 37.3158903 ], [ 127.0653225, 37.315818 ], [ 127.065152400000017, 37.3157575 ], [ 127.0651007, 37.3157412 ], [ 127.064932400000018, 37.3157127 ], [ 127.0647623, 37.3157084 ], [ 127.0646746, 37.3157164 ] ] } },
{ "type": "Feature", "properties": { "u": 13539755744, "v": 3485490159, "length": 241.65362641163878, "heat_score": -3.27 }, "geometry": { "type": "LineString", "coordinates": [ [ 127.0646746, 37.3157164 ], [ 127.064568900000012, 37.3157261 ], [ 127.0644274, 37.3157594 ], [ 127.064335400000019, 37.3157859 ], [ 127.0642322, 37.3158298 ], [ 127.064033600000016, 37.3159223 ], [ 127.063783699999988, 37.3160382 ], [ 127.063598099999979, 37.3161348 ], [ 127.06354970000001, 37.3161643 ], [ 127.0632714, 37.3163393 ], [ 127.0631256, 37.31644210000001 ], [ 127.0628874, 37.3166214 ], [ 127.062750100000017, 37.3167386 ], [ 127.062598600000015, 37.3168674 ], [ 127.0624599, 37.316932 ] ] } },
{ "type": "Feature", "properties": { "u": 3485490159, "v": 3485484232, "length": 309.80487640999002, "heat_score": -3.145 }, "geometry": { "type": "LineString", "coordinates": [ [ 127.0624599, 37.316932 ], [ 127.0623755, 37.3170412 ], [ 127.062347, 37.317078 ], [ 127.0622756, 37.3171719 ], [ 127.0622332, 37.317228 ], [ 127.062195100000011, 37.3172856 ], [ 127.062141600000018, 37.31737960000001 ], [ 127.0621161, 37.3174369 ], [ 127.0620876, 37.317494100000012 ], [ 127.0620709, 37.3175438 ], [ 127.062045, 37.3176223 ], [ 127.062032800000011, 37.3176683 ], [ 127.062013599999986, 37.3177848 ], [ 127.061938200000014, 37.3183605 ], [ 127.06184, 37.3191589 ], [ 127.061815200000012, 37.3194006 ], [ 127.0618117, 37.3194168 ], [ 127.061791299999982, 37.31951080000001 ], [ 127.0617821, 37.319552 ], [ 127.061766300000016, 37.3196256 ] ] } },
{ "type": "Feature", "properties": { "u": 3485484232, "v": 3485490152, "length": 398.86965678671646, "heat_score": -3.715 }, "geometry": { "type": "LineString", "coordinates": [ [ 127.0657709, 37.3191974 ], [ 127.065628, 37.3192822 ], [ 127.0652498, 37.3195066 ], [ 127.0647977, 37.3198 ], [ 127.0645861, 37.3199254 ], [ 127.064283, 37.3200637 ], [ 127.0641646, 37.3201055 ], [ 127.064019500000015, 37.3201406 ], [ 127.0638162, 37.3201652 ], [ 127.063636100000011, 37.3201679 ], [ 127.063492399999987, 37.3201475 ], [ 127.063369, 37.3201245 ], [ 127.063336099999987, 37.3201183 ], [ 127.0631947, 37.3200741 ], [ 127.062991, 37.32 ], [ 127.0627701, 37.3199108 ], [ 127.0625475, 37.3198388 ], [ 127.0625315, 37.3198336 ], [ 127.061986200000021, 37.319691 ], [ 127.061766300000016, 37.3196256 ] ] } },
{ "type": "Feature", "properties": { "u": 3485490152, "v": 3485490159, "length": 410.6921609645205, "heat_score": -3.52 }, "geometry": { "type": "LineString", "coordinates": [ [ 127.0624599, 37.316932 ], [ 127.0625982, 37.3170256 ], [ 127.0627132, 37.3171002 ], [ 127.0628987, 37.3172324 ], [ 127.0630009, 37.3173028 ], [ 127.063141300000012, 37.3173916 ], [ 127.063205, 37.3174302 ], [ 127.063243900000018, 37.3174518 ], [ 127.063284199999984, 37.317469 ], [ 127.0633714, 37.317500699999989 ], [ 127.064076200000017, 37.3177719 ], [ 127.0642135, 37.3178253 ], [ 127.064367, 37.31787 ], [ 127.064809, 37.3180187 ], [ 127.06530570000001, 37.3182063 ], [ 127.0653593, 37.318249 ], [ 127.065423, 37.3183024 ], [ 127.065488, 37.3183855 ], [ 127.0656275, 37.3187097 ], [ 127.0656409, 37.3187588 ], [ 127.0656482, 37.3187821 ], [ 127.0657429, 37.319083 ], [ 127.0657474, 37.3191014 ], [ 127.0657709, 37.3191974 ] ] } },
{ "type": "Feature", "properties": { "u": 3485490159, "v": 13539755714, "length": 223.53849442136277, "heat_score": -3.635 }, "geometry": { "type": "LineString", "coordinates": [ [ 127.0624599, 37.316932 ], [ 127.062522900000019, 37.316822 ], [ 127.0626789, 37.3166883 ], [ 127.0628234, 37.3165604 ], [ 127.0628338, 37.3165542 ], [ 127.0630526, 37.3163754 ], [ 127.0632091, 37.316264800000013 ], [ 127.0634955, 37.3161033 ], [ 127.063575599999979, 37.3160625 ], [ 127.0637598, 37.3159601 ], [ 127.0639668, 37.3158549 ], [ 127.064185100000017, 37.3157646 ], [ 127.064294600000011, 37.3157214 ], [ 127.064394599999986, 37.3156864 ] ] } },
{ "type": "Feature", "properties": { "u": 13539755714, "v": 3485504978, "length": 207.30999777136779, "heat_score": -3.805 }, "geometry": { "type": "LineString", "coordinates": [ [ 127.064394599999986, 37.3156864 ], [ 127.0644745, 37.3156396 ], [ 127.064544200000014, 37.3156155 ], [ 127.064657700000012, 37.3156013 ], [ 127.064756100000011, 37.315591899999987 ], [ 127.0648916, 37.3155832 ], [ 127.0649953, 37.3155912 ], [ 127.065108800000019, 37.3156156 ], [ 127.0658651, 37.3158894 ], [ 127.066558900000018, 37.3161482 ] ] } },
{ "type": "Feature", "properties": { "u": 3485504978, "v": 3485504965, "length": 24.004057253630155, "heat_score": -3.805 }, "geometry": { "type": "LineString", "coordinates": [ [ 127.066558900000018, 37.3161482 ], [ 127.066561600000014, 37.3161718 ], [ 127.0665621, 37.3161948 ], [ 127.066558900000018, 37.3162198 ], [ 127.0665526, 37.3162428 ], [ 127.0665432, 37.3162612 ], [ 127.0665218, 37.316279 ], [ 127.0665017, 37.3162896 ], [ 127.066479, 37.3162967 ], [ 127.066432600000013, 37.316303 ] ] } },
{ "type": "Feature", "properties": { "u": 3485504965, "v": 3485506493, "length": 53.07032234002574, "heat_score": -3.645 }, "geometry": { "type": "LineString", "coordinates": [ [ 127.0669782, 37.3165016 ], [ 127.0667266, 37.3164144 ], [ 127.066432600000013, 37.316303 ] ] } },
{ "type": "Feature", "properties": { "u": 3485506493, "v": 3485506503, "length": 221.77787361368684, "heat_score": -2.99 }, "geometry": { "type": "LineString", "coordinates": [ [ 127.0693893, 37.3161073 ], [ 127.0690474, 37.316209 ], [ 127.0686908, 37.3163169 ], [ 127.068435900000011, 37.316391 ], [ 127.0681573, 37.3164771 ], [ 127.068066299999984, 37.3164998 ], [ 127.0679061, 37.3165204 ], [ 127.0676409, 37.3165413 ], [ 127.067329900000018, 37.3165418 ], [ 127.0670806, 37.3165204 ], [ 127.0669782, 37.3165016 ] ] } },
{ "type": "Feature", "properties": { "u": 3485506503, "v": 3485504985, "length": 24.420173519993668, "heat_score": -3.305 }, "geometry": { "type": "LineString", "coordinates": [ [ 127.069292100000013, 37.3159718 ], [ 127.0693836, 37.3159948 ], [ 127.069413, 37.3160102 ], [ 127.0694351, 37.3160382 ], [ 127.06943050000001, 37.3160723 ], [ 127.0693893, 37.3161073 ] ] } },
{ "type": "Feature", "properties": { "u": 3485504985, "v": 3485506499, "length": 83.640970225206019, "heat_score": -3.475 }, "geometry": { "type": "LineString", "coordinates": [ [ 127.069292100000013, 37.3159718 ], [ 127.0695017, 37.315904 ], [ 127.0695624, 37.3158834 ], [ 127.0697315, 37.3158058 ], [ 127.0699209, 37.3157339 ], [ 127.0701519, 37.3156612 ] ] } },
{ "type": "Feature", "properties": { "u": 3485506499, "v": 3485504972, "length": 25.469777324376054, "heat_score": -4.095 }, "geometry": { "type": "LineString", "coordinates": [ [ 127.0702076, 37.3158673 ], [ 127.07017, 37.3158412 ], [ 127.0701444, 37.3158108 ], [ 127.070132200000018, 37.3157829 ], [ 127.07013139999998, 37.315750199999989 ], [ 127.070137099999982, 37.3157175 ], [ 127.0701519, 37.3156612 ] ] } },
{ "type": "Feature", "properties": { "u": 3485504972, "v": 12696461660, "length": 235.44187758188019, "heat_score": -4.21 }, "geometry": { "type": "LineString", "coordinates": [ [ 127.0726451, 37.3150298 ], [ 127.072320500000018, 37.3151829 ], [ 127.0719423, 37.3153387 ], [ 127.0714528, 37.315512 ], [ 127.0710243, 37.3156245 ], [ 127.0708116, 37.3156837 ], [ 127.0702076, 37.3158673 ] ] } }
]
}
