{
"type": "FeatureCollection",
"name": "cool_cycle_3km_route1_nodes",
"crs": { "type": "name", "properties": { "name": "urn:ogc:def:crs:OGC:1.3:CRS84" } },
"features": [
{ "type": "Feature", "properties": { "osmid": 2381060686, "y": 37.3288335, "x": 127.1150287, "junction": null, "street_count": 3, "highway": null, "ref": null, "felt_temp": 36.271587371826172, "heat_grade": 1.0, "index_right": 7152.0, "uid": "ì©ì¸_119228", "sgg_cd": "41460", "sgg_nm": "ì©ì¸ì", "lclsf_cd": "I", "lclsf_nm": "ìê°íê±´ì¡°ì§", "mclsf_cd": "ID", "mclsf_nm": "êµíµìì¤ì§", "sclsf_cd": "ID2", "sclsf_nm": "ì¼ë°ëë¡", "dclsf_cd": "ID2_1", "dclsf_nm": "ê°ë¡ì ìë ì¼ë°ëë¡", "ldc_lc_cd": "A", "ldc_lc_nm": "ìê°íê±´ì¡°ì§ì­", "ldc_mc_cd": "A5", "ldc_mc_nm": "êµíµì§ì­", "ldc_sc_cd": "A54", "ldc_sc_nm": "ëë¡", "shade": 0.9, "heat_score": -5.24, "heat_grade_norm": 0.0 }, "geometry": { "type": "Point", "coordinates": [ 127.1150287, 37.3288335 ] } },
{ "type": "Feature", "properties": { "osmid": 2405708039, "y": 37.3286443, "x": 127.1147246, "junction": "yes", "street_count": 4, "highway": null, "ref": null, "felt_temp": 36.291110992431641, "heat_grade": 1.0, "index_right": 7152.0, "uid": "ì©ì¸_119228", "sgg_cd": "41460", "sgg_nm": "ì©ì¸ì", "lclsf_cd": "I", "lclsf_nm": "ìê°íê±´ì¡°ì§", "mclsf_cd": "ID", "mclsf_nm": "êµíµìì¤ì§", "sclsf_cd": "ID2", "sclsf_nm": "ì¼ë°ëë¡", "dclsf_cd": "ID2_1", "dclsf_nm": "ê°ë¡ì ìë ì¼ë°ëë¡", "ldc_lc_cd": "A", "ldc_lc_nm": "ìê°íê±´ì¡°ì§ì­", "ldc_mc_cd": "A5", "ldc_mc_nm": "êµíµì§ì­", "ldc_sc_cd": "A54", "ldc_sc_nm": "ëë¡", "shade": 0.9, "heat_score": -5.23, "heat_grade_norm": 0.0 }, "geometry": { "type": "Point", "coordinates": [ 127.1147246, 37.3286443 ] } },
{ "type": "Feature", "properties": { "osmid": 2405708044, "y": 37.3288571, "x": 127.1141035, "junction": null, "street_count": 3, "highway": null, "ref": null, "felt_temp": 36.953701019287109, "heat_grade": 8.0, "index_right": 7162.0, "uid": "ì©ì¸_119299", "sgg_cd": "41460", "sgg_nm": "ì©ì¸ì", "lclsf_cd": "I", "lclsf_nm": "ìê°íê±´ì¡°ì§", "mclsf_cd": "ID", "mclsf_nm": "êµíµìì¤ì§", "sclsf_cd": "ID3", "sclsf_nm": "ìëë¡", "dclsf_cd": null, "dclsf_nm": null, "ldc_lc_cd": "A", "ldc_lc_nm": "ìê°íê±´ì¡°ì§ì­", "ldc_mc_cd": "A5", "ldc_mc_nm": "êµíµì§ì­", "ldc_sc_cd": "A54", "ldc_sc_nm": "ëë¡", "shade": 0.3, "heat_score": 14.73, "heat_grade_norm": 0.778 }, "geometry": { "type": "Point", "coordinates": [ 127.114103500000013, 37.3288571 ] } },
{ "type": "Feature", "properties": { "osmid": 2405708042, "y": 37.3287535, "x": 127.1140156, "junction": null, "street_count": 3, "highway": null, "ref": null, "felt_temp": 36.235767364501953, "heat_grade": 1.0, "index_right": 7162.0, "uid": "ì©ì¸_119299", "sgg_cd": "41460", "sgg_nm": "ì©ì¸ì", "lclsf_cd": "I", "lclsf_nm": "ìê°íê±´ì¡°ì§", "mclsf_cd": "ID", "mclsf_nm": "êµíµìì¤ì§", "sclsf_cd": "ID3", "sclsf_nm": "ìëë¡", "dclsf_cd": null, "dclsf_nm": null, "ldc_lc_cd": "A", "ldc_lc_nm": "ìê°íê±´ì¡°ì§ì­", "ldc_mc_cd": "A5", "ldc_mc_nm": "êµíµì§ì­", "ldc_sc_cd": "A54", "ldc_sc_nm": "ëë¡", "shade": 0.3, "heat_score": 12.74, "heat_grade_norm": 0.0 }, "geometry": { "type": "Point", "coordinates": [ 127.114015599999988, 37.3287535 ] } },
{ "type": "Feature", "properties": { "osmid": 2405708031, "y": 37.3284208, "x": 127.1136213, "junction": null, "street_count": 3, "highway": null, "ref": null, "felt_temp": 36.000068664550781, "heat_grade": 1.0, "index_right": 7162.0, "uid": "ì©ì¸_119299", "sgg_cd": "41460", "sgg_nm": "ì©ì¸ì", "lclsf_cd": "I", "lclsf_nm": "ìê°íê±´ì¡°ì§", "mclsf_cd": "ID", "mclsf_nm": "êµíµìì¤ì§", "sclsf_cd": "ID3", "sclsf_nm": "ìëë¡", "dclsf_cd": null, "dclsf_nm": null, "ldc_lc_cd": "A", "ldc_lc_nm": "ìê°íê±´ì¡°ì§ì­", "ldc_mc_cd": "A5", "ldc_mc_nm": "êµíµì§ì­", "ldc_sc_cd": "A54", "ldc_sc_nm": "ëë¡", "shade": 0.3, "heat_score": 12.6, "heat_grade_norm": 0.0 }, "geometry": { "type": "Point", "coordinates": [ 127.11362130000002, 37.328420800000011 ] } },
{ "type": "Feature", "properties": { "osmid": 2405708015, "y": 37.3280911, "x": 127.1137346, "junction": null, "street_count": 3, "highway": null, "ref": null, "felt_temp": 36.176925659179688, "heat_grade": 1.0, "index_right": 7152.0, "uid": "ì©ì¸_119228", "sgg_cd": "41460", "sgg_nm": "ì©ì¸ì", "lclsf_cd": "I", "lclsf_nm": "ìê°íê±´ì¡°ì§", "mclsf_cd": "ID", "mclsf_nm": "êµíµìì¤ì§", "sclsf_cd": "ID2", "sclsf_nm": "ì¼ë°ëë¡", "dclsf_cd": "ID2_1", "dclsf_nm": "ê°ë¡ì ìë ì¼ë°ëë¡", "ldc_lc_cd": "A", "ldc_lc_nm": "ìê°íê±´ì¡°ì§ì­", "ldc_mc_cd": "A5", "ldc_mc_nm": "êµíµì§ì­", "ldc_sc_cd": "A54", "ldc_sc_nm": "ëë¡", "shade": 0.9, "heat_score": -5.29, "heat_grade_norm": 0.0 }, "geometry": { "type": "Point", "coordinates": [ 127.1137346, 37.3280911 ] } },
{ "type": "Feature", "properties": { "osmid": 2405708005, "y": 37.3275184, "x": 127.1127745, "junction": null, "street_count": 3, "highway": null, "ref": null, "felt_temp": 36.907630920410156, "heat_grade": 8.0, "index_right": 7152.0, "uid": "ì©ì¸_119228", "sgg_cd": "41460", "sgg_nm": "ì©ì¸ì", "lclsf_cd": "I", "lclsf_nm": "ìê°íê±´ì¡°ì§", "mclsf_cd": "ID", "mclsf_nm": "êµíµìì¤ì§", "sclsf_cd": "ID2", "sclsf_nm": "ì¼ë°ëë¡", "dclsf_cd": "ID2_1", "dclsf_nm": "ê°ë¡ì ìë ì¼ë°ëë¡", "ldc_lc_cd": "A", "ldc_lc_nm": "ìê°íê±´ì¡°ì§ì­", "ldc_mc_cd": "A5", "ldc_mc_nm": "êµíµì§ì­", "ldc_sc_cd": "A54", "ldc_sc_nm": "ëë¡", "shade": 0.9, "heat_score": -3.3, "heat_grade_norm": 0.778 }, "geometry": { "type": "Point", "coordinates": [ 127.1127745, 37.3275184 ] } },
{ "type": "Feature", "properties": { "osmid": 8858871407, "y": 37.3269716, "x": 127.1116797, "junction": "yes", "street_count": 4, "highway": null, "ref": null, "felt_temp": 36.908882141113281, "heat_grade": 8.0, "index_right": 9507.0, "uid": "ì©ì¸_130739", "sgg_cd": "41460", "sgg_nm": "ì©ì¸ì", "lclsf_cd": "I", "lclsf_nm": "ìê°íê±´ì¡°ì§", "mclsf_cd": "ID", "mclsf_nm": "êµíµìì¤ì§", "sclsf_cd": "ID2", "sclsf_nm": "ì¼ë°ëë¡", "dclsf_cd": "ID2_2", "dclsf_nm": "ê°ë¡ì ìë ì¼ë°ëë¡", "ldc_lc_cd": "A", "ldc_lc_nm": "ìê°íê±´ì¡°ì§ì­", "ldc_mc_cd": "A5", "ldc_mc_nm": "êµíµì§ì­", "ldc_sc_cd": "A54", "ldc_sc_nm": "ëë¡", "shade": 0.1, "heat_score": 20.7, "heat_grade_norm": 0.778 }, "geometry": { "type": "Point", "coordinates": [ 127.1116797, 37.3269716 ] } },
{ "type": "Feature", "properties": { "osmid": 11092026872, "y": 37.3266667, "x": 127.1106769, "junction": null, "street_count": 3, "highway": null, "ref": null, "felt_temp": 37.114002227783203, "heat_grade": 9.0, "index_right": 8881.0, "uid": "ì©ì¸_121408", "sgg_cd": "41460", "sgg_nm": "ì©ì¸ì", "lclsf_cd": "I", "lclsf_nm": "ìê°íê±´ì¡°ì§", "mclsf_cd": "ID", "mclsf_nm": "êµíµìì¤ì§", "sclsf_cd": "ID2", "sclsf_nm": "ì¼ë°ëë¡", "dclsf_cd": "ID2_1", "dclsf_nm": "ê°ë¡ì ìë ì¼ë°ëë¡", "ldc_lc_cd": "A", "ldc_lc_nm": "ìê°íê±´ì¡°ì§ì­", "ldc_mc_cd": "A5", "ldc_mc_nm": "êµíµì§ì­", "ldc_sc_cd": "A54", "ldc_sc_nm": "ëë¡", "shade": 0.9, "heat_score": -2.95, "heat_grade_norm": 0.889 }, "geometry": { "type": "Point", "coordinates": [ 127.110676900000016, 37.3266667 ] } },
{ "type": "Feature", "properties": { "osmid": 4081276119, "y": 37.3261677, "x": 127.1107231, "junction": null, "street_count": 3, "highway": null, "ref": null, "felt_temp": 37.215900421142578, "heat_grade": 10.0, "index_right": 9507.0, "uid": "ì©ì¸_130739", "sgg_cd": "41460", "sgg_nm": "ì©ì¸ì", "lclsf_cd": "I", "lclsf_nm": "ìê°íê±´ì¡°ì§", "mclsf_cd": "ID", "mclsf_nm": "êµíµìì¤ì§", "sclsf_cd": "ID2", "sclsf_nm": "ì¼ë°ëë¡", "dclsf_cd": "ID2_2", "dclsf_nm": "ê°ë¡ì ìë ì¼ë°ëë¡", "ldc_lc_cd": "A", "ldc_lc_nm": "ìê°íê±´ì¡°ì§ì­", "ldc_mc_cd": "A5", "ldc_mc_nm": "êµíµì§ì­", "ldc_sc_cd": "A54", "ldc_sc_nm": "ëë¡", "shade": 0.1, "heat_score": 21.33, "heat_grade_norm": 1.0 }, "geometry": { "type": "Point", "coordinates": [ 127.110723100000016, 37.326167699999985 ] } },
{ "type": "Feature", "properties": { "osmid": 3406879349, "y": 37.3265403, "x": 127.1102611, "junction": null, "street_count": 4, "highway": "traffic_signals", "ref": null, "felt_temp": 37.155445098876953, "heat_grade": 10.0, "index_right": 8881.0, "uid": "ì©ì¸_121408", "sgg_cd": "41460", "sgg_nm": "ì©ì¸ì", "lclsf_cd": "I", "lclsf_nm": "ìê°íê±´ì¡°ì§", "mclsf_cd": "ID", "mclsf_nm": "êµíµìì¤ì§", "sclsf_cd": "ID2", "sclsf_nm": "ì¼ë°ëë¡", "dclsf_cd": "ID2_1", "dclsf_nm": "ê°ë¡ì ìë ì¼ë°ëë¡", "ldc_lc_cd": "A", "ldc_lc_nm": "ìê°íê±´ì¡°ì§ì­", "ldc_mc_cd": "A5", "ldc_mc_nm": "êµíµì§ì­", "ldc_sc_cd": "A54", "ldc_sc_nm": "ëë¡", "shade": 0.9, "heat_score": -2.71, "heat_grade_norm": 1.0 }, "geometry": { "type": "Point", "coordinates": [ 127.110261099999988, 37.3265403 ] } },
{ "type": "Feature", "properties": { "osmid": 4081276138, "y": 37.3262163, "x": 127.1094381, "junction": null, "street_count": 5, "highway": null, "ref": null, "felt_temp": 37.188747406005859, "heat_grade": 10.0, "index_right": 8881.0, "uid": "ì©ì¸_121408", "sgg_cd": "41460", "sgg_nm": "ì©ì¸ì", "lclsf_cd": "I", "lclsf_nm": "ìê°íê±´ì¡°ì§", "mclsf_cd": "ID", "mclsf_nm": "êµíµìì¤ì§", "sclsf_cd": "ID2", "sclsf_nm": "ì¼ë°ëë¡", "dclsf_cd": "ID2_1", "dclsf_nm": "ê°ë¡ì ìë ì¼ë°ëë¡", "ldc_lc_cd": "A", "ldc_lc_nm": "ìê°íê±´ì¡°ì§ì­", "ldc_mc_cd": "A5", "ldc_mc_nm": "êµíµì§ì­", "ldc_sc_cd": "A54", "ldc_sc_nm": "ëë¡", "shade": 0.9, "heat_score": -2.69, "heat_grade_norm": 1.0 }, "geometry": { "type": "Point", "coordinates": [ 127.1094381, 37.3262163 ] } },
{ "type": "Feature", "properties": { "osmid": 4081273946, "y": 37.3264248, "x": 127.1090926, "junction": null, "street_count": 3, "highway": null, "ref": null, "felt_temp": 37.191577911376953, "heat_grade": 10.0, "index_right": 8881.0, "uid": "ì©ì¸_121408", "sgg_cd": "41460", "sgg_nm": "ì©ì¸ì", "lclsf_cd": "I", "lclsf_nm": "ìê°íê±´ì¡°ì§", "mclsf_cd": "ID", "mclsf_nm": "êµíµìì¤ì§", "sclsf_cd": "ID2", "sclsf_nm": "ì¼ë°ëë¡", "dclsf_cd": "ID2_1", "dclsf_nm": "ê°ë¡ì ìë ì¼ë°ëë¡", "ldc_lc_cd": "A", "ldc_lc_nm": "ìê°íê±´ì¡°ì§ì­", "ldc_mc_cd": "A5", "ldc_mc_nm": "êµíµì§ì­", "ldc_sc_cd": "A54", "ldc_sc_nm": "ëë¡", "shade": 0.9, "heat_score": -2.69, "heat_grade_norm": 1.0 }, "geometry": { "type": "Point", "coordinates": [ 127.1090926, 37.3264248 ] } },
{ "type": "Feature", "properties": { "osmid": 4081273965, "y": 37.3261217, "x": 127.109098, "junction": "yes", "street_count": 4, "highway": "traffic_signals", "ref": null, "felt_temp": 37.188697814941406, "heat_grade": 10.0, "index_right": 8881.0, "uid": "ì©ì¸_121408", "sgg_cd": "41460", "sgg_nm": "ì©ì¸ì", "lclsf_cd": "I", "lclsf_nm": "ìê°íê±´ì¡°ì§", "mclsf_cd": "ID", "mclsf_nm": "êµíµìì¤ì§", "sclsf_cd": "ID2", "sclsf_nm": "ì¼ë°ëë¡", "dclsf_cd": "ID2_1", "dclsf_nm": "ê°ë¡ì ìë ì¼ë°ëë¡", "ldc_lc_cd": "A", "ldc_lc_nm": "ìê°íê±´ì¡°ì§ì­", "ldc_mc_cd": "A5", "ldc_mc_nm": "êµíµì§ì­", "ldc_sc_cd": "A54", "ldc_sc_nm": "ëë¡", "shade": 0.9, "heat_score": -2.69, "heat_grade_norm": 1.0 }, "geometry": { "type": "Point", "coordinates": [ 127.109098, 37.3261217 ] } },
{ "type": "Feature", "properties": { "osmid": 4081276138, "y": 37.3262163, "x": 127.1094381, "junction": null, "street_count": 5, "highway": null, "ref": null, "felt_temp": 37.188747406005859, "heat_grade": 10.0, "index_right": 8881.0, "uid": "ì©ì¸_121408", "sgg_cd": "41460", "sgg_nm": "ì©ì¸ì", "lclsf_cd": "I", "lclsf_nm": "ìê°íê±´ì¡°ì§", "mclsf_cd": "ID", "mclsf_nm": "êµíµìì¤ì§", "sclsf_cd": "ID2", "sclsf_nm": "ì¼ë°ëë¡", "dclsf_cd": "ID2_1", "dclsf_nm": "ê°ë¡ì ìë ì¼ë°ëë¡", "ldc_lc_cd": "A", "ldc_lc_nm": "ìê°íê±´ì¡°ì§ì­", "ldc_mc_cd": "A5", "ldc_mc_nm": "êµíµì§ì­", "ldc_sc_cd": "A54", "ldc_sc_nm": "ëë¡", "shade": 0.9, "heat_score": -2.69, "heat_grade_norm": 1.0 }, "geometry": { "type": "Point", "coordinates": [ 127.1094381, 37.3262163 ] } },
{ "type": "Feature", "properties": { "osmid": 2381060730, "y": 37.3262665, "x": 127.1097287, "junction": null, "street_count": 4, "highway": null, "ref": null, "felt_temp": 37.190685272216797, "heat_grade": 10.0, "index_right": 8881.0, "uid": "ì©ì¸_121408", "sgg_cd": "41460", "sgg_nm": "ì©ì¸ì", "lclsf_cd": "I", "lclsf_nm": "ìê°íê±´ì¡°ì§", "mclsf_cd": "ID", "mclsf_nm": "êµíµìì¤ì§", "sclsf_cd": "ID2", "sclsf_nm": "ì¼ë°ëë¡", "dclsf_cd": "ID2_1", "dclsf_nm": "ê°ë¡ì ìë ì¼ë°ëë¡", "ldc_lc_cd": "A", "ldc_lc_nm": "ìê°íê±´ì¡°ì§ì­", "ldc_mc_cd": "A5", "ldc_mc_nm": "êµíµì§ì­", "ldc_sc_cd": "A54", "ldc_sc_nm": "ëë¡", "shade": 0.9, "heat_score": -2.69, "heat_grade_norm": 1.0 }, "geometry": { "type": "Point", "coordinates": [ 127.1097287, 37.32626650000001 ] } },
{ "type": "Feature", "properties": { "osmid": 3406879349, "y": 37.3265403, "x": 127.1102611, "junction": null, "street_count": 4, "highway": "traffic_signals", "ref": null, "felt_temp": 37.155445098876953, "heat_grade": 10.0, "index_right": 8881.0, "uid": "ì©ì¸_121408", "sgg_cd": "41460", "sgg_nm": "ì©ì¸ì", "lclsf_cd": "I", "lclsf_nm": "ìê°íê±´ì¡°ì§", "mclsf_cd": "ID", "mclsf_nm": "êµíµìì¤ì§", "sclsf_cd": "ID2", "sclsf_nm": "ì¼ë°ëë¡", "dclsf_cd": "ID2_1", "dclsf_nm": "ê°ë¡ì ìë ì¼ë°ëë¡", "ldc_lc_cd": "A", "ldc_lc_nm": "ìê°íê±´ì¡°ì§ì­", "ldc_mc_cd": "A5", "ldc_mc_nm": "êµíµì§ì­", "ldc_sc_cd": "A54", "ldc_sc_nm": "ëë¡", "shade": 0.9, "heat_score": -2.71, "heat_grade_norm": 1.0 }, "geometry": { "type": "Point", "coordinates": [ 127.110261099999988, 37.3265403 ] } },
{ "type": "Feature", "properties": { "osmid": 8858871405, "y": 37.3266038, "x": 127.1104698, "junction": null, "street_count": 3, "highway": null, "ref": null, "felt_temp": 37.135665893554688, "heat_grade": 9.0, "index_right": 8881.0, "uid": "ì©ì¸_121408", "sgg_cd": "41460", "sgg_nm": "ì©ì¸ì", "lclsf_cd": "I", "lclsf_nm": "ìê°íê±´ì¡°ì§", "mclsf_cd": "ID", "mclsf_nm": "êµíµìì¤ì§", "sclsf_cd": "ID2", "sclsf_nm": "ì¼ë°ëë¡", "dclsf_cd": "ID2_1", "dclsf_nm": "ê°ë¡ì ìë ì¼ë°ëë¡", "ldc_lc_cd": "A", "ldc_lc_nm": "ìê°íê±´ì¡°ì§ì­", "ldc_mc_cd": "A5", "ldc_mc_nm": "êµíµì§ì­", "ldc_sc_cd": "A54", "ldc_sc_nm": "ëë¡", "shade": 0.9, "heat_score": -2.94, "heat_grade_norm": 0.889 }, "geometry": { "type": "Point", "coordinates": [ 127.110469800000018, 37.3266038 ] } },
{ "type": "Feature", "properties": { "osmid": 6222359703, "y": 37.3283336, "x": 127.1108853, "junction": null, "street_count": 3, "highway": null, "ref": null, "felt_temp": 36.433940887451172, "heat_grade": 1.0, "index_right": 8616.0, "uid": "ì©ì¸_119244", "sgg_cd": "41460", "sgg_nm": "ì©ì¸ì", "lclsf_cd": "I", "lclsf_nm": "ìê°íê±´ì¡°ì§", "mclsf_cd": "ID", "mclsf_nm": "êµíµìì¤ì§", "sclsf_cd": "ID2", "sclsf_nm": "ì¼ë°ëë¡", "dclsf_cd": "ID2_2", "dclsf_nm": "ê°ë¡ì ìë ì¼ë°ëë¡", "ldc_lc_cd": "A", "ldc_lc_nm": "ìê°íê±´ì¡°ì§ì­", "ldc_mc_cd": "A5", "ldc_mc_nm": "êµíµì§ì­", "ldc_sc_cd": "A54", "ldc_sc_nm": "ëë¡", "shade": 0.1, "heat_score": 18.86, "heat_grade_norm": 0.0 }, "geometry": { "type": "Point", "coordinates": [ 127.1108853, 37.3283336 ] } },
{ "type": "Feature", "properties": { "osmid": 6222359704, "y": 37.328354, "x": 127.1090606, "junction": null, "street_count": 3, "highway": null, "ref": null, "felt_temp": 36.984081268310547, "heat_grade": 8.0, "index_right": 8881.0, "uid": "ì©ì¸_121408", "sgg_cd": "41460", "sgg_nm": "ì©ì¸ì", "lclsf_cd": "I", "lclsf_nm": "ìê°íê±´ì¡°ì§", "mclsf_cd": "ID", "mclsf_nm": "êµíµìì¤ì§", "sclsf_cd": "ID2", "sclsf_nm": "ì¼ë°ëë¡", "dclsf_cd": "ID2_1", "dclsf_nm": "ê°ë¡ì ìë ì¼ë°ëë¡", "ldc_lc_cd": "A", "ldc_lc_nm": "ìê°íê±´ì¡°ì§ì­", "ldc_mc_cd": "A5", "ldc_mc_nm": "êµíµì§ì­", "ldc_sc_cd": "A54", "ldc_sc_nm": "ëë¡", "shade": 0.9, "heat_score": -3.25, "heat_grade_norm": 0.778 }, "geometry": { "type": "Point", "coordinates": [ 127.109060600000021, 37.328354 ] } },
{ "type": "Feature", "properties": { "osmid": 11092677047, "y": 37.3298998, "x": 127.1090258, "junction": null, "street_count": 3, "highway": null, "ref": null, "felt_temp": 36.815361022949219, "heat_grade": 8.0, "index_right": 8881.0, "uid": "ì©ì¸_121408", "sgg_cd": "41460", "sgg_nm": "ì©ì¸ì", "lclsf_cd": "I", "lclsf_nm": "ìê°íê±´ì¡°ì§", "mclsf_cd": "ID", "mclsf_nm": "êµíµìì¤ì§", "sclsf_cd": "ID2", "sclsf_nm": "ì¼ë°ëë¡", "dclsf_cd": "ID2_1", "dclsf_nm": "ê°ë¡ì ìë ì¼ë°ëë¡", "ldc_lc_cd": "A", "ldc_lc_nm": "ìê°íê±´ì¡°ì§ì­", "ldc_mc_cd": "A5", "ldc_mc_nm": "êµíµì§ì­", "ldc_sc_cd": "A54", "ldc_sc_nm": "ëë¡", "shade": 0.9, "heat_score": -3.36, "heat_grade_norm": 0.778 }, "geometry": { "type": "Point", "coordinates": [ 127.1090258, 37.3298998 ] } },
{ "type": "Feature", "properties": { "osmid": 11092677125, "y": 37.3315115, "x": 127.1090352, "junction": "yes", "street_count": 4, "highway": "traffic_signals", "ref": null, "felt_temp": 36.844966888427734, "heat_grade": 8.0, "index_right": 8881.0, "uid": "ì©ì¸_121408", "sgg_cd": "41460", "sgg_nm": "ì©ì¸ì", "lclsf_cd": "I", "lclsf_nm": "ìê°íê±´ì¡°ì§", "mclsf_cd": "ID", "mclsf_nm": "êµíµìì¤ì§", "sclsf_cd": "ID2", "sclsf_nm": "ì¼ë°ëë¡", "dclsf_cd": "ID2_1", "dclsf_nm": "ê°ë¡ì ìë ì¼ë°ëë¡", "ldc_lc_cd": "A", "ldc_lc_nm": "ìê°íê±´ì¡°ì§ì­", "ldc_mc_cd": "A5", "ldc_mc_nm": "êµíµì§ì­", "ldc_sc_cd": "A54", "ldc_sc_nm": "ëë¡", "shade": 0.9, "heat_score": -3.34, "heat_grade_norm": 0.778 }, "geometry": { "type": "Point", "coordinates": [ 127.1090352, 37.3315115 ] } },
{ "type": "Feature", "properties": { "osmid": 11092677117, "y": 37.3330507, "x": 127.1089991, "junction": "yes", "street_count": 4, "highway": "traffic_signals", "ref": null, "felt_temp": 36.921966552734375, "heat_grade": 8.0, "index_right": 8881.0, "uid": "ì©ì¸_121408", "sgg_cd": "41460", "sgg_nm": "ì©ì¸ì", "lclsf_cd": "I", "lclsf_nm": "ìê°íê±´ì¡°ì§", "mclsf_cd": "ID", "mclsf_nm": "êµíµìì¤ì§", "sclsf_cd": "ID2", "sclsf_nm": "ì¼ë°ëë¡", "dclsf_cd": "ID2_1", "dclsf_nm": "ê°ë¡ì ìë ì¼ë°ëë¡", "ldc_lc_cd": "A", "ldc_lc_nm": "ìê°íê±´ì¡°ì§ì­", "ldc_mc_cd": "A5", "ldc_mc_nm": "êµíµì§ì­", "ldc_sc_cd": "A54", "ldc_sc_nm": "ëë¡", "shade": 0.9, "heat_score": -3.29, "heat_grade_norm": 0.778 }, "geometry": { "type": "Point", "coordinates": [ 127.10899910000002, 37.3330507 ] } },
{ "type": "Feature", "properties": { "osmid": 2405708192, "y": 37.3330552, "x": 127.108844, "junction": "yes", "street_count": 4, "highway": "traffic_signals", "ref": null, "felt_temp": 36.814384460449219, "heat_grade": 8.0, "index_right": 8881.0, "uid": "ì©ì¸_121408", "sgg_cd": "41460", "sgg_nm": "ì©ì¸ì", "lclsf_cd": "I", "lclsf_nm": "ìê°íê±´ì¡°ì§", "mclsf_cd": "ID", "mclsf_nm": "êµíµìì¤ì§", "sclsf_cd": "ID2", "sclsf_nm": "ì¼ë°ëë¡", "dclsf_cd": "ID2_1", "dclsf_nm": "ê°ë¡ì ìë ì¼ë°ëë¡", "ldc_lc_cd": "A", "ldc_lc_nm": "ìê°íê±´ì¡°ì§ì­", "ldc_mc_cd": "A5", "ldc_mc_nm": "êµíµì§ì­", "ldc_sc_cd": "A54", "ldc_sc_nm": "ëë¡", "shade": 0.9, "heat_score": -3.36, "heat_grade_norm": 0.778 }, "geometry": { "type": "Point", "coordinates": [ 127.108844, 37.3330552 ] } },
{ "type": "Feature", "properties": { "osmid": 2405708157, "y": 37.3315178, "x": 127.1088561, "junction": "yes", "street_count": 4, "highway": "traffic_signals", "ref": null, "felt_temp": 36.829742431640625, "heat_grade": 8.0, "index_right": 8881.0, "uid": "ì©ì¸_121408", "sgg_cd": "41460", "sgg_nm": "ì©ì¸ì", "lclsf_cd": "I", "lclsf_nm": "ìê°íê±´ì¡°ì§", "mclsf_cd": "ID", "mclsf_nm": "êµíµìì¤ì§", "sclsf_cd": "ID2", "sclsf_nm": "ì¼ë°ëë¡", "dclsf_cd": "ID2_1", "dclsf_nm": "ê°ë¡ì ìë ì¼ë°ëë¡", "ldc_lc_cd": "A", "ldc_lc_nm": "ìê°íê±´ì¡°ì§ì­", "ldc_mc_cd": "A5", "ldc_mc_nm": "êµíµì§ì­", "ldc_sc_cd": "A54", "ldc_sc_nm": "ëë¡", "shade": 0.9, "heat_score": -3.35, "heat_grade_norm": 0.778 }, "geometry": { "type": "Point", "coordinates": [ 127.108856100000011, 37.3315178 ] } },
{ "type": "Feature", "properties": { "osmid": 11092677125, "y": 37.3315115, "x": 127.1090352, "junction": "yes", "street_count": 4, "highway": "traffic_signals", "ref": null, "felt_temp": 36.844966888427734, "heat_grade": 8.0, "index_right": 8881.0, "uid": "ì©ì¸_121408", "sgg_cd": "41460", "sgg_nm": "ì©ì¸ì", "lclsf_cd": "I", "lclsf_nm": "ìê°íê±´ì¡°ì§", "mclsf_cd": "ID", "mclsf_nm": "êµíµìì¤ì§", "sclsf_cd": "ID2", "sclsf_nm": "ì¼ë°ëë¡", "dclsf_cd": "ID2_1", "dclsf_nm": "ê°ë¡ì ìë ì¼ë°ëë¡", "ldc_lc_cd": "A", "ldc_lc_nm": "ìê°íê±´ì¡°ì§ì­", "ldc_mc_cd": "A5", "ldc_mc_nm": "êµíµì§ì­", "ldc_sc_cd": "A54", "ldc_sc_nm": "ëë¡", "shade": 0.9, "heat_score": -3.34, "heat_grade_norm": 0.778 }, "geometry": { "type": "Point", "coordinates": [ 127.1090352, 37.3315115 ] } },
{ "type": "Feature", "properties": { "osmid": 9699300635, "y": 37.3315098, "x": 127.111489, "junction": null, "street_count": 3, "highway": null, "ref": null, "felt_temp": 36.566013336181641, "heat_grade": 2.0, "index_right": 8881.0, "uid": "ì©ì¸_121408", "sgg_cd": "41460", "sgg_nm": "ì©ì¸ì", "lclsf_cd": "I", "lclsf_nm": "ìê°íê±´ì¡°ì§", "mclsf_cd": "ID", "mclsf_nm": "êµíµìì¤ì§", "sclsf_cd": "ID2", "sclsf_nm": "ì¼ë°ëë¡", "dclsf_cd": "ID2_1", "dclsf_nm": "ê°ë¡ì ìë ì¼ë°ëë¡", "ldc_lc_cd": "A", "ldc_lc_nm": "ìê°íê±´ì¡°ì§ì­", "ldc_mc_cd": "A5", "ldc_mc_nm": "êµíµì§ì­", "ldc_sc_cd": "A54", "ldc_sc_nm": "ëë¡", "shade": 0.9, "heat_score": -4.84, "heat_grade_norm": 0.111 }, "geometry": { "type": "Point", "coordinates": [ 127.111489, 37.3315098 ] } },
{ "type": "Feature", "properties": { "osmid": 2933795642, "y": 37.3315109, "x": 127.111813, "junction": "yes", "street_count": 3, "highway": null, "ref": null, "felt_temp": 36.879951477050781, "heat_grade": 8.0, "index_right": 8881.0, "uid": "ì©ì¸_121408", "sgg_cd": "41460", "sgg_nm": "ì©ì¸ì", "lclsf_cd": "I", "lclsf_nm": "ìê°íê±´ì¡°ì§", "mclsf_cd": "ID", "mclsf_nm": "êµíµìì¤ì§", "sclsf_cd": "ID2", "sclsf_nm": "ì¼ë°ëë¡", "dclsf_cd": "ID2_1", "dclsf_nm": "ê°ë¡ì ìë ì¼ë°ëë¡", "ldc_lc_cd": "A", "ldc_lc_nm": "ìê°íê±´ì¡°ì§ì­", "ldc_mc_cd": "A5", "ldc_mc_nm": "êµíµì§ì­", "ldc_sc_cd": "A54", "ldc_sc_nm": "ëë¡", "shade": 0.9, "heat_score": -3.32, "heat_grade_norm": 0.778 }, "geometry": { "type": "Point", "coordinates": [ 127.111813, 37.3315109 ] } },
{ "type": "Feature", "properties": { "osmid": 2405708154, "y": 37.3315314, "x": 127.1127594, "junction": null, "street_count": 4, "highway": null, "ref": null, "felt_temp": 36.906314849853516, "heat_grade": 8.0, "index_right": 8881.0, "uid": "ì©ì¸_121408", "sgg_cd": "41460", "sgg_nm": "ì©ì¸ì", "lclsf_cd": "I", "lclsf_nm": "ìê°íê±´ì¡°ì§", "mclsf_cd": "ID", "mclsf_nm": "êµíµìì¤ì§", "sclsf_cd": "ID2", "sclsf_nm": "ì¼ë°ëë¡", "dclsf_cd": "ID2_1", "dclsf_nm": "ê°ë¡ì ìë ì¼ë°ëë¡", "ldc_lc_cd": "A", "ldc_lc_nm": "ìê°íê±´ì¡°ì§ì­", "ldc_mc_cd": "A5", "ldc_mc_nm": "êµíµì§ì­", "ldc_sc_cd": "A54", "ldc_sc_nm": "ëë¡", "shade": 0.9, "heat_score": -3.3, "heat_grade_norm": 0.778 }, "geometry": { "type": "Point", "coordinates": [ 127.112759399999987, 37.3315314 ] } },
{ "type": "Feature", "properties": { "osmid": 2405708152, "y": 37.3315242, "x": 127.1137407, "junction": "yes", "street_count": 3, "highway": null, "ref": null, "felt_temp": 36.73614501953125, "heat_grade": 6.0, "index_right": 7406.0, "uid": "ì©ì¸_119242", "sgg_cd": "41460", "sgg_nm": "ì©ì¸ì", "lclsf_cd": "I", "lclsf_nm": "ìê°íê±´ì¡°ì§", "mclsf_cd": "ID", "mclsf_nm": "êµíµìì¤ì§", "sclsf_cd": "ID2", "sclsf_nm": "ì¼ë°ëë¡", "dclsf_cd": "ID2_2", "dclsf_nm": "ê°ë¡ì ìë ì¼ë°ëë¡", "ldc_lc_cd": "A", "ldc_lc_nm": "ìê°íê±´ì¡°ì§ì­", "ldc_mc_cd": "A5", "ldc_mc_nm": "êµíµì§ì­", "ldc_sc_cd": "A54", "ldc_sc_nm": "ëë¡", "shade": 0.1, "heat_score": 20.15, "heat_grade_norm": 0.556 }, "geometry": { "type": "Point", "coordinates": [ 127.1137407, 37.3315242 ] } },
{ "type": "Feature", "properties": { "osmid": 2405708156, "y": 37.3315271, "x": 127.1160435, "junction": null, "street_count": 4, "highway": null, "ref": null, "felt_temp": 36.6551513671875, "heat_grade": 3.0, "index_right": 7152.0, "uid": "ì©ì¸_119228", "sgg_cd": "41460", "sgg_nm": "ì©ì¸ì", "lclsf_cd": "I", "lclsf_nm": "ìê°íê±´ì¡°ì§", "mclsf_cd": "ID", "mclsf_nm": "êµíµìì¤ì§", "sclsf_cd": "ID2", "sclsf_nm": "ì¼ë°ëë¡", "dclsf_cd": "ID2_1", "dclsf_nm": "ê°ë¡ì ìë ì¼ë°ëë¡", "ldc_lc_cd": "A", "ldc_lc_nm": "ìê°íê±´ì¡°ì§ì­", "ldc_mc_cd": "A5", "ldc_mc_nm": "êµíµì§ì­", "ldc_sc_cd": "A54", "ldc_sc_nm": "ëë¡", "shade": 0.9, "heat_score": -4.56, "heat_grade_norm": 0.222 }, "geometry": { "type": "Point", "coordinates": [ 127.1160435, 37.33152710000001 ] } },
{ "type": "Feature", "properties": { "osmid": 6541799339, "y": 37.3310912, "x": 127.1158635, "junction": null, "street_count": 3, "highway": null, "ref": null, "felt_temp": 36.561634063720703, "heat_grade": 2.0, "index_right": 7214.0, "uid": "ì©ì¸_119225", "sgg_cd": "41460", "sgg_nm": "ì©ì¸ì", "lclsf_cd": "I", "lclsf_nm": "ìê°íê±´ì¡°ì§", "mclsf_cd": "ID", "mclsf_nm": "êµíµìì¤ì§", "sclsf_cd": "ID2", "sclsf_nm": "ì¼ë°ëë¡", "dclsf_cd": "ID2_2", "dclsf_nm": "ê°ë¡ì ìë ì¼ë°ëë¡", "ldc_lc_cd": "A", "ldc_lc_nm": "ìê°íê±´ì¡°ì§ì­", "ldc_mc_cd": "A5", "ldc_mc_nm": "êµíµì§ì­", "ldc_sc_cd": "A54", "ldc_sc_nm": "ëë¡", "shade": 0.1, "heat_score": 19.16, "heat_grade_norm": 0.111 }, "geometry": { "type": "Point", "coordinates": [ 127.1158635, 37.3310912 ] } },
{ "type": "Feature", "properties": { "osmid": 2405708045, "y": 37.3289265, "x": 127.1151889, "junction": "yes", "street_count": 3, "highway": null, "ref": null, "felt_temp": 36.129642486572266, "heat_grade": 1.0, "index_right": 7152.0, "uid": "ì©ì¸_119228", "sgg_cd": "41460", "sgg_nm": "ì©ì¸ì", "lclsf_cd": "I", "lclsf_nm": "ìê°íê±´ì¡°ì§", "mclsf_cd": "ID", "mclsf_nm": "êµíµìì¤ì§", "sclsf_cd": "ID2", "sclsf_nm": "ì¼ë°ëë¡", "dclsf_cd": "ID2_1", "dclsf_nm": "ê°ë¡ì ìë ì¼ë°ëë¡", "ldc_lc_cd": "A", "ldc_lc_nm": "ìê°íê±´ì¡°ì§ì­", "ldc_mc_cd": "A5", "ldc_mc_nm": "êµíµì§ì­", "ldc_sc_cd": "A54", "ldc_sc_nm": "ëë¡", "shade": 0.9, "heat_score": -5.32, "heat_grade_norm": 0.0 }, "geometry": { "type": "Point", "coordinates": [ 127.115188900000021, 37.3289265 ] } },
{ "type": "Feature", "properties": { "osmid": 2381060686, "y": 37.3288335, "x": 127.1150287, "junction": null, "street_count": 3, "highway": null, "ref": null, "felt_temp": 36.271587371826172, "heat_grade": 1.0, "index_right": 7152.0, "uid": "ì©ì¸_119228", "sgg_cd": "41460", "sgg_nm": "ì©ì¸ì", "lclsf_cd": "I", "lclsf_nm": "ìê°íê±´ì¡°ì§", "mclsf_cd": "ID", "mclsf_nm": "êµíµìì¤ì§", "sclsf_cd": "ID2", "sclsf_nm": "ì¼ë°ëë¡", "dclsf_cd": "ID2_1", "dclsf_nm": "ê°ë¡ì ìë ì¼ë°ëë¡", "ldc_lc_cd": "A", "ldc_lc_nm": "ìê°íê±´ì¡°ì§ì­", "ldc_mc_cd": "A5", "ldc_mc_nm": "êµíµì§ì­", "ldc_sc_cd": "A54", "ldc_sc_nm": "ëë¡", "shade": 0.9, "heat_score": -5.24, "heat_grade_norm": 0.0 }, "geometry": { "type": "Point", "coordinates": [ 127.1150287, 37.3288335 ] } }
]
}
