{
"type": "FeatureCollection",
"name": "cool_cycle_7km_route1_edges",
"crs": { "type": "name", "properties": { "name": "urn:ogc:def:crs:OGC:1.3:CRS84" } },
"features": [
{ "type": "Feature", "properties": { "u": 3706019522, "v": 2651554894, "length": 364.70245915060991, "heat_score": -4.05 }, "geometry": { "type": "LineString", "coordinates": [ [ 127.06782530000001, 37.3288015 ], [ 127.067342, 37.3292307 ], [ 127.067041900000021, 37.3294925 ], [ 127.0652084, 37.3310923 ], [ 127.0650574, 37.3312331 ] ] } },
{ "type": "Feature", "properties": { "u": 2651554894, "v": 3528551437, "length": 76.896083885681094, "heat_score": -3.28 }, "geometry": { "type": "LineString", "coordinates": [ [ 127.0645389, 37.3306782 ], [ 127.06455480000001, 37.3307007 ], [ 127.06476, 37.3309193 ], [ 127.064862500000018, 37.3310285 ], [ 127.0649153, 37.3310866 ], [ 127.0650574, 37.3312331 ] ] } },
{ "type": "Feature", "properties": { "u": 3528551437, "v": 3525982780, "length": 237.05720321553929, "heat_score": -3.15 }, "geometry": { "type": "LineString", "coordinates": [ [ 127.0645389, 37.3306782 ], [ 127.0644439, 37.3305776 ], [ 127.063876300000018, 37.3299207 ], [ 127.0633169, 37.3292443 ], [ 127.0631751, 37.32908 ], [ 127.06303, 37.3289163 ] ] } },
{ "type": "Feature", "properties": { "u": 3525982780, "v": 12797121181, "length": 596.25191482259083, "heat_score": -2.825 }, "geometry": { "type": "LineString", "coordinates": [ [ 127.060503, 37.3240802 ], [ 127.06066490000002, 37.32435430000001 ], [ 127.0608719, 37.324705 ], [ 127.0609423, 37.3248191 ], [ 127.061116400000017, 37.3251388 ], [ 127.0611251, 37.3251548 ], [ 127.061166899999989, 37.3252458 ], [ 127.061252300000021, 37.3254716 ], [ 127.0613051, 37.3256877 ], [ 127.0613623, 37.3259336 ], [ 127.0613855, 37.3262332 ], [ 127.06139570000002, 37.3264438 ], [ 127.0613974, 37.3265897 ], [ 127.061388500000021, 37.3267133 ], [ 127.061393099999989, 37.3267923 ], [ 127.061425200000016, 37.3269629 ], [ 127.0614742, 37.3270978 ], [ 127.0615304, 37.3272093 ], [ 127.061620599999983, 37.327336 ], [ 127.061795799999985, 37.3275464 ], [ 127.0619456, 37.3276975 ], [ 127.0623093, 37.3281166 ], [ 127.0629147, 37.3287829 ], [ 127.06303, 37.3289163 ] ] } },
{ "type": "Feature", "properties": { "u": 12797121181, "v": 8433422839, "length": 100.21714935135985, "heat_score": -2.805 }, "geometry": { "type": "LineString", "coordinates": [ [ 127.060503, 37.3240802 ], [ 127.0602394, 37.323634 ], [ 127.0601649, 37.3235081 ], [ 127.060104, 37.3234053 ], [ 127.060003499999979, 37.3232719 ] ] } },
{ "type": "Feature", "properties": { "u": 8433422839, "v": 2600902198, "length": 86.54460654157144, "heat_score": -2.835 }, "geometry": { "type": "LineString", "coordinates": [ [ 127.060003499999979, 37.3232719 ], [ 127.059983, 37.323237 ], [ 127.0598486, 37.3229817 ], [ 127.0597375, 37.3228137 ], [ 127.0596772, 37.3227358 ], [ 127.0595621, 37.3225788 ] ] } },
{ "type": "Feature", "properties": { "u": 2600902198, "v": 8566507154, "length": 52.926269690049061, "heat_score": -2.825 }, "geometry": { "type": "LineString", "coordinates": [ [ 127.0600557, 37.32231 ], [ 127.059735499999988, 37.3224757 ], [ 127.0595621, 37.3225788 ] ] } },
{ "type": "Feature", "properties": { "u": 8566507154, "v": 3485484232, "length": 350.28047148689024, "heat_score": -3.14 }, "geometry": { "type": "LineString", "coordinates": [ [ 127.0600557, 37.32231 ], [ 127.0604802, 37.3220965 ], [ 127.060692299999985, 37.3219541 ], [ 127.0608871, 37.321782 ], [ 127.0609765, 37.3216848 ], [ 127.0610197, 37.3216364 ], [ 127.0610945, 37.3215526 ], [ 127.0612281, 37.321371 ], [ 127.0612966, 37.3212779 ], [ 127.061352, 37.3211714 ], [ 127.061393, 37.3210875 ], [ 127.0614275, 37.3209649 ], [ 127.061467, 37.3208317 ], [ 127.061580500000019, 37.3204548 ], [ 127.0616141, 37.3202936 ], [ 127.06173720000001, 37.3197675 ], [ 127.061766300000016, 37.3196256 ] ] } },
{ "type": "Feature", "properties": { "u": 3485484232, "v": 3485490159, "length": 309.80487640999002, "heat_score": -3.145 }, "geometry": { "type": "LineString", "coordinates": [ [ 127.0624599, 37.316932 ], [ 127.0623755, 37.3170412 ], [ 127.062347, 37.317078 ], [ 127.0622756, 37.3171719 ], [ 127.0622332, 37.317228 ], [ 127.062195100000011, 37.3172856 ], [ 127.062141600000018, 37.31737960000001 ], [ 127.0621161, 37.3174369 ], [ 127.0620876, 37.317494100000012 ], [ 127.0620709, 37.3175438 ], [ 127.062045, 37.3176223 ], [ 127.062032800000011, 37.3176683 ], [ 127.062013599999986, 37.3177848 ], [ 127.061938200000014, 37.3183605 ], [ 127.06184, 37.3191589 ], [ 127.061815200000012, 37.3194006 ], [ 127.0618117, 37.3194168 ], [ 127.061791299999982, 37.31951080000001 ], [ 127.0617821, 37.319552 ], [ 127.061766300000016, 37.3196256 ] ] } },
{ "type": "Feature", "properties": { "u": 3485490159, "v": 13539755744, "length": 241.65362641163878, "heat_score": -3.27 }, "geometry": { "type": "LineString", "coordinates": [ [ 127.0646746, 37.3157164 ], [ 127.064568900000012, 37.3157261 ], [ 127.0644274, 37.3157594 ], [ 127.064335400000019, 37.3157859 ], [ 127.0642322, 37.3158298 ], [ 127.064033600000016, 37.3159223 ], [ 127.063783699999988, 37.3160382 ], [ 127.063598099999979, 37.3161348 ], [ 127.06354970000001, 37.3161643 ], [ 127.0632714, 37.3163393 ], [ 127.0631256, 37.31644210000001 ], [ 127.0628874, 37.3166214 ], [ 127.062750100000017, 37.3167386 ], [ 127.062598600000015, 37.3168674 ], [ 127.0624599, 37.316932 ] ] } },
{ "type": "Feature", "properties": { "u": 13539755744, "v": 12696461660, "length": 753.71626990767516, "heat_score": -3.585 }, "geometry": { "type": "LineString", "coordinates": [ [ 127.0726451, 37.3150298 ], [ 127.0722472, 37.3151561 ], [ 127.07187660000001, 37.3152761 ], [ 127.0711688, 37.3154842 ], [ 127.070304400000012, 37.3157515 ], [ 127.0692534, 37.3160919 ], [ 127.0684883, 37.3163413 ], [ 127.0682696, 37.3164087 ], [ 127.0681099, 37.3164639 ], [ 127.067963600000013, 37.3164906 ], [ 127.0678192, 37.3165078 ], [ 127.0676854, 37.3165125 ], [ 127.0675436, 37.316512400000015 ], [ 127.0673871, 37.3165002 ], [ 127.067229199999986, 37.3164702 ], [ 127.0669644, 37.3164079 ], [ 127.066746400000014, 37.3163364 ], [ 127.0663263, 37.3161882 ], [ 127.0657205, 37.3159664 ], [ 127.0655119, 37.3158903 ], [ 127.0653225, 37.315818 ], [ 127.065152400000017, 37.3157575 ], [ 127.0651007, 37.3157412 ], [ 127.064932400000018, 37.3157127 ], [ 127.0647623, 37.3157084 ], [ 127.0646746, 37.3157164 ] ] } },
{ "type": "Feature", "properties": { "u": 12696461660, "v": 3715335589, "length": 549.63883460090426, "heat_score": -4.2 }, "geometry": { "type": "LineString", "coordinates": [ [ 127.075902200000016, 37.311455 ], [ 127.0754596, 37.3118028 ], [ 127.0752739, 37.3119468 ], [ 127.0751221, 37.3120783 ], [ 127.0750171, 37.3121535 ], [ 127.0749066, 37.3122496 ], [ 127.0748205, 37.31234220000001 ], [ 127.0747351, 37.3124576 ], [ 127.0746818, 37.3125704 ], [ 127.0746367, 37.3126853 ], [ 127.074619700000014, 37.3127669 ], [ 127.0746083, 37.3128462 ], [ 127.0745905, 37.3130212 ], [ 127.0746016, 37.3131505 ], [ 127.0746394, 37.3134267 ], [ 127.0746568, 37.3135123 ], [ 127.0746765, 37.3136031 ], [ 127.074692, 37.313658200000013 ], [ 127.0747008, 37.3137317 ], [ 127.0746913, 37.3138546 ], [ 127.074671900000013, 37.3140007 ], [ 127.0746157, 37.3141419 ], [ 127.074532300000016, 37.3142643 ], [ 127.07443840000002, 37.3143686 ], [ 127.0743654, 37.314437 ], [ 127.0742711, 37.3145063 ], [ 127.0740836, 37.3145997 ], [ 127.0739516, 37.3146473 ], [ 127.073822, 37.3146882 ], [ 127.07367, 37.3147314 ], [ 127.0732667, 37.3148474 ], [ 127.0728629, 37.31496 ], [ 127.0726451, 37.3150298 ] ] } },
{ "type": "Feature", "properties": { "u": 3715335589, "v": 3715331240, "length": 145.18221734391273, "heat_score": -4.03 }, "geometry": { "type": "LineString", "coordinates": [ [ 127.075902200000016, 37.311455 ], [ 127.0759846, 37.3115392 ], [ 127.0760246, 37.311564 ], [ 127.076073800000017, 37.3115779 ], [ 127.0768616, 37.311787699999989 ], [ 127.0769127, 37.3117887 ], [ 127.0769546, 37.3117752 ], [ 127.077004, 37.31175 ], [ 127.0770994, 37.3116907 ], [ 127.077207900000019, 37.3116159 ], [ 127.0772487, 37.3115844 ], [ 127.0773185, 37.3115306 ] ] } },
{ "type": "Feature", "properties": { "u": 3715331240, "v": 842899492, "length": 132.95531857136365, "heat_score": -3.255 }, "geometry": { "type": "LineString", "coordinates": [ [ 127.0773185, 37.3115306 ], [ 127.077564199999983, 37.3116899 ], [ 127.077594100000013, 37.3117088 ], [ 127.0777577, 37.3118122 ], [ 127.0779522, 37.311922 ], [ 127.078506899999979, 37.31226250000001 ] ] } },
{ "type": "Feature", "properties": { "u": 842899492, "v": 13521746025, "length": 20.093226273590233, "heat_score": -3.135 }, "geometry": { "type": "LineString", "coordinates": [ [ 127.078692700000019, 37.3123665 ], [ 127.078506899999979, 37.31226250000001 ] ] } },
{ "type": "Feature", "properties": { "u": 13521746025, "v": 12794611279, "length": 25.26766011931667, "heat_score": -3.0 }, "geometry": { "type": "LineString", "coordinates": [ [ 127.078692700000019, 37.3123665 ], [ 127.0788801, 37.3124725 ], [ 127.0789264, 37.31249720000001 ] ] } },
{ "type": "Feature", "properties": { "u": 12794611279, "v": 13539327720, "length": 21.047041786980309, "heat_score": -2.995 }, "geometry": { "type": "LineString", "coordinates": [ [ 127.0790694, 37.3126485 ], [ 127.0789763, 37.31255 ], [ 127.0789264, 37.31249720000001 ] ] } },
{ "type": "Feature", "properties": { "u": 13539327720, "v": 12794611286, "length": 14.141599247728006, "heat_score": -3.145 }, "geometry": { "type": "LineString", "coordinates": [ [ 127.0790694, 37.3126485 ], [ 127.07913210000001, 37.3126558 ], [ 127.0792267, 37.3126711 ] ] } },
{ "type": "Feature", "properties": { "u": 12794611286, "v": 842899376, "length": 8.7094969533932112, "heat_score": -3.57 }, "geometry": { "type": "LineString", "coordinates": [ [ 127.0792267, 37.3126711 ], [ 127.0793065, 37.312717 ] ] } },
{ "type": "Feature", "properties": { "u": 842899376, "v": 842899493, "length": 60.645200561569993, "heat_score": -3.425 }, "geometry": { "type": "LineString", "coordinates": [ [ 127.0793004, 37.3123816 ], [ 127.079166500000014, 37.3123939 ], [ 127.079100200000013, 37.3124061 ], [ 127.079083400000016, 37.3124255 ], [ 127.0790736, 37.3124463 ], [ 127.0790742, 37.3124837 ], [ 127.0790794, 37.3125055 ], [ 127.079104700000016, 37.3125336 ], [ 127.07922, 37.3126274 ], [ 127.0793065, 37.312717 ] ] } },
{ "type": "Feature", "properties": { "u": 842899493, "v": 842899424, "length": 150.17720559247533, "heat_score": -3.13 }, "geometry": { "type": "LineString", "coordinates": [ [ 127.0793004, 37.3123816 ], [ 127.07972, 37.3124019 ], [ 127.079846900000021, 37.3124048 ], [ 127.079948900000019, 37.3124027 ], [ 127.0801153, 37.3123992 ], [ 127.080158700000013, 37.312399 ], [ 127.080228099999985, 37.3123986 ], [ 127.0805452, 37.312397 ], [ 127.0806253, 37.3123975 ], [ 127.080789399999986, 37.3124203 ], [ 127.080994, 37.3124371 ] ] } },
{ "type": "Feature", "properties": { "u": 842899424, "v": 6152750610, "length": 57.518544897430246, "heat_score": -3.545 }, "geometry": { "type": "LineString", "coordinates": [ [ 127.0805981, 37.3128475 ], [ 127.080994, 37.3124371 ] ] } },
{ "type": "Feature", "properties": { "u": 6152750610, "v": 6152750617, "length": 80.86979690831032, "heat_score": -3.54 }, "geometry": { "type": "LineString", "coordinates": [ [ 127.0797676, 37.3130345 ], [ 127.0799114, 37.3130667 ], [ 127.080072, 37.31306570000001 ], [ 127.0801136, 37.313062 ], [ 127.080159699999982, 37.3130535 ], [ 127.0801766, 37.3130508 ], [ 127.080198900000013, 37.3130492 ], [ 127.0802195, 37.3130423 ], [ 127.0802812, 37.3130252 ], [ 127.0804532, 37.3129229 ], [ 127.0805981, 37.3128475 ] ] } },
{ "type": "Feature", "properties": { "u": 6152750617, "v": 842899426, "length": 50.101290386548236, "heat_score": -3.41 }, "geometry": { "type": "LineString", "coordinates": [ [ 127.0797676, 37.3130345 ], [ 127.0798431, 37.313085900000011 ], [ 127.0800001, 37.3131789 ], [ 127.0800539, 37.3132108 ], [ 127.0802048, 37.3133203 ] ] } },
{ "type": "Feature", "properties": { "u": 842899426, "v": 13539327729, "length": 9.9103586157520827, "heat_score": -3.465 }, "geometry": { "type": "LineString", "coordinates": [ [ 127.080143100000015, 37.3133947 ], [ 127.0802048, 37.3133203 ] ] } },
{ "type": "Feature", "properties": { "u": 13539327729, "v": 842899389, "length": 321.43921271221416, "heat_score": -3.33 }, "geometry": { "type": "LineString", "coordinates": [ [ 127.080143100000015, 37.3133947 ], [ 127.0800289, 37.3135311 ], [ 127.079999700000016, 37.3135656 ], [ 127.079849, 37.3137332 ], [ 127.0797946, 37.3137978 ], [ 127.0796165, 37.31397350000001 ], [ 127.079604300000014, 37.3139807 ], [ 127.079543, 37.3140525 ], [ 127.07944310000002, 37.31416 ], [ 127.0792666, 37.3143048 ], [ 127.078959500000011, 37.3145398 ], [ 127.0788189, 37.3146382 ], [ 127.078671200000016, 37.3147163 ], [ 127.0784445, 37.3148322 ], [ 127.078313599999987, 37.3148988 ], [ 127.078200100000018, 37.3149428 ], [ 127.078087399999987, 37.3149669 ], [ 127.0780169, 37.3149834 ], [ 127.0779636, 37.3149924 ], [ 127.0778955, 37.3150231 ], [ 127.077860500000014, 37.3150827 ], [ 127.0777772, 37.3153237 ], [ 127.0777756, 37.3153746 ], [ 127.077774, 37.3154254 ] ] } },
{ "type": "Feature", "properties": { "u": 842899389, "v": 842899368, "length": 94.859183845145708, "heat_score": -3.125 }, "geometry": { "type": "LineString", "coordinates": [ [ 127.077774, 37.3154254 ], [ 127.077593, 37.3154334 ], [ 127.0772474, 37.3154235 ], [ 127.0768722, 37.3154097 ], [ 127.0767028, 37.3153989 ] ] } },
{ "type": "Feature", "properties": { "u": 842899368, "v": 3717949535, "length": 210.46161947760612, "heat_score": -3.14 }, "geometry": { "type": "LineString", "coordinates": [ [ 127.0743726, 37.3154613 ], [ 127.074806800000019, 37.3153471 ], [ 127.074927, 37.3153202 ], [ 127.0750454, 37.31529050000001 ], [ 127.0752171, 37.31526550000001 ], [ 127.0753975, 37.3152561 ], [ 127.0758277, 37.315295399999989 ], [ 127.0761986, 37.31533 ], [ 127.0765515, 37.3153821 ], [ 127.0767028, 37.3153989 ] ] } },
{ "type": "Feature", "properties": { "u": 3717949535, "v": 3485490152, "length": 881.39176718926922, "heat_score": -3.715 }, "geometry": { "type": "LineString", "coordinates": [ [ 127.0743726, 37.3154613 ], [ 127.0736128, 37.3156624 ], [ 127.072927899999982, 37.3158249 ], [ 127.0727281, 37.3158849 ], [ 127.072401099999979, 37.3159567 ], [ 127.0722596, 37.3159911 ], [ 127.0718169, 37.3160988 ], [ 127.0716523, 37.3161449 ], [ 127.0714933, 37.316196 ], [ 127.0713325, 37.3162573 ], [ 127.0711857, 37.31632230000001 ], [ 127.0707906, 37.316503 ], [ 127.0705874, 37.3165995 ], [ 127.0703292, 37.3167171 ], [ 127.070068300000017, 37.3167976 ], [ 127.0697357, 37.3168755 ], [ 127.0695188, 37.3169127 ], [ 127.0693434, 37.3169533 ], [ 127.069254, 37.3169852 ], [ 127.0691984, 37.317005 ], [ 127.069079799999983, 37.3170596 ], [ 127.068972099999982, 37.3171228 ], [ 127.0689323, 37.3171461 ], [ 127.0689123, 37.3171579 ], [ 127.0687534, 37.317279 ], [ 127.068693900000014, 37.317334 ], [ 127.068593, 37.317444 ], [ 127.0685062, 37.3175307 ], [ 127.0684046, 37.3175917 ], [ 127.0681725, 37.3177525 ], [ 127.068093500000018, 37.3178073 ], [ 127.06786790000001, 37.31796150000001 ], [ 127.06772669999998, 37.3180433 ], [ 127.0672604, 37.3183032 ], [ 127.0668816, 37.318533 ], [ 127.0666985, 37.3186441 ], [ 127.066495, 37.31876410000001 ], [ 127.0662528, 37.3189107 ], [ 127.0661062, 37.319007 ], [ 127.0658945, 37.3191251 ], [ 127.065863799999988, 37.3191422 ], [ 127.0657709, 37.3191974 ] ] } },
{ "type": "Feature", "properties": { "u": 3485490152, "v": 3528563908, "length": 842.47653278598284, "heat_score": 8.475 }, "geometry": { "type": "LineString", "coordinates": [ [ 127.0703978, 37.3253977 ], [ 127.0703344, 37.3253263 ], [ 127.0702171, 37.3251942 ], [ 127.0699469, 37.3248885 ], [ 127.0696013, 37.3245901 ], [ 127.069107300000013, 37.3242304 ], [ 127.0686874, 37.3240051 ], [ 127.068384599999987, 37.3238439 ], [ 127.06814820000001, 37.3236996 ], [ 127.0677493, 37.3234615 ], [ 127.067414899999989, 37.323234 ], [ 127.06711580000001, 37.3229678 ], [ 127.0667696, 37.3225937 ], [ 127.06660549999998, 37.3223987 ], [ 127.066474, 37.322184300000011 ], [ 127.06637929999998, 37.3219247 ], [ 127.066284600000017, 37.3216004 ], [ 127.0661832, 37.3210874 ], [ 127.066166200000012, 37.3210151 ], [ 127.0661665, 37.3209072 ], [ 127.0661632, 37.3207702 ], [ 127.0661385, 37.320636 ], [ 127.066016, 37.3201733 ], [ 127.0658027, 37.3193297 ], [ 127.0657709, 37.3191974 ] ] } },
{ "type": "Feature", "properties": { "u": 3528563908, "v": 3528563900, "length": 249.64136715975485, "heat_score": 8.1 }, "geometry": { "type": "LineString", "coordinates": [ [ 127.0703978, 37.3253977 ], [ 127.070249500000017, 37.3254511 ], [ 127.070183200000017, 37.3254749 ], [ 127.0699696, 37.3255815 ], [ 127.0699117, 37.3256034 ], [ 127.0697977, 37.3256696 ], [ 127.069694400000017, 37.3257357 ], [ 127.0695884, 37.3258135 ], [ 127.069339, 37.3259639 ], [ 127.0689085, 37.3262465 ], [ 127.068150800000012, 37.3267435 ] ] } },
{ "type": "Feature", "properties": { "u": 3528563900, "v": 3528551420, "length": 49.564559980089228, "heat_score": 7.15 }, "geometry": { "type": "LineString", "coordinates": [ [ 127.068150800000012, 37.3267435 ], [ 127.06822050000001, 37.3268 ], [ 127.068461900000017, 37.3270175 ], [ 127.0685236, 37.3270762 ] ] } },
{ "type": "Feature", "properties": { "u": 3528551420, "v": 3528566606, "length": 163.46962726509594, "heat_score": 7.91 }, "geometry": { "type": "LineString", "coordinates": [ [ 127.0679274, 37.3275555 ], [ 127.0682527, 37.3277928 ], [ 127.068277200000011, 37.3278078 ], [ 127.068287600000019, 37.3278142 ], [ 127.0683332, 37.3278248 ], [ 127.0683734, 37.3278227 ], [ 127.0684136, 37.3278056 ], [ 127.0686756, 37.3275696 ], [ 127.0688589, 37.3274046 ], [ 127.0688696, 37.3273769 ], [ 127.0688696, 37.3273556 ], [ 127.0688566, 37.3273429 ], [ 127.0688106, 37.327298 ], [ 127.068706, 37.3272106 ], [ 127.0686148, 37.3271402 ], [ 127.0685236, 37.3270762 ] ] } },
{ "type": "Feature", "properties": { "u": 3528566606, "v": 3528551421, "length": 34.780862994865167, "heat_score": -3.455 }, "geometry": { "type": "LineString", "coordinates": [ [ 127.0679274, 37.3275555 ], [ 127.0677039, 37.3277352 ], [ 127.067650799999981, 37.3277779 ] ] } },
{ "type": "Feature", "properties": { "u": 3528551421, "v": 3706019517, "length": 43.11659592337768, "heat_score": -4.455 }, "geometry": { "type": "LineString", "coordinates": [ [ 127.068016499999985, 37.3280344 ], [ 127.067650799999981, 37.3277779 ] ] } },
{ "type": "Feature", "properties": { "u": 3706019517, "v": 3525982789, "length": 44.315117139411612, "heat_score": -4.585 }, "geometry": { "type": "LineString", "coordinates": [ [ 127.068016499999985, 37.3280344 ], [ 127.0683924, 37.328298 ] ] } },
{ "type": "Feature", "properties": { "u": 3525982789, "v": 3706019522, "length": 75.158391591689863, "heat_score": -4.345 }, "geometry": { "type": "LineString", "coordinates": [ [ 127.06782530000001, 37.3288015 ], [ 127.0683924, 37.328298 ] ] } }
]
}
