{
"type": "FeatureCollection",
"name": "cool_cycle_5km_route3_edges",
"crs": { "type": "name", "properties": { "name": "urn:ogc:def:crs:OGC:1.3:CRS84" } },
"features": [
{ "type": "Feature", "properties": { "u": 3666606812, "v": 3666606754, "length": 179.63687706850652, "heat_score": -3.92 }, "geometry": { "type": "LineString", "coordinates": [ [ 127.1008338, 37.3301217 ], [ 127.1009203, 37.3301423 ], [ 127.101019100000016, 37.3301517 ], [ 127.1014875, 37.3301607 ], [ 127.1028607, 37.3301442 ] ] } },
{ "type": "Feature", "properties": { "u": 3666606754, "v": 436914217, "length": 84.970677977191656, "heat_score": -2.67 }, "geometry": { "type": "LineString", "coordinates": [ [ 127.1028607, 37.3301442 ], [ 127.1028488, 37.3309083 ] ] } },
{ "type": "Feature", "properties": { "u": 436914217, "v": 436914221, "length": 254.56702734175394, "heat_score": -2.645 }, "geometry": { "type": "LineString", "coordinates": [ [ 127.1028134, 37.3331975 ], [ 127.1028488, 37.3309083 ] ] } },
{ "type": "Feature", "properties": { "u": 436914221, "v": 878178222, "length": 131.71001466878138, "heat_score": -2.66 }, "geometry": { "type": "LineString", "coordinates": [ [ 127.1013237, 37.3331993 ], [ 127.1028134, 37.3331975 ] ] } },
{ "type": "Feature", "properties": { "u": 878178222, "v": 878178259, "length": 24.154986474470501, "heat_score": -2.67 }, "geometry": { "type": "LineString", "coordinates": [ [ 127.1010505, 37.3331981 ], [ 127.1013237, 37.3331993 ] ] } },
{ "type": "Feature", "properties": { "u": 878178259, "v": 878178268, "length": 148.95183838192708, "heat_score": -2.81 }, "geometry": { "type": "LineString", "coordinates": [ [ 127.0993658, 37.3331925 ], [ 127.1010505, 37.3331981 ] ] } },
{ "type": "Feature", "properties": { "u": 878178268, "v": 3641655898, "length": 10.562589343287531, "heat_score": -2.81 }, "geometry": { "type": "LineString", "coordinates": [ [ 127.0992464, 37.3331957 ], [ 127.0993658, 37.3331925 ] ] } },
{ "type": "Feature", "properties": { "u": 3641655898, "v": 3641655921, "length": 82.066538390118708, "heat_score": -2.805 }, "geometry": { "type": "LineString", "coordinates": [ [ 127.098318300000017, 37.3331843 ], [ 127.0992464, 37.3331957 ] ] } },
{ "type": "Feature", "properties": { "u": 3641655921, "v": 414694406, "length": 50.652997766388751, "heat_score": -3.14 }, "geometry": { "type": "LineString", "coordinates": [ [ 127.098318300000017, 37.3331843 ], [ 127.09774560000001, 37.333172 ] ] } },
{ "type": "Feature", "properties": { "u": 414694406, "v": 878178230, "length": 127.58874629186326, "heat_score": -3.59 }, "geometry": { "type": "LineString", "coordinates": [ [ 127.097756300000015, 37.3343194 ], [ 127.09774560000001, 37.333172 ] ] } },
{ "type": "Feature", "properties": { "u": 878178230, "v": 3663106223, "length": 38.887851562742725, "heat_score": -3.54 }, "geometry": { "type": "LineString", "coordinates": [ [ 127.097761700000021, 37.3346691 ], [ 127.097756300000015, 37.3343194 ] ] } },
{ "type": "Feature", "properties": { "u": 3663106223, "v": 3908284730, "length": 162.20026862841695, "heat_score": -3.545 }, "geometry": { "type": "LineString", "coordinates": [ [ 127.097761700000021, 37.3361278 ], [ 127.097761700000021, 37.3352236 ], [ 127.097761700000021, 37.3346691 ] ] } },
{ "type": "Feature", "properties": { "u": 3908284730, "v": 3636132184, "length": 102.05729866006938, "heat_score": -3.85 }, "geometry": { "type": "LineString", "coordinates": [ [ 127.097761700000021, 37.3361278 ], [ 127.0977697, 37.3370456 ] ] } },
{ "type": "Feature", "properties": { "u": 3636132184, "v": 3958868057, "length": 137.77121927446598, "heat_score": -3.42 }, "geometry": { "type": "LineString", "coordinates": [ [ 127.099328, 37.3370541 ], [ 127.0977697, 37.3370456 ] ] } },
{ "type": "Feature", "properties": { "u": 3958868057, "v": 3958868058, "length": 145.70726185780197, "heat_score": -3.0 }, "geometry": { "type": "LineString", "coordinates": [ [ 127.1009761, 37.337056 ], [ 127.099328, 37.3370541 ] ] } },
{ "type": "Feature", "properties": { "u": 3958868058, "v": 878178240, "length": 97.919635031302221, "heat_score": -3.155 }, "geometry": { "type": "LineString", "coordinates": [ [ 127.1009761, 37.337056 ], [ 127.1009937, 37.3361755 ] ] } },
{ "type": "Feature", "properties": { "u": 878178240, "v": 3641655897, "length": 115.48236147455061, "heat_score": -3.125 }, "geometry": { "type": "LineString", "coordinates": [ [ 127.10229990000002, 37.3361798 ], [ 127.1009937, 37.3361755 ] ] } },
{ "type": "Feature", "properties": { "u": 3641655897, "v": 878178262, "length": 44.587695021636478, "heat_score": -2.825 }, "geometry": { "type": "LineString", "coordinates": [ [ 127.10229990000002, 37.3361798 ], [ 127.1028042, 37.336184 ] ] } },
{ "type": "Feature", "properties": { "u": 878178262, "v": 8808844634, "length": 320.99779147331276, "heat_score": -3.025 }, "geometry": { "type": "LineString", "coordinates": [ [ 127.102832799999987, 37.3390707 ], [ 127.1028176, 37.3371125 ], [ 127.1028042, 37.336184 ] ] } },
{ "type": "Feature", "properties": { "u": 8808844634, "v": 3759797959, "length": 111.87513186220819, "heat_score": -4.275 }, "geometry": { "type": "LineString", "coordinates": [ [ 127.102832799999987, 37.3390707 ], [ 127.1027381, 37.3390808 ], [ 127.101568199999988, 37.3390848 ] ] } },
{ "type": "Feature", "properties": { "u": 3759797959, "v": 3636132183, "length": 53.399349779651338, "heat_score": -5.18 }, "geometry": { "type": "LineString", "coordinates": [ [ 127.101568199999988, 37.3390848 ], [ 127.1009642, 37.3390886 ] ] } },
{ "type": "Feature", "properties": { "u": 3636132183, "v": 3759797958, "length": 86.314439541520571, "heat_score": -4.375 }, "geometry": { "type": "LineString", "coordinates": [ [ 127.099987900000016, 37.339095 ], [ 127.1009642, 37.3390886 ] ] } },
{ "type": "Feature", "properties": { "u": 3759797958, "v": 3636132182, "length": 59.048708123045323, "heat_score": -3.45 }, "geometry": { "type": "LineString", "coordinates": [ [ 127.099987900000016, 37.339095 ], [ 127.09932, 37.3390992 ] ] } },
{ "type": "Feature", "properties": { "u": 3636132182, "v": 3958868057, "length": 227.40616556884308, "heat_score": -3.15 }, "geometry": { "type": "LineString", "coordinates": [ [ 127.099328, 37.3370541 ], [ 127.09932, 37.3390992 ] ] } },
{ "type": "Feature", "properties": { "u": 3958868057, "v": 878178248, "length": 98.890397660226384, "heat_score": -3.905 }, "geometry": { "type": "LineString", "coordinates": [ [ 127.099328, 37.3370541 ], [ 127.0993388, 37.3361648 ] ] } },
{ "type": "Feature", "properties": { "u": 878178248, "v": 3641655893, "length": 96.206044936023275, "heat_score": -3.89 }, "geometry": { "type": "LineString", "coordinates": [ [ 127.09934, 37.335299600000013 ], [ 127.0993388, 37.3361648 ] ] } },
{ "type": "Feature", "properties": { "u": 3641655893, "v": 3641655894, "length": 146.63317329050147, "heat_score": -2.97 }, "geometry": { "type": "LineString", "coordinates": [ [ 127.1009985, 37.3353083 ], [ 127.09934, 37.335299600000013 ] ] } },
{ "type": "Feature", "properties": { "u": 3641655894, "v": 878178240, "length": 96.429310408367073, "heat_score": -3.14 }, "geometry": { "type": "LineString", "coordinates": [ [ 127.1009985, 37.3353083 ], [ 127.1009937, 37.3361755 ] ] } },
{ "type": "Feature", "properties": { "u": 878178240, "v": 878178248, "length": 146.31485211857782, "heat_score": -4.06 }, "geometry": { "type": "LineString", "coordinates": [ [ 127.0993388, 37.3361648 ], [ 127.1009937, 37.3361755 ] ] } },
{ "type": "Feature", "properties": { "u": 878178248, "v": 3908284730, "length": 139.49243244370444, "heat_score": -4.335 }, "geometry": { "type": "LineString", "coordinates": [ [ 127.097761700000021, 37.3361278 ], [ 127.0993388, 37.3361648 ] ] } },
{ "type": "Feature", "properties": { "u": 3908284730, "v": 3636126875, "length": 169.73905564872496, "heat_score": -4.63 }, "geometry": { "type": "LineString", "coordinates": [ [ 127.097761700000021, 37.3361278 ], [ 127.0965714, 37.3361279 ], [ 127.0958418, 37.3361263 ] ] } },
{ "type": "Feature", "properties": { "u": 3636126875, "v": 878203466, "length": 196.42286848342471, "heat_score": -5.31 }, "geometry": { "type": "LineString", "coordinates": [ [ 127.0958418, 37.3361263 ], [ 127.095123, 37.336122 ], [ 127.0936201, 37.3361211 ] ] } },
{ "type": "Feature", "properties": { "u": 878203466, "v": 3663151886, "length": 33.162338697610963, "heat_score": -4.77 }, "geometry": { "type": "LineString", "coordinates": [ [ 127.093614299999984, 37.335822899999989 ], [ 127.0936201, 37.3361211 ] ] } },
{ "type": "Feature", "properties": { "u": 3663151886, "v": 3663151885, "length": 43.148787674929729, "heat_score": -3.64 }, "geometry": { "type": "LineString", "coordinates": [ [ 127.093614299999984, 37.335822899999989 ], [ 127.0936068, 37.3354349 ] ] } },
{ "type": "Feature", "properties": { "u": 3663151885, "v": 3663143096, "length": 44.438770167978859, "heat_score": -3.395 }, "geometry": { "type": "LineString", "coordinates": [ [ 127.0936068, 37.3354349 ], [ 127.0935991, 37.3350353 ] ] } },
{ "type": "Feature", "properties": { "u": 3663143096, "v": 878203531, "length": 103.85741799307506, "heat_score": -4.475 }, "geometry": { "type": "LineString", "coordinates": [ [ 127.0935991, 37.3350353 ], [ 127.093581, 37.3341014 ] ] } },
{ "type": "Feature", "properties": { "u": 878203531, "v": 3663124806, "length": 64.518795185312968, "heat_score": -4.98 }, "geometry": { "type": "LineString", "coordinates": [ [ 127.093588499999981, 37.3335212 ], [ 127.093581, 37.3341014 ] ] } },
{ "type": "Feature", "properties": { "u": 3663124806, "v": 3663124807, "length": 123.60264094754065, "heat_score": 5.1 }, "geometry": { "type": "LineString", "coordinates": [ [ 127.094986500000019, 37.3335171 ], [ 127.093588499999981, 37.3335212 ] ] } },
{ "type": "Feature", "properties": { "u": 3663124807, "v": 3663097719, "length": 65.927565140031248, "heat_score": 5.875 }, "geometry": { "type": "LineString", "coordinates": [ [ 127.094986500000019, 37.3335171 ], [ 127.094986500000019, 37.33411 ] ] } },
{ "type": "Feature", "properties": { "u": 3663097719, "v": 3663097718, "length": 32.721506748561005, "heat_score": -3.69 }, "geometry": { "type": "LineString", "coordinates": [ [ 127.094986500000019, 37.33411 ], [ 127.0953566, 37.33411 ] ] } },
{ "type": "Feature", "properties": { "u": 3663097718, "v": 3663115226, "length": 28.233546694380593, "heat_score": 4.68 }, "geometry": { "type": "LineString", "coordinates": [ [ 127.095366, 37.3338562 ], [ 127.0953566, 37.33411 ] ] } },
{ "type": "Feature", "properties": { "u": 3663115226, "v": 3663115231, "length": 163.99617626505247, "heat_score": 5.075 }, "geometry": { "type": "LineString", "coordinates": [ [ 127.096735400000014, 37.3334617 ], [ 127.095374100000015, 37.3334638 ], [ 127.095366, 37.3338562 ] ] } },
{ "type": "Feature", "properties": { "u": 3663115231, "v": 3663115225, "length": 34.260852649668756, "heat_score": -4.24 }, "geometry": { "type": "LineString", "coordinates": [ [ 127.096735400000014, 37.3334617 ], [ 127.096739200000016, 37.3331536 ] ] } },
{ "type": "Feature", "properties": { "u": 3663115225, "v": 414694406, "length": 89.003091636806474, "heat_score": -4.265 }, "geometry": { "type": "LineString", "coordinates": [ [ 127.096739200000016, 37.3331536 ], [ 127.09774560000001, 37.333172 ] ] } },
{ "type": "Feature", "properties": { "u": 414694406, "v": 3641655923, "length": 138.01616371909105, "heat_score": -3.595 }, "geometry": { "type": "LineString", "coordinates": [ [ 127.0977402, 37.3319308 ], [ 127.09774560000001, 37.333172 ] ] } },
{ "type": "Feature", "properties": { "u": 3641655923, "v": 414694405, "length": 123.09006956642639, "heat_score": -3.545 }, "geometry": { "type": "LineString", "coordinates": [ [ 127.0977402, 37.3319308 ], [ 127.097756300000015, 37.3308239 ] ] } },
{ "type": "Feature", "properties": { "u": 414694405, "v": 878178258, "length": 132.81415004507684, "heat_score": -2.96 }, "geometry": { "type": "LineString", "coordinates": [ [ 127.099258, 37.3308529 ], [ 127.097756300000015, 37.3308239 ] ] } },
{ "type": "Feature", "properties": { "u": 878178258, "v": 3666606753, "length": 131.01888672327615, "heat_score": -2.82 }, "geometry": { "type": "LineString", "coordinates": [ [ 127.100739800000014, 37.330861400000011 ], [ 127.099258, 37.3308529 ] ] } },
{ "type": "Feature", "properties": { "u": 3666606753, "v": 3666606812, "length": 83.123575507173783, "heat_score": -4.05 }, "geometry": { "type": "LineString", "coordinates": [ [ 127.1008338, 37.3301217 ], [ 127.1007983, 37.3301868 ], [ 127.1007842, 37.330252 ], [ 127.1007802, 37.3303288 ], [ 127.100739800000014, 37.330861400000011 ] ] } }
]
}
