{
"type": "FeatureCollection",
"name": "cool_cycle_3km_route1_edges",
"crs": { "type": "name", "properties": { "name": "urn:ogc:def:crs:OGC:1.3:CRS84" } },
"features": [
{ "type": "Feature", "properties": { "u": 2381060686, "v": 2405708039, "length": 34.147714328568945, "heat_score": -5.235 }, "geometry": { "type": "LineString", "coordinates": [ [ 127.1147246, 37.3286443 ], [ 127.114838800000015, 37.3287115 ], [ 127.1150287, 37.3288335 ] ] } },
{ "type": "Feature", "properties": { "u": 2405708039, "v": 2405708044, "length": 62.450877426956879, "heat_score": 4.75 }, "geometry": { "type": "LineString", "coordinates": [ [ 127.114103500000013, 37.3288571 ], [ 127.1145677, 37.3287804 ], [ 127.114617100000018, 37.32873750000001 ], [ 127.1147246, 37.3286443 ] ] } },
{ "type": "Feature", "properties": { "u": 2405708044, "v": 2405708042, "length": 13.896412788302156, "heat_score": 13.735 }, "geometry": { "type": "LineString", "coordinates": [ [ 127.114103500000013, 37.3288571 ], [ 127.114015599999988, 37.3287535 ] ] } },
{ "type": "Feature", "properties": { "u": 2405708042, "v": 2405708031, "length": 50.992403167753551, "heat_score": 12.67 }, "geometry": { "type": "LineString", "coordinates": [ [ 127.114015599999988, 37.3287535 ], [ 127.113952800000021, 37.3286797 ], [ 127.11362130000002, 37.328420800000011 ] ] } },
{ "type": "Feature", "properties": { "u": 2405708031, "v": 2405708015, "length": 39.30952060602938, "heat_score": 3.655 }, "geometry": { "type": "LineString", "coordinates": [ [ 127.11362130000002, 37.328420800000011 ], [ 127.1136514, 37.3281764 ], [ 127.1137346, 37.3280911 ] ] } },
{ "type": "Feature", "properties": { "u": 2405708015, "v": 2405708005, "length": 106.12251224440242, "heat_score": -4.295 }, "geometry": { "type": "LineString", "coordinates": [ [ 127.1137346, 37.3280911 ], [ 127.1128338, 37.3275538 ], [ 127.1127745, 37.3275184 ] ] } },
{ "type": "Feature", "properties": { "u": 2405708005, "v": 8858871407, "length": 114.36302680913275, "heat_score": 8.7 }, "geometry": { "type": "LineString", "coordinates": [ [ 127.1116797, 37.3269716 ], [ 127.112083499999983, 37.3271655 ], [ 127.1121386, 37.3271908 ], [ 127.112204300000016, 37.3272204 ], [ 127.1123107, 37.3272697 ], [ 127.1127745, 37.3275184 ] ] } },
{ "type": "Feature", "properties": { "u": 8858871407, "v": 11092026872, "length": 94.929398961497242, "heat_score": 8.875 }, "geometry": { "type": "LineString", "coordinates": [ [ 127.110676900000016, 37.3266667 ], [ 127.110707, 37.3266759 ], [ 127.1115737, 37.3269394 ], [ 127.1116797, 37.3269716 ] ] } },
{ "type": "Feature", "properties": { "u": 11092026872, "v": 4081276119, "length": 58.740860980401621, "heat_score": 9.19 }, "geometry": { "type": "LineString", "coordinates": [ [ 127.110723100000016, 37.326167699999985 ], [ 127.110686, 37.3263026 ], [ 127.110624900000019, 37.3264372 ], [ 127.1106, 37.326521 ], [ 127.11062170000001, 37.3266018 ], [ 127.110676900000016, 37.3266667 ] ] } },
{ "type": "Feature", "properties": { "u": 4081276119, "v": 3406879349, "length": 59.113667685233509, "heat_score": 9.31 }, "geometry": { "type": "LineString", "coordinates": [ [ 127.110723100000016, 37.326167699999985 ], [ 127.1105907, 37.3263064 ], [ 127.1105189, 37.3263804 ], [ 127.1104499, 37.3264387 ], [ 127.1103747, 37.326498 ], [ 127.110261099999988, 37.3265403 ] ] } },
{ "type": "Feature", "properties": { "u": 3406879349, "v": 4081276138, "length": 82.955897975680685, "heat_score": -2.7 }, "geometry": { "type": "LineString", "coordinates": [ [ 127.110261099999988, 37.3265403 ], [ 127.1101472, 37.3265451 ], [ 127.110036, 37.326517 ], [ 127.1094381, 37.3262163 ] ] } },
{ "type": "Feature", "properties": { "u": 4081276138, "v": 4081273946, "length": 38.350901024998507, "heat_score": -2.69 }, "geometry": { "type": "LineString", "coordinates": [ [ 127.1094381, 37.3262163 ], [ 127.1092199, 37.326348 ], [ 127.1090926, 37.3264248 ] ] } },
{ "type": "Feature", "properties": { "u": 4081273946, "v": 4081273965, "length": 33.706612336275327, "heat_score": -2.69 }, "geometry": { "type": "LineString", "coordinates": [ [ 127.109098, 37.3261217 ], [ 127.109094899999988, 37.3262941 ], [ 127.1090926, 37.3264248 ] ] } },
{ "type": "Feature", "properties": { "u": 4081273965, "v": 4081276138, "length": 31.859973386207692, "heat_score": -2.69 }, "geometry": { "type": "LineString", "coordinates": [ [ 127.1094381, 37.3262163 ], [ 127.109187, 37.3261454 ], [ 127.109098, 37.3261217 ] ] } },
{ "type": "Feature", "properties": { "u": 4081276138, "v": 2381060730, "length": 26.294714106904948, "heat_score": -2.69 }, "geometry": { "type": "LineString", "coordinates": [ [ 127.1094381, 37.3262163 ], [ 127.1097287, 37.32626650000001 ] ] } },
{ "type": "Feature", "properties": { "u": 2381060730, "v": 3406879349, "length": 56.062757375070163, "heat_score": -2.7 }, "geometry": { "type": "LineString", "coordinates": [ [ 127.1097287, 37.32626650000001 ], [ 127.110261099999988, 37.3265403 ] ] } },
{ "type": "Feature", "properties": { "u": 3406879349, "v": 8858871405, "length": 19.758292549472291, "heat_score": -2.825 }, "geometry": { "type": "LineString", "coordinates": [ [ 127.110469800000018, 37.3266038 ], [ 127.110261099999988, 37.3265403 ] ] } },
{ "type": "Feature", "properties": { "u": 8858871405, "v": 6222359703, "length": 195.97139019419933, "heat_score": 7.96 }, "geometry": { "type": "LineString", "coordinates": [ [ 127.110469800000018, 37.3266038 ], [ 127.1105181, 37.326758 ], [ 127.1106465, 37.3274252 ], [ 127.110839500000012, 37.3282106 ], [ 127.1108853, 37.3283336 ] ] } },
{ "type": "Feature", "properties": { "u": 6222359703, "v": 6222359704, "length": 161.40008582218266, "heat_score": 7.805 }, "geometry": { "type": "LineString", "coordinates": [ [ 127.109060600000021, 37.328354 ], [ 127.109482, 37.3283354 ], [ 127.110011700000015, 37.328336299999989 ], [ 127.1106045, 37.3283374 ], [ 127.1108853, 37.3283336 ] ] } },
{ "type": "Feature", "properties": { "u": 6222359704, "v": 11092677047, "length": 171.97773340389193, "heat_score": -3.305 }, "geometry": { "type": "LineString", "coordinates": [ [ 127.109060600000021, 37.328354 ], [ 127.109068100000016, 37.3288332 ], [ 127.10906319999998, 37.3293321 ], [ 127.1090258, 37.3298998 ] ] } },
{ "type": "Feature", "properties": { "u": 11092677047, "v": 11092677125, "length": 179.21532321423791, "heat_score": -3.35 }, "geometry": { "type": "LineString", "coordinates": [ [ 127.1090258, 37.3298998 ], [ 127.1090271, 37.3303696 ], [ 127.109028599999988, 37.3305151 ], [ 127.1090352, 37.3315115 ] ] } },
{ "type": "Feature", "properties": { "u": 11092677125, "v": 11092677117, "length": 171.19065119390493, "heat_score": -3.315 }, "geometry": { "type": "LineString", "coordinates": [ [ 127.1090352, 37.3315115 ], [ 127.1090268, 37.3316346 ], [ 127.10899910000002, 37.3330507 ] ] } },
{ "type": "Feature", "properties": { "u": 11092677117, "v": 2405708192, "length": 13.722114874944035, "heat_score": -3.325 }, "geometry": { "type": "LineString", "coordinates": [ [ 127.10899910000002, 37.3330507 ], [ 127.108844, 37.3330552 ] ] } },
{ "type": "Feature", "properties": { "u": 2405708192, "v": 2405708157, "length": 170.98150923746215, "heat_score": -3.355 }, "geometry": { "type": "LineString", "coordinates": [ [ 127.108844, 37.3330552 ], [ 127.1088643, 37.331636 ], [ 127.108856100000011, 37.3315178 ] ] } },
{ "type": "Feature", "properties": { "u": 2405708157, "v": 11092677125, "length": 15.850733057546584, "heat_score": -3.345 }, "geometry": { "type": "LineString", "coordinates": [ [ 127.1090352, 37.3315115 ], [ 127.108856100000011, 37.3315178 ] ] } },
{ "type": "Feature", "properties": { "u": 11092677125, "v": 9699300635, "length": 216.96405562430286, "heat_score": -4.09 }, "geometry": { "type": "LineString", "coordinates": [ [ 127.1090352, 37.3315115 ], [ 127.1091919, 37.3315119 ], [ 127.109719, 37.331504 ], [ 127.111489, 37.3315098 ] ] } },
{ "type": "Feature", "properties": { "u": 9699300635, "v": 2933795642, "length": 28.646937898824369, "heat_score": -4.08 }, "geometry": { "type": "LineString", "coordinates": [ [ 127.111489, 37.3315098 ], [ 127.111813, 37.3315109 ] ] } },
{ "type": "Feature", "properties": { "u": 2933795642, "v": 2405708154, "length": 83.711198560269537, "heat_score": -3.31 }, "geometry": { "type": "LineString", "coordinates": [ [ 127.111813, 37.3315109 ], [ 127.1120547, 37.3315131 ], [ 127.112759399999987, 37.3315314 ] ] } },
{ "type": "Feature", "properties": { "u": 2405708154, "v": 2405708152, "length": 86.769215479157467, "heat_score": 8.425 }, "geometry": { "type": "LineString", "coordinates": [ [ 127.112759399999987, 37.3315314 ], [ 127.112867099999988, 37.3315285 ], [ 127.113658200000017, 37.3315246 ], [ 127.1137407, 37.3315242 ] ] } },
{ "type": "Feature", "properties": { "u": 2405708152, "v": 2405708156, "length": 719.31596234454253, "heat_score": 7.795 }, "geometry": { "type": "LineString", "coordinates": [ [ 127.1160435, 37.33152710000001 ], [ 127.116122099999984, 37.3315795 ], [ 127.1163394, 37.3317242 ], [ 127.1163759, 37.331770400000011 ], [ 127.1157864, 37.33180260000001 ], [ 127.1157187, 37.3318665 ], [ 127.1155423, 37.3323808 ], [ 127.1154559, 37.3325568 ], [ 127.1152192, 37.3329022 ], [ 127.115145, 37.3331024 ], [ 127.115127, 37.3333671 ], [ 127.1151211, 37.3333943 ], [ 127.115054, 37.3337035 ], [ 127.1149045, 37.333831099999983 ], [ 127.114787, 37.3339138 ], [ 127.114622, 37.3339874 ], [ 127.1142618, 37.3339748 ], [ 127.1136138, 37.3338846 ], [ 127.11362, 37.3337694 ], [ 127.1136209, 37.33375370000001 ], [ 127.113666399999985, 37.3332225 ], [ 127.1137096, 37.3327473 ], [ 127.113750300000021, 37.3322599 ], [ 127.1137537, 37.3321995 ], [ 127.1137407, 37.3315242 ] ] } },
{ "type": "Feature", "properties": { "u": 2405708156, "v": 6541799339, "length": 51.01585693037979, "heat_score": 7.3 }, "geometry": { "type": "LineString", "coordinates": [ [ 127.1158635, 37.3310912 ], [ 127.1160435, 37.33152710000001 ] ] } },
{ "type": "Feature", "properties": { "u": 6541799339, "v": 2405708045, "length": 254.92787913553769, "heat_score": 6.92 }, "geometry": { "type": "LineString", "coordinates": [ [ 127.1158635, 37.3310912 ], [ 127.11522, 37.3295263 ], [ 127.115056399999986, 37.3291365 ], [ 127.115135599999988, 37.3290243 ], [ 127.115188900000021, 37.3289265 ] ] } },
{ "type": "Feature", "properties": { "u": 2405708045, "v": 2381060686, "length": 17.537889448690049, "heat_score": -5.28 }, "geometry": { "type": "LineString", "coordinates": [ [ 127.115188900000021, 37.3289265 ], [ 127.1150287, 37.3288335 ] ] } }
]
}
