{
"type": "FeatureCollection",
"name": "cool_cycle_7km_route2_edges",
"crs": { "type": "name", "properties": { "name": "urn:ogc:def:crs:OGC:1.3:CRS84" } },
"features": [
{ "type": "Feature", "properties": { "u": 842899393, "v": 3690695293, "length": 154.4588411921423, "heat_score": -4.26 }, "geometry": { "type": "LineString", "coordinates": [ [ 127.085350600000012, 37.3145524 ], [ 127.0850817, 37.3144781 ], [ 127.0848273, 37.3143971 ], [ 127.0840337, 37.3141883 ], [ 127.0837019, 37.3140949 ] ] } },
{ "type": "Feature", "properties": { "u": 3690695293, "v": 3689716839, "length": 57.81027956279766, "heat_score": 8.69 }, "geometry": { "type": "LineString", "coordinates": [ [ 127.085350600000012, 37.3145524 ], [ 127.0853949, 37.3144233 ], [ 127.085451, 37.3143035 ], [ 127.085516200000015, 37.3141642 ], [ 127.085594300000011, 37.3140739 ] ] } },
{ "type": "Feature", "properties": { "u": 3689716839, "v": 3690710181, "length": 237.45702459304675, "heat_score": 8.85 }, "geometry": { "type": "LineString", "coordinates": [ [ 127.087486100000021, 37.314749 ], [ 127.087479300000012, 37.3146572 ], [ 127.0874146, 37.3143816 ], [ 127.0873672, 37.3142901 ], [ 127.0872308, 37.31413220000001 ], [ 127.086958, 37.3138713 ], [ 127.086818099999988, 37.3139387 ], [ 127.086694200000011, 37.3139535 ], [ 127.086564, 37.3139449 ], [ 127.086291, 37.3139241 ], [ 127.08609389999998, 37.3139348 ], [ 127.0858847, 37.313968 ], [ 127.085751700000017, 37.3140063 ], [ 127.085594300000011, 37.3140739 ] ] } },
{ "type": "Feature", "properties": { "u": 3690710181, "v": 414694400, "length": 25.839444516738379, "heat_score": -2.83 }, "geometry": { "type": "LineString", "coordinates": [ [ 127.087486100000021, 37.314749 ], [ 127.0873518, 37.3147963 ], [ 127.087244700000014, 37.3148744 ] ] } },
{ "type": "Feature", "properties": { "u": 414694400, "v": 3690710188, "length": 49.65377481931904, "heat_score": -2.86 }, "geometry": { "type": "LineString", "coordinates": [ [ 127.0876703, 37.3151646 ], [ 127.0874878, 37.3150562 ], [ 127.087244700000014, 37.3148744 ] ] } },
{ "type": "Feature", "properties": { "u": 3690710188, "v": 3690924098, "length": 76.660795687088509, "heat_score": -2.995 }, "geometry": { "type": "LineString", "coordinates": [ [ 127.0878903, 37.3146948 ], [ 127.0876046, 37.3147755 ], [ 127.087535, 37.314824 ], [ 127.087507800000012, 37.3148643 ], [ 127.087515900000014, 37.31490010000001 ], [ 127.0875577, 37.314949 ], [ 127.0876703, 37.3151646 ] ] } },
{ "type": "Feature", "properties": { "u": 3690924098, "v": 3690710181, "length": 36.250100582792243, "heat_score": -2.965 }, "geometry": { "type": "LineString", "coordinates": [ [ 127.0878903, 37.3146948 ], [ 127.087486100000021, 37.314749 ] ] } },
{ "type": "Feature", "properties": { "u": 3690710181, "v": 842899396, "length": 171.40874410029534, "heat_score": -3.1 }, "geometry": { "type": "LineString", "coordinates": [ [ 127.087486100000021, 37.314749 ], [ 127.0872949, 37.3146172 ], [ 127.0871764, 37.3145645 ], [ 127.087048100000018, 37.314556 ], [ 127.086463400000014, 37.3145218 ], [ 127.086104, 37.314492 ], [ 127.0858668, 37.3144777 ], [ 127.0857948, 37.3144885 ], [ 127.0857585, 37.314614 ] ] } },
{ "type": "Feature", "properties": { "u": 842899396, "v": 842899399, "length": 103.88597372719644, "heat_score": -3.12 }, "geometry": { "type": "LineString", "coordinates": [ [ 127.0868062, 37.3149632 ], [ 127.0865953, 37.314820800000014 ], [ 127.086419399999983, 37.3147224 ], [ 127.086303200000017, 37.3146718 ], [ 127.0861419, 37.3146425 ], [ 127.0857585, 37.314614 ] ] } },
{ "type": "Feature", "properties": { "u": 842899399, "v": 3690710199, "length": 27.8499572206476, "heat_score": -2.995 }, "geometry": { "type": "LineString", "coordinates": [ [ 127.0871146, 37.3150139 ], [ 127.0868062, 37.3149632 ] ] } },
{ "type": "Feature", "properties": { "u": 3690710199, "v": 3655080129, "length": 28.40170345900302, "heat_score": -3.0 }, "geometry": { "type": "LineString", "coordinates": [ [ 127.087375, 37.3151634 ], [ 127.0871146, 37.3150139 ] ] } },
{ "type": "Feature", "properties": { "u": 3655080129, "v": 3697015681, "length": 67.330200712684004, "heat_score": 4.85 }, "geometry": { "type": "LineString", "coordinates": [ [ 127.0869502, 37.3156659 ], [ 127.087375, 37.3151634 ] ] } },
{ "type": "Feature", "properties": { "u": 3697015681, "v": 3697015679, "length": 151.29730880391372, "heat_score": 4.86 }, "geometry": { "type": "LineString", "coordinates": [ [ 127.0869502, 37.3156659 ], [ 127.0873451, 37.3158697 ], [ 127.0876349, 37.315865100000011 ], [ 127.088557600000016, 37.3156845 ] ] } },
{ "type": "Feature", "properties": { "u": 3697015679, "v": 1994672751, "length": 10.958986090041877, "heat_score": -3.15 }, "geometry": { "type": "LineString", "coordinates": [ [ 127.088557600000016, 37.3156845 ], [ 127.0886562, 37.3157442 ] ] } },
{ "type": "Feature", "properties": { "u": 1994672751, "v": 3655080125, "length": 160.83810730577073, "heat_score": 8.425 }, "geometry": { "type": "LineString", "coordinates": [ [ 127.087638699999985, 37.3169431 ], [ 127.087927900000011, 37.3165986 ], [ 127.0886562, 37.3157442 ] ] } },
{ "type": "Feature", "properties": { "u": 3655080125, "v": 1994672752, "length": 146.31604154409646, "heat_score": 8.59 }, "geometry": { "type": "LineString", "coordinates": [ [ 127.087638699999985, 37.3169431 ], [ 127.0869382, 37.3177664 ], [ 127.0867422, 37.3180479 ] ] } },
{ "type": "Feature", "properties": { "u": 1994672752, "v": 842899463, "length": 79.974526329469285, "heat_score": -2.99 }, "geometry": { "type": "LineString", "coordinates": [ [ 127.0867422, 37.3180479 ], [ 127.0867087, 37.3180363 ], [ 127.086657200000019, 37.3180228 ], [ 127.0865428, 37.3180082 ], [ 127.0864104, 37.3179872 ], [ 127.0862696, 37.3179858 ], [ 127.086137699999981, 37.3179822 ], [ 127.0859974, 37.3179964 ], [ 127.085857, 37.3180349 ] ] } },
{ "type": "Feature", "properties": { "u": 842899463, "v": 11831009774, "length": 169.60728686121215, "heat_score": -2.985 }, "geometry": { "type": "LineString", "coordinates": [ [ 127.0841426, 37.31871790000001 ], [ 127.085055, 37.3183484 ], [ 127.0852901, 37.3182624 ], [ 127.085547700000021, 37.3181678 ], [ 127.085857, 37.3180349 ] ] } },
{ "type": "Feature", "properties": { "u": 11831009774, "v": 11831008067, "length": 20.745024550195076, "heat_score": -2.985 }, "geometry": { "type": "LineString", "coordinates": [ [ 127.0841426, 37.31871790000001 ], [ 127.0839278, 37.3187929 ] ] } },
{ "type": "Feature", "properties": { "u": 11831008067, "v": 842899428, "length": 26.878159477464941, "heat_score": -2.98 }, "geometry": { "type": "LineString", "coordinates": [ [ 127.0839278, 37.3187929 ], [ 127.083799299999981, 37.3188339 ], [ 127.0836481, 37.3188874 ] ] } },
{ "type": "Feature", "properties": { "u": 842899428, "v": 13539327752, "length": 12.368843478303724, "heat_score": -2.975 }, "geometry": { "type": "LineString", "coordinates": [ [ 127.083519800000019, 37.3189317 ], [ 127.0836481, 37.3188874 ] ] } },
{ "type": "Feature", "properties": { "u": 13539327752, "v": 13539327750, "length": 24.346445792214688, "heat_score": -2.99 }, "geometry": { "type": "LineString", "coordinates": [ [ 127.083519800000019, 37.3189317 ], [ 127.083479400000016, 37.3188613 ], [ 127.083402299999989, 37.31873370000001 ] ] } },
{ "type": "Feature", "properties": { "u": 13539327750, "v": 11831008065, "length": 37.26202335088513, "heat_score": -3.12 }, "geometry": { "type": "LineString", "coordinates": [ [ 127.083253, 37.3190433 ], [ 127.0833413, 37.3189161 ], [ 127.083380199999979, 37.3188386 ], [ 127.083402299999989, 37.31873370000001 ] ] } },
{ "type": "Feature", "properties": { "u": 11831008065, "v": 13539327752, "length": 26.678116799415687, "heat_score": -3.12 }, "geometry": { "type": "LineString", "coordinates": [ [ 127.083519800000019, 37.3189317 ], [ 127.0834586, 37.3189529 ], [ 127.0833177, 37.3190148 ], [ 127.083253, 37.3190433 ] ] } },
{ "type": "Feature", "properties": { "u": 13539327752, "v": 13539327755, "length": 51.128917343503964, "heat_score": -3.54 }, "geometry": { "type": "LineString", "coordinates": [ [ 127.0837942, 37.319336300000018 ], [ 127.083613400000019, 37.3190596 ], [ 127.083519800000019, 37.3189317 ] ] } },
{ "type": "Feature", "properties": { "u": 13539327755, "v": 11831009773, "length": 73.153227853748291, "heat_score": -3.67 }, "geometry": { "type": "LineString", "coordinates": [ [ 127.0837942, 37.319336300000018 ], [ 127.0835867, 37.3191973 ], [ 127.083503300000018, 37.31915630000001 ], [ 127.083435900000012, 37.3191443 ], [ 127.0833486, 37.3191412 ], [ 127.0830472, 37.3191449 ] ] } },
{ "type": "Feature", "properties": { "u": 11831009773, "v": 3529513828, "length": 59.619732686719118, "heat_score": -3.29 }, "geometry": { "type": "LineString", "coordinates": [ [ 127.0830472, 37.3191449 ], [ 127.082442500000013, 37.319382 ] ] } },
{ "type": "Feature", "properties": { "u": 3529513828, "v": 12794837217, "length": 328.86656831242186, "heat_score": -3.34 }, "geometry": { "type": "LineString", "coordinates": [ [ 127.080060099999983, 37.3216088 ], [ 127.080266400000014, 37.321375 ], [ 127.0804832, 37.3210828 ], [ 127.080639, 37.32089710000001 ], [ 127.0809205, 37.3205718 ], [ 127.0810652, 37.320422 ], [ 127.081135, 37.3203566 ], [ 127.081238, 37.32026 ], [ 127.0813502, 37.3201595 ], [ 127.08158, 37.3199539 ], [ 127.081808899999984, 37.3197465 ], [ 127.081895500000016, 37.3196693 ], [ 127.0819656, 37.3196158 ], [ 127.0820366, 37.319567 ], [ 127.0821222, 37.3195211 ], [ 127.082258900000014, 37.3194584 ], [ 127.082385800000011, 37.3194075 ], [ 127.082442500000013, 37.319382 ] ] } },
{ "type": "Feature", "properties": { "u": 12794837217, "v": 1924789280, "length": 46.722340808798421, "heat_score": -3.165 }, "geometry": { "type": "LineString", "coordinates": [ [ 127.080060099999983, 37.3216088 ], [ 127.080035400000014, 37.3216401 ], [ 127.0799615, 37.3217259 ], [ 127.0798704, 37.3218317 ], [ 127.079766699999979, 37.3219582 ] ] } },
{ "type": "Feature", "properties": { "u": 1924789280, "v": 3707678681, "length": 55.058599340119954, "heat_score": -3.115 }, "geometry": { "type": "LineString", "coordinates": [ [ 127.0799336, 37.3224252 ], [ 127.079923800000017, 37.3223161 ], [ 127.079890899999981, 37.3221531 ], [ 127.079874600000011, 37.3221146 ], [ 127.079848200000015, 37.3220518 ], [ 127.079766699999979, 37.3219582 ] ] } },
{ "type": "Feature", "properties": { "u": 3707678681, "v": 3707678649, "length": 64.670709686093929, "heat_score": -3.54 }, "geometry": { "type": "LineString", "coordinates": [ [ 127.0799336, 37.3224252 ], [ 127.0798616, 37.3223525 ], [ 127.079821100000018, 37.3223052 ], [ 127.0797528, 37.3222429 ], [ 127.0797196, 37.3222263 ], [ 127.0796864, 37.3222097 ], [ 127.079593499999987, 37.3221835 ], [ 127.0794879, 37.3221725 ], [ 127.0794673, 37.322170600000014 ], [ 127.079445299999989, 37.3221686 ], [ 127.0793326, 37.3221692 ] ] } },
{ "type": "Feature", "properties": { "u": 3707678649, "v": 3529505225, "length": 191.53356191090748, "heat_score": -3.415 }, "geometry": { "type": "LineString", "coordinates": [ [ 127.0793326, 37.3221692 ], [ 127.0792341, 37.3222026 ], [ 127.079116400000018, 37.3222315 ], [ 127.0789988, 37.3222604 ], [ 127.078737500000017, 37.3223333 ], [ 127.07845589999998, 37.3224206 ], [ 127.0782117, 37.3225229 ], [ 127.07800610000001, 37.3226169 ], [ 127.07780480000001, 37.3227208 ], [ 127.0775613, 37.3228372 ], [ 127.0773947, 37.3229197 ] ] } },
{ "type": "Feature", "properties": { "u": 3529505225, "v": 3707678662, "length": 211.31779252702691, "heat_score": -3.125 }, "geometry": { "type": "LineString", "coordinates": [ [ 127.0753983, 37.3239581 ], [ 127.075515899999985, 37.323895 ], [ 127.0760752, 37.3236177 ], [ 127.0765427, 37.3233881 ], [ 127.0770113, 37.3231673 ], [ 127.077195100000012, 37.3230627 ], [ 127.0773947, 37.3229197 ] ] } },
{ "type": "Feature", "properties": { "u": 3707678662, "v": 12735464747, "length": 13.948554955801558, "heat_score": -3.665 }, "geometry": { "type": "LineString", "coordinates": [ [ 127.0752612, 37.3240201 ], [ 127.0753437, 37.3239841 ], [ 127.0753983, 37.3239581 ] ] } },
{ "type": "Feature", "properties": { "u": 12735464747, "v": 11832084109, "length": 199.64504413890515, "heat_score": -3.675 }, "geometry": { "type": "LineString", "coordinates": [ [ 127.0752612, 37.3240201 ], [ 127.0749304, 37.3241643 ], [ 127.0744578, 37.3244068 ], [ 127.0743438, 37.3244443 ], [ 127.074007900000012, 37.3246031 ], [ 127.073840500000017, 37.3246904 ], [ 127.0737409, 37.3247424 ], [ 127.073547100000013, 37.3248265 ], [ 127.0733309, 37.3249468 ] ] } },
{ "type": "Feature", "properties": { "u": 11832084109, "v": 1924789289, "length": 242.05737223972704, "heat_score": -3.3 }, "geometry": { "type": "LineString", "coordinates": [ [ 127.0733309, 37.3249468 ], [ 127.07313640000001, 37.3250252 ], [ 127.0724905, 37.32534540000001 ], [ 127.072353299999989, 37.325405600000011 ], [ 127.0718902, 37.3256087 ], [ 127.071327200000013, 37.3259391 ], [ 127.07107259999998, 37.3261559 ] ] } },
{ "type": "Feature", "properties": { "u": 1924789289, "v": 11832084111, "length": 39.381196551044994, "heat_score": -3.705 }, "geometry": { "type": "LineString", "coordinates": [ [ 127.0712178, 37.3264907 ], [ 127.0711509, 37.326341 ], [ 127.07107259999998, 37.3261559 ] ] } },
{ "type": "Feature", "properties": { "u": 11832084111, "v": 11832084116, "length": 51.302210672242524, "heat_score": -4.625 }, "geometry": { "type": "LineString", "coordinates": [ [ 127.0712178, 37.3264907 ], [ 127.0711155, 37.3264199 ], [ 127.0710846, 37.326404 ], [ 127.071053600000013, 37.3263882 ], [ 127.0709903, 37.3263832 ], [ 127.0709461, 37.3263972 ], [ 127.0708481, 37.3264303 ], [ 127.070697100000018, 37.3264513 ] ] } },
{ "type": "Feature", "properties": { "u": 11832084116, "v": 3525982789, "length": 289.67971579228697, "heat_score": -4.51 }, "geometry": { "type": "LineString", "coordinates": [ [ 127.070697100000018, 37.3264513 ], [ 127.07014, 37.3268895 ], [ 127.069688400000018, 37.32719 ], [ 127.069273200000012, 37.3275159 ], [ 127.0683924, 37.328298 ] ] } },
{ "type": "Feature", "properties": { "u": 3525982789, "v": 3706019522, "length": 75.158391591689863, "heat_score": -4.345 }, "geometry": { "type": "LineString", "coordinates": [ [ 127.06782530000001, 37.3288015 ], [ 127.0683924, 37.328298 ] ] } },
{ "type": "Feature", "properties": { "u": 3706019522, "v": 2651554894, "length": 364.70245915060991, "heat_score": -4.05 }, "geometry": { "type": "LineString", "coordinates": [ [ 127.06782530000001, 37.3288015 ], [ 127.067342, 37.3292307 ], [ 127.067041900000021, 37.3294925 ], [ 127.0652084, 37.3310923 ], [ 127.0650574, 37.3312331 ] ] } },
{ "type": "Feature", "properties": { "u": 2651554894, "v": 3528551437, "length": 76.896083885681094, "heat_score": -3.28 }, "geometry": { "type": "LineString", "coordinates": [ [ 127.0645389, 37.3306782 ], [ 127.06455480000001, 37.3307007 ], [ 127.06476, 37.3309193 ], [ 127.064862500000018, 37.3310285 ], [ 127.0649153, 37.3310866 ], [ 127.0650574, 37.3312331 ] ] } },
{ "type": "Feature", "properties": { "u": 3528551437, "v": 3525982780, "length": 237.05720321553929, "heat_score": -3.15 }, "geometry": { "type": "LineString", "coordinates": [ [ 127.0645389, 37.3306782 ], [ 127.0644439, 37.3305776 ], [ 127.063876300000018, 37.3299207 ], [ 127.0633169, 37.3292443 ], [ 127.0631751, 37.32908 ], [ 127.06303, 37.3289163 ] ] } },
{ "type": "Feature", "properties": { "u": 3525982780, "v": 12797121181, "length": 596.25191482259083, "heat_score": -2.825 }, "geometry": { "type": "LineString", "coordinates": [ [ 127.060503, 37.3240802 ], [ 127.06066490000002, 37.32435430000001 ], [ 127.0608719, 37.324705 ], [ 127.0609423, 37.3248191 ], [ 127.061116400000017, 37.3251388 ], [ 127.0611251, 37.3251548 ], [ 127.061166899999989, 37.3252458 ], [ 127.061252300000021, 37.3254716 ], [ 127.0613051, 37.3256877 ], [ 127.0613623, 37.3259336 ], [ 127.0613855, 37.3262332 ], [ 127.06139570000002, 37.3264438 ], [ 127.0613974, 37.3265897 ], [ 127.061388500000021, 37.3267133 ], [ 127.061393099999989, 37.3267923 ], [ 127.061425200000016, 37.3269629 ], [ 127.0614742, 37.3270978 ], [ 127.0615304, 37.3272093 ], [ 127.061620599999983, 37.327336 ], [ 127.061795799999985, 37.3275464 ], [ 127.0619456, 37.3276975 ], [ 127.0623093, 37.3281166 ], [ 127.0629147, 37.3287829 ], [ 127.06303, 37.3289163 ] ] } },
{ "type": "Feature", "properties": { "u": 12797121181, "v": 8433422839, "length": 100.21714935135985, "heat_score": -2.805 }, "geometry": { "type": "LineString", "coordinates": [ [ 127.060503, 37.3240802 ], [ 127.0602394, 37.323634 ], [ 127.0601649, 37.3235081 ], [ 127.060104, 37.3234053 ], [ 127.060003499999979, 37.3232719 ] ] } },
{ "type": "Feature", "properties": { "u": 8433422839, "v": 2600902198, "length": 86.54460654157144, "heat_score": -2.835 }, "geometry": { "type": "LineString", "coordinates": [ [ 127.060003499999979, 37.3232719 ], [ 127.059983, 37.323237 ], [ 127.0598486, 37.3229817 ], [ 127.0597375, 37.3228137 ], [ 127.0596772, 37.3227358 ], [ 127.0595621, 37.3225788 ] ] } },
{ "type": "Feature", "properties": { "u": 2600902198, "v": 8566507154, "length": 52.926269690049061, "heat_score": -2.825 }, "geometry": { "type": "LineString", "coordinates": [ [ 127.0600557, 37.32231 ], [ 127.059735499999988, 37.3224757 ], [ 127.0595621, 37.3225788 ] ] } },
{ "type": "Feature", "properties": { "u": 8566507154, "v": 3485484232, "length": 350.28047148689024, "heat_score": -3.14 }, "geometry": { "type": "LineString", "coordinates": [ [ 127.0600557, 37.32231 ], [ 127.0604802, 37.3220965 ], [ 127.060692299999985, 37.3219541 ], [ 127.0608871, 37.321782 ], [ 127.0609765, 37.3216848 ], [ 127.0610197, 37.3216364 ], [ 127.0610945, 37.3215526 ], [ 127.0612281, 37.321371 ], [ 127.0612966, 37.3212779 ], [ 127.061352, 37.3211714 ], [ 127.061393, 37.3210875 ], [ 127.0614275, 37.3209649 ], [ 127.061467, 37.3208317 ], [ 127.061580500000019, 37.3204548 ], [ 127.0616141, 37.3202936 ], [ 127.06173720000001, 37.3197675 ], [ 127.061766300000016, 37.3196256 ] ] } },
{ "type": "Feature", "properties": { "u": 3485484232, "v": 3485490159, "length": 309.80487640999002, "heat_score": -3.145 }, "geometry": { "type": "LineString", "coordinates": [ [ 127.0624599, 37.316932 ], [ 127.0623755, 37.3170412 ], [ 127.062347, 37.317078 ], [ 127.0622756, 37.3171719 ], [ 127.0622332, 37.317228 ], [ 127.062195100000011, 37.3172856 ], [ 127.062141600000018, 37.31737960000001 ], [ 127.0621161, 37.3174369 ], [ 127.0620876, 37.317494100000012 ], [ 127.0620709, 37.3175438 ], [ 127.062045, 37.3176223 ], [ 127.062032800000011, 37.3176683 ], [ 127.062013599999986, 37.3177848 ], [ 127.061938200000014, 37.3183605 ], [ 127.06184, 37.3191589 ], [ 127.061815200000012, 37.3194006 ], [ 127.0618117, 37.3194168 ], [ 127.061791299999982, 37.31951080000001 ], [ 127.0617821, 37.319552 ], [ 127.061766300000016, 37.3196256 ] ] } },
{ "type": "Feature", "properties": { "u": 3485490159, "v": 13539755744, "length": 241.65362641163878, "heat_score": -3.27 }, "geometry": { "type": "LineString", "coordinates": [ [ 127.0646746, 37.3157164 ], [ 127.064568900000012, 37.3157261 ], [ 127.0644274, 37.3157594 ], [ 127.064335400000019, 37.3157859 ], [ 127.0642322, 37.3158298 ], [ 127.064033600000016, 37.3159223 ], [ 127.063783699999988, 37.3160382 ], [ 127.063598099999979, 37.3161348 ], [ 127.06354970000001, 37.3161643 ], [ 127.0632714, 37.3163393 ], [ 127.0631256, 37.31644210000001 ], [ 127.0628874, 37.3166214 ], [ 127.062750100000017, 37.3167386 ], [ 127.062598600000015, 37.3168674 ], [ 127.0624599, 37.316932 ] ] } },
{ "type": "Feature", "properties": { "u": 13539755744, "v": 12696461660, "length": 753.71626990767516, "heat_score": -3.585 }, "geometry": { "type": "LineString", "coordinates": [ [ 127.0726451, 37.3150298 ], [ 127.0722472, 37.3151561 ], [ 127.07187660000001, 37.3152761 ], [ 127.0711688, 37.3154842 ], [ 127.070304400000012, 37.3157515 ], [ 127.0692534, 37.3160919 ], [ 127.0684883, 37.3163413 ], [ 127.0682696, 37.3164087 ], [ 127.0681099, 37.3164639 ], [ 127.067963600000013, 37.3164906 ], [ 127.0678192, 37.3165078 ], [ 127.0676854, 37.3165125 ], [ 127.0675436, 37.316512400000015 ], [ 127.0673871, 37.3165002 ], [ 127.067229199999986, 37.3164702 ], [ 127.0669644, 37.3164079 ], [ 127.066746400000014, 37.3163364 ], [ 127.0663263, 37.3161882 ], [ 127.0657205, 37.3159664 ], [ 127.0655119, 37.3158903 ], [ 127.0653225, 37.315818 ], [ 127.065152400000017, 37.3157575 ], [ 127.0651007, 37.3157412 ], [ 127.064932400000018, 37.3157127 ], [ 127.0647623, 37.3157084 ], [ 127.0646746, 37.3157164 ] ] } },
{ "type": "Feature", "properties": { "u": 12696461660, "v": 3715335589, "length": 549.63883460090426, "heat_score": -4.2 }, "geometry": { "type": "LineString", "coordinates": [ [ 127.075902200000016, 37.311455 ], [ 127.0754596, 37.3118028 ], [ 127.0752739, 37.3119468 ], [ 127.0751221, 37.3120783 ], [ 127.0750171, 37.3121535 ], [ 127.0749066, 37.3122496 ], [ 127.0748205, 37.31234220000001 ], [ 127.0747351, 37.3124576 ], [ 127.0746818, 37.3125704 ], [ 127.0746367, 37.3126853 ], [ 127.074619700000014, 37.3127669 ], [ 127.0746083, 37.3128462 ], [ 127.0745905, 37.3130212 ], [ 127.0746016, 37.3131505 ], [ 127.0746394, 37.3134267 ], [ 127.0746568, 37.3135123 ], [ 127.0746765, 37.3136031 ], [ 127.074692, 37.313658200000013 ], [ 127.0747008, 37.3137317 ], [ 127.0746913, 37.3138546 ], [ 127.074671900000013, 37.3140007 ], [ 127.0746157, 37.3141419 ], [ 127.074532300000016, 37.3142643 ], [ 127.07443840000002, 37.3143686 ], [ 127.0743654, 37.314437 ], [ 127.0742711, 37.3145063 ], [ 127.0740836, 37.3145997 ], [ 127.0739516, 37.3146473 ], [ 127.073822, 37.3146882 ], [ 127.07367, 37.3147314 ], [ 127.0732667, 37.3148474 ], [ 127.0728629, 37.31496 ], [ 127.0726451, 37.3150298 ] ] } },
{ "type": "Feature", "properties": { "u": 3715335589, "v": 3715331240, "length": 145.18221734391273, "heat_score": -4.03 }, "geometry": { "type": "LineString", "coordinates": [ [ 127.075902200000016, 37.311455 ], [ 127.0759846, 37.3115392 ], [ 127.0760246, 37.311564 ], [ 127.076073800000017, 37.3115779 ], [ 127.0768616, 37.311787699999989 ], [ 127.0769127, 37.3117887 ], [ 127.0769546, 37.3117752 ], [ 127.077004, 37.31175 ], [ 127.0770994, 37.3116907 ], [ 127.077207900000019, 37.3116159 ], [ 127.0772487, 37.3115844 ], [ 127.0773185, 37.3115306 ] ] } },
{ "type": "Feature", "properties": { "u": 3715331240, "v": 842899492, "length": 132.95531857136365, "heat_score": -3.255 }, "geometry": { "type": "LineString", "coordinates": [ [ 127.0773185, 37.3115306 ], [ 127.077564199999983, 37.3116899 ], [ 127.077594100000013, 37.3117088 ], [ 127.0777577, 37.3118122 ], [ 127.0779522, 37.311922 ], [ 127.078506899999979, 37.31226250000001 ] ] } },
{ "type": "Feature", "properties": { "u": 842899492, "v": 13521746025, "length": 20.093226273590233, "heat_score": -3.135 }, "geometry": { "type": "LineString", "coordinates": [ [ 127.078692700000019, 37.3123665 ], [ 127.078506899999979, 37.31226250000001 ] ] } },
{ "type": "Feature", "properties": { "u": 13521746025, "v": 12794611279, "length": 25.26766011931667, "heat_score": -3.0 }, "geometry": { "type": "LineString", "coordinates": [ [ 127.078692700000019, 37.3123665 ], [ 127.0788801, 37.3124725 ], [ 127.0789264, 37.31249720000001 ] ] } },
{ "type": "Feature", "properties": { "u": 12794611279, "v": 13539327720, "length": 21.047041786980309, "heat_score": -2.995 }, "geometry": { "type": "LineString", "coordinates": [ [ 127.0790694, 37.3126485 ], [ 127.0789763, 37.31255 ], [ 127.0789264, 37.31249720000001 ] ] } },
{ "type": "Feature", "properties": { "u": 13539327720, "v": 12794611286, "length": 14.141599247728006, "heat_score": -3.145 }, "geometry": { "type": "LineString", "coordinates": [ [ 127.0790694, 37.3126485 ], [ 127.07913210000001, 37.3126558 ], [ 127.0792267, 37.3126711 ] ] } },
{ "type": "Feature", "properties": { "u": 12794611286, "v": 842899376, "length": 8.7094969533932112, "heat_score": -3.57 }, "geometry": { "type": "LineString", "coordinates": [ [ 127.0792267, 37.3126711 ], [ 127.0793065, 37.312717 ] ] } },
{ "type": "Feature", "properties": { "u": 842899376, "v": 842899493, "length": 60.645200561569993, "heat_score": -3.425 }, "geometry": { "type": "LineString", "coordinates": [ [ 127.0793004, 37.3123816 ], [ 127.079166500000014, 37.3123939 ], [ 127.079100200000013, 37.3124061 ], [ 127.079083400000016, 37.3124255 ], [ 127.0790736, 37.3124463 ], [ 127.0790742, 37.3124837 ], [ 127.0790794, 37.3125055 ], [ 127.079104700000016, 37.3125336 ], [ 127.07922, 37.3126274 ], [ 127.0793065, 37.312717 ] ] } },
{ "type": "Feature", "properties": { "u": 842899493, "v": 842899424, "length": 150.17720559247533, "heat_score": -3.13 }, "geometry": { "type": "LineString", "coordinates": [ [ 127.0793004, 37.3123816 ], [ 127.07972, 37.3124019 ], [ 127.079846900000021, 37.3124048 ], [ 127.079948900000019, 37.3124027 ], [ 127.0801153, 37.3123992 ], [ 127.080158700000013, 37.312399 ], [ 127.080228099999985, 37.3123986 ], [ 127.0805452, 37.312397 ], [ 127.0806253, 37.3123975 ], [ 127.080789399999986, 37.3124203 ], [ 127.080994, 37.3124371 ] ] } },
{ "type": "Feature", "properties": { "u": 842899424, "v": 6152750610, "length": 57.518544897430246, "heat_score": -3.545 }, "geometry": { "type": "LineString", "coordinates": [ [ 127.0805981, 37.3128475 ], [ 127.080994, 37.3124371 ] ] } },
{ "type": "Feature", "properties": { "u": 6152750610, "v": 842899426, "length": 63.10149146848255, "heat_score": -3.71 }, "geometry": { "type": "LineString", "coordinates": [ [ 127.0805981, 37.3128475 ], [ 127.0804457, 37.3130088 ], [ 127.080357300000017, 37.3131204 ], [ 127.0803117, 37.3131798 ], [ 127.0802048, 37.3133203 ] ] } },
{ "type": "Feature", "properties": { "u": 842899426, "v": 3717799627, "length": 59.326186158478549, "heat_score": -4.37 }, "geometry": { "type": "LineString", "coordinates": [ [ 127.0802048, 37.3133203 ], [ 127.0803347, 37.31342080000001 ], [ 127.080429399999986, 37.3135156 ], [ 127.080445, 37.3135312 ], [ 127.0804977, 37.3135871 ], [ 127.0805581, 37.3136606 ], [ 127.080623, 37.313735200000011 ] ] } },
{ "type": "Feature", "properties": { "u": 3717799627, "v": 1978988811, "length": 37.258050742887846, "heat_score": -5.02 }, "geometry": { "type": "LineString", "coordinates": [ [ 127.080623, 37.313735200000011 ], [ 127.080819, 37.3140318 ] ] } },
{ "type": "Feature", "properties": { "u": 1978988811, "v": 4162278681, "length": 263.54092914717592, "heat_score": -5.2 }, "geometry": { "type": "LineString", "coordinates": [ [ 127.0836829, 37.3135843 ], [ 127.083343400000018, 37.3135413 ], [ 127.0829342, 37.3135063 ], [ 127.082735900000017, 37.3135169 ], [ 127.0825257, 37.313548 ], [ 127.0821116, 37.3136554 ], [ 127.081533100000016, 37.313826700000014 ], [ 127.0809443, 37.3139972 ], [ 127.080819, 37.3140318 ] ] } },
{ "type": "Feature", "properties": { "u": 4162278681, "v": 842899393, "length": 57.118146643416132, "heat_score": -5.38 }, "geometry": { "type": "LineString", "coordinates": [ [ 127.0836829, 37.3135843 ], [ 127.0836675, 37.3136508 ], [ 127.08367, 37.3137948 ], [ 127.08367290000001, 37.3139578 ], [ 127.0837019, 37.3140949 ] ] } }
]
}
