{
"type": "FeatureCollection",
"name": "cool_cycle_shelter1_route2_nodes",
"crs": { "type": "name", "properties": { "name": "urn:ogc:def:crs:OGC:1.3:CRS84" } },
"features": [
{ "type": "Feature", "properties": { "osmid": 3707678661, "y": 37.3237203, "x": 127.0777235, "junction": null, "street_count": 4, "highway": null, "ref": null, "felt_temp": 36.075519561767578, "heat_grade": 1.0, "index_right": 4223.0, "uid": "ì©ì¸_12793", "sgg_cd": "41460", "sgg_nm": "ì©ì¸ì", "lclsf_cd": "I", "lclsf_nm": "ìê°íê±´ì¡°ì§", "mclsf_cd": "ID", "mclsf_nm": "êµíµìì¤ì§", "sclsf_cd": "ID2", "sclsf_nm": "ì¼ë°ëë¡", "dclsf_cd": "ID2_1", "dclsf_nm": "ê°ë¡ì ìë ì¼ë°ëë¡", "ldc_lc_cd": "A", "ldc_lc_nm": "ìê°íê±´ì¡°ì§ì­", "ldc_mc_cd": "A5", "ldc_mc_nm": "êµíµì§ì­", "ldc_sc_cd": "A54", "ldc_sc_nm": "ëë¡", "shade": 0.9, "heat_score": -5.35, "heat_grade_norm": 0.0 }, "geometry": { "type": "Point", "coordinates": [ 127.0777235, 37.3237203 ] } },
{ "type": "Feature", "properties": { "osmid": 3707678657, "y": 37.3233183, "x": 127.0786616, "junction": null, "street_count": 3, "highway": null, "ref": null, "felt_temp": 36.689796447753906, "heat_grade": 4.0, "index_right": 4970.0, "uid": "ì©ì¸_8791", "sgg_cd": "41460", "sgg_nm": "ì©ì¸ì", "lclsf_cd": "I", "lclsf_nm": "ìê°íê±´ì¡°ì§", "mclsf_cd": "ID", "mclsf_nm": "êµíµìì¤ì§", "sclsf_cd": "ID3", "sclsf_nm": "ìëë¡", "dclsf_cd": null, "dclsf_nm": null, "ldc_lc_cd": "A", "ldc_lc_nm": "ìê°íê±´ì¡°ì§ì­", "ldc_mc_cd": "A5", "ldc_mc_nm": "êµíµì§ì­", "ldc_sc_cd": "A54", "ldc_sc_nm": "ëë¡", "shade": 0.3, "heat_score": 13.68, "heat_grade_norm": 0.333 }, "geometry": { "type": "Point", "coordinates": [ 127.0786616, 37.323318300000011 ] } },
{ "type": "Feature", "properties": { "osmid": 3707678698, "y": 37.3235161, "x": 127.0789473, "junction": null, "street_count": 3, "highway": null, "ref": null, "felt_temp": 36.684375762939453, "heat_grade": 4.0, "index_right": 4970.0, "uid": "ì©ì¸_8791", "sgg_cd": "41460", "sgg_nm": "ì©ì¸ì", "lclsf_cd": "I", "lclsf_nm": "ìê°íê±´ì¡°ì§", "mclsf_cd": "ID", "mclsf_nm": "êµíµìì¤ì§", "sclsf_cd": "ID3", "sclsf_nm": "ìëë¡", "dclsf_cd": null, "dclsf_nm": null, "ldc_lc_cd": "A", "ldc_lc_nm": "ìê°íê±´ì¡°ì§ì­", "ldc_mc_cd": "A5", "ldc_mc_nm": "êµíµì§ì­", "ldc_sc_cd": "A54", "ldc_sc_nm": "ëë¡", "shade": 0.3, "heat_score": 13.68, "heat_grade_norm": 0.333 }, "geometry": { "type": "Point", "coordinates": [ 127.078947299999982, 37.3235161 ] } },
{ "type": "Feature", "properties": { "osmid": 3707679845, "y": 37.3225867, "x": 127.0796012, "junction": null, "street_count": 3, "highway": null, "ref": null, "felt_temp": 36.407546997070312, "heat_grade": 1.0, "index_right": 4970.0, "uid": "ì©ì¸_8791", "sgg_cd": "41460", "sgg_nm": "ì©ì¸ì", "lclsf_cd": "I", "lclsf_nm": "ìê°íê±´ì¡°ì§", "mclsf_cd": "ID", "mclsf_nm": "êµíµìì¤ì§", "sclsf_cd": "ID3", "sclsf_nm": "ìëë¡", "dclsf_cd": null, "dclsf_nm": null, "ldc_lc_cd": "A", "ldc_lc_nm": "ìê°íê±´ì¡°ì§ì­", "ldc_mc_cd": "A5", "ldc_mc_nm": "êµíµì§ì­", "ldc_sc_cd": "A54", "ldc_sc_nm": "ëë¡", "shade": 0.3, "heat_score": 12.84, "heat_grade_norm": 0.0 }, "geometry": { "type": "Point", "coordinates": [ 127.0796012, 37.3225867 ] } },
{ "type": "Feature", "properties": { "osmid": 3707678650, "y": 37.3224853, "x": 127.079249, "junction": null, "street_count": 3, "highway": null, "ref": null, "felt_temp": 36.334918975830078, "heat_grade": 1.0, "index_right": 4970.0, "uid": "ì©ì¸_8791", "sgg_cd": "41460", "sgg_nm": "ì©ì¸ì", "lclsf_cd": "I", "lclsf_nm": "ìê°íê±´ì¡°ì§", "mclsf_cd": "ID", "mclsf_nm": "êµíµìì¤ì§", "sclsf_cd": "ID3", "sclsf_nm": "ìëë¡", "dclsf_cd": null, "dclsf_nm": null, "ldc_lc_cd": "A", "ldc_lc_nm": "ìê°íê±´ì¡°ì§ì­", "ldc_mc_cd": "A5", "ldc_mc_nm": "êµíµì§ì­", "ldc_sc_cd": "A54", "ldc_sc_nm": "ëë¡", "shade": 0.3, "heat_score": 12.8, "heat_grade_norm": 0.0 }, "geometry": { "type": "Point", "coordinates": [ 127.079249, 37.3224853 ] } },
{ "type": "Feature", "properties": { "osmid": 3707678649, "y": 37.3221692, "x": 127.0793326, "junction": null, "street_count": 4, "highway": null, "ref": null, "felt_temp": 36.764366149902344, "heat_grade": 6.0, "index_right": 4223.0, "uid": "ì©ì¸_12793", "sgg_cd": "41460", "sgg_nm": "ì©ì¸ì", "lclsf_cd": "I", "lclsf_nm": "ìê°íê±´ì¡°ì§", "mclsf_cd": "ID", "mclsf_nm": "êµíµìì¤ì§", "sclsf_cd": "ID2", "sclsf_nm": "ì¼ë°ëë¡", "dclsf_cd": "ID2_1", "dclsf_nm": "ê°ë¡ì ìë ì¼ë°ëë¡", "ldc_lc_cd": "A", "ldc_lc_nm": "ìê°íê±´ì¡°ì§ì­", "ldc_mc_cd": "A5", "ldc_mc_nm": "êµíµì§ì­", "ldc_sc_cd": "A54", "ldc_sc_nm": "ëë¡", "shade": 0.9, "heat_score": -3.83, "heat_grade_norm": 0.556 }, "geometry": { "type": "Point", "coordinates": [ 127.0793326, 37.3221692 ] } },
{ "type": "Feature", "properties": { "osmid": 1924789280, "y": 37.3219582, "x": 127.0797667, "junction": "yes", "street_count": 3, "highway": null, "ref": null, "felt_temp": 37.068618774414062, "heat_grade": 9.0, "index_right": 4223.0, "uid": "ì©ì¸_12793", "sgg_cd": "41460", "sgg_nm": "ì©ì¸ì", "lclsf_cd": "I", "lclsf_nm": "ìê°íê±´ì¡°ì§", "mclsf_cd": "ID", "mclsf_nm": "êµíµìì¤ì§", "sclsf_cd": "ID2", "sclsf_nm": "ì¼ë°ëë¡", "dclsf_cd": "ID2_1", "dclsf_nm": "ê°ë¡ì ìë ì¼ë°ëë¡", "ldc_lc_cd": "A", "ldc_lc_nm": "ìê°íê±´ì¡°ì§ì­", "ldc_mc_cd": "A5", "ldc_mc_nm": "êµíµì§ì­", "ldc_sc_cd": "A54", "ldc_sc_nm": "ëë¡", "shade": 0.9, "heat_score": -2.98, "heat_grade_norm": 0.889 }, "geometry": { "type": "Point", "coordinates": [ 127.079766699999979, 37.3219582 ] } },
{ "type": "Feature", "properties": { "osmid": 3707678681, "y": 37.3224252, "x": 127.0799336, "junction": null, "street_count": 5, "highway": null, "ref": null, "felt_temp": 36.993259429931641, "heat_grade": 8.0, "index_right": 4223.0, "uid": "ì©ì¸_12793", "sgg_cd": "41460", "sgg_nm": "ì©ì¸ì", "lclsf_cd": "I", "lclsf_nm": "ìê°íê±´ì¡°ì§", "mclsf_cd": "ID", "mclsf_nm": "êµíµìì¤ì§", "sclsf_cd": "ID2", "sclsf_nm": "ì¼ë°ëë¡", "dclsf_cd": "ID2_1", "dclsf_nm": "ê°ë¡ì ìë ì¼ë°ëë¡", "ldc_lc_cd": "A", "ldc_lc_nm": "ìê°íê±´ì¡°ì§ì­", "ldc_mc_cd": "A5", "ldc_mc_nm": "êµíµì§ì­", "ldc_sc_cd": "A54", "ldc_sc_nm": "ëë¡", "shade": 0.9, "heat_score": -3.25, "heat_grade_norm": 0.778 }, "geometry": { "type": "Point", "coordinates": [ 127.0799336, 37.3224252 ] } },
{ "type": "Feature", "properties": { "osmid": 12794837217, "y": 37.3216088, "x": 127.0800601, "junction": null, "street_count": 3, "highway": null, "ref": null, "felt_temp": 36.822338104248047, "heat_grade": 8.0, "index_right": 4223.0, "uid": "ì©ì¸_12793", "sgg_cd": "41460", "sgg_nm": "ì©ì¸ì", "lclsf_cd": "I", "lclsf_nm": "ìê°íê±´ì¡°ì§", "mclsf_cd": "ID", "mclsf_nm": "êµíµìì¤ì§", "sclsf_cd": "ID2", "sclsf_nm": "ì¼ë°ëë¡", "dclsf_cd": "ID2_1", "dclsf_nm": "ê°ë¡ì ìë ì¼ë°ëë¡", "ldc_lc_cd": "A", "ldc_lc_nm": "ìê°íê±´ì¡°ì§ì­", "ldc_mc_cd": "A5", "ldc_mc_nm": "êµíµì§ì­", "ldc_sc_cd": "A54", "ldc_sc_nm": "ëë¡", "shade": 0.9, "heat_score": -3.35, "heat_grade_norm": 0.778 }, "geometry": { "type": "Point", "coordinates": [ 127.080060099999983, 37.3216088 ] } },
{ "type": "Feature", "properties": { "osmid": 3529513828, "y": 37.319382, "x": 127.0824425, "junction": null, "street_count": 4, "highway": null, "ref": null, "felt_temp": 36.856964111328125, "heat_grade": 8.0, "index_right": 4223.0, "uid": "ì©ì¸_12793", "sgg_cd": "41460", "sgg_nm": "ì©ì¸ì", "lclsf_cd": "I", "lclsf_nm": "ìê°íê±´ì¡°ì§", "mclsf_cd": "ID", "mclsf_nm": "êµíµìì¤ì§", "sclsf_cd": "ID2", "sclsf_nm": "ì¼ë°ëë¡", "dclsf_cd": "ID2_1", "dclsf_nm": "ê°ë¡ì ìë ì¼ë°ëë¡", "ldc_lc_cd": "A", "ldc_lc_nm": "ìê°íê±´ì¡°ì§ì­", "ldc_mc_cd": "A5", "ldc_mc_nm": "êµíµì§ì­", "ldc_sc_cd": "A54", "ldc_sc_nm": "ëë¡", "shade": 0.9, "heat_score": -3.33, "heat_grade_norm": 0.778 }, "geometry": { "type": "Point", "coordinates": [ 127.082442500000013, 37.319382 ] } },
{ "type": "Feature", "properties": { "osmid": 11831009773, "y": 37.3191449, "x": 127.0830472, "junction": null, "street_count": 3, "highway": null, "ref": null, "felt_temp": 36.998928070068359, "heat_grade": 8.0, "index_right": 4223.0, "uid": "ì©ì¸_12793", "sgg_cd": "41460", "sgg_nm": "ì©ì¸ì", "lclsf_cd": "I", "lclsf_nm": "ìê°íê±´ì¡°ì§", "mclsf_cd": "ID", "mclsf_nm": "êµíµìì¤ì§", "sclsf_cd": "ID2", "sclsf_nm": "ì¼ë°ëë¡", "dclsf_cd": "ID2_1", "dclsf_nm": "ê°ë¡ì ìë ì¼ë°ëë¡", "ldc_lc_cd": "A", "ldc_lc_nm": "ìê°íê±´ì¡°ì§ì­", "ldc_mc_cd": "A5", "ldc_mc_nm": "êµíµì§ì­", "ldc_sc_cd": "A54", "ldc_sc_nm": "ëë¡", "shade": 0.9, "heat_score": -3.25, "heat_grade_norm": 0.778 }, "geometry": { "type": "Point", "coordinates": [ 127.0830472, 37.3191449 ] } },
{ "type": "Feature", "properties": { "osmid": 11831008065, "y": 37.3190433, "x": 127.083253, "junction": null, "street_count": 3, "highway": null, "ref": null, "felt_temp": 36.98358154296875, "heat_grade": 8.0, "index_right": 4223.0, "uid": "ì©ì¸_12793", "sgg_cd": "41460", "sgg_nm": "ì©ì¸ì", "lclsf_cd": "I", "lclsf_nm": "ìê°íê±´ì¡°ì§", "mclsf_cd": "ID", "mclsf_nm": "êµíµìì¤ì§", "sclsf_cd": "ID2", "sclsf_nm": "ì¼ë°ëë¡", "dclsf_cd": "ID2_1", "dclsf_nm": "ê°ë¡ì ìë ì¼ë°ëë¡", "ldc_lc_cd": "A", "ldc_lc_nm": "ìê°íê±´ì¡°ì§ì­", "ldc_mc_cd": "A5", "ldc_mc_nm": "êµíµì§ì­", "ldc_sc_cd": "A54", "ldc_sc_nm": "ëë¡", "shade": 0.9, "heat_score": -3.25, "heat_grade_norm": 0.778 }, "geometry": { "type": "Point", "coordinates": [ 127.083253, 37.3190433 ] } },
{ "type": "Feature", "properties": { "osmid": 13539327752, "y": 37.3189317, "x": 127.0835198, "junction": null, "street_count": 4, "highway": null, "ref": null, "felt_temp": 37.046783447265625, "heat_grade": 9.0, "index_right": 4223.0, "uid": "ì©ì¸_12793", "sgg_cd": "41460", "sgg_nm": "ì©ì¸ì", "lclsf_cd": "I", "lclsf_nm": "ìê°íê±´ì¡°ì§", "mclsf_cd": "ID", "mclsf_nm": "êµíµìì¤ì§", "sclsf_cd": "ID2", "sclsf_nm": "ì¼ë°ëë¡", "dclsf_cd": "ID2_1", "dclsf_nm": "ê°ë¡ì ìë ì¼ë°ëë¡", "ldc_lc_cd": "A", "ldc_lc_nm": "ìê°íê±´ì¡°ì§ì­", "ldc_mc_cd": "A5", "ldc_mc_nm": "êµíµì§ì­", "ldc_sc_cd": "A54", "ldc_sc_nm": "ëë¡", "shade": 0.9, "heat_score": -2.99, "heat_grade_norm": 0.889 }, "geometry": { "type": "Point", "coordinates": [ 127.083519800000019, 37.3189317 ] } },
{ "type": "Feature", "properties": { "osmid": 842899428, "y": 37.3188874, "x": 127.0836481, "junction": "yes", "street_count": 4, "highway": null, "ref": null, "felt_temp": 37.11175537109375, "heat_grade": 9.0, "index_right": 4223.0, "uid": "ì©ì¸_12793", "sgg_cd": "41460", "sgg_nm": "ì©ì¸ì", "lclsf_cd": "I", "lclsf_nm": "ìê°íê±´ì¡°ì§", "mclsf_cd": "ID", "mclsf_nm": "êµíµìì¤ì§", "sclsf_cd": "ID2", "sclsf_nm": "ì¼ë°ëë¡", "dclsf_cd": "ID2_1", "dclsf_nm": "ê°ë¡ì ìë ì¼ë°ëë¡", "ldc_lc_cd": "A", "ldc_lc_nm": "ìê°íê±´ì¡°ì§ì­", "ldc_mc_cd": "A5", "ldc_mc_nm": "êµíµì§ì­", "ldc_sc_cd": "A54", "ldc_sc_nm": "ëë¡", "shade": 0.9, "heat_score": -2.96, "heat_grade_norm": 0.889 }, "geometry": { "type": "Point", "coordinates": [ 127.0836481, 37.3188874 ] } },
{ "type": "Feature", "properties": { "osmid": 13539327751, "y": 37.3186341, "x": 127.0834954, "junction": null, "street_count": 3, "highway": null, "ref": null, "felt_temp": 37.040920257568359, "heat_grade": 9.0, "index_right": 4223.0, "uid": "ì©ì¸_12793", "sgg_cd": "41460", "sgg_nm": "ì©ì¸ì", "lclsf_cd": "I", "lclsf_nm": "ìê°íê±´ì¡°ì§", "mclsf_cd": "ID", "mclsf_nm": "êµíµìì¤ì§", "sclsf_cd": "ID2", "sclsf_nm": "ì¼ë°ëë¡", "dclsf_cd": "ID2_1", "dclsf_nm": "ê°ë¡ì ìë ì¼ë°ëë¡", "ldc_lc_cd": "A", "ldc_lc_nm": "ìê°íê±´ì¡°ì§ì­", "ldc_mc_cd": "A5", "ldc_mc_nm": "êµíµì§ì­", "ldc_sc_cd": "A54", "ldc_sc_nm": "ëë¡", "shade": 0.9, "heat_score": -3.0, "heat_grade_norm": 0.889 }, "geometry": { "type": "Point", "coordinates": [ 127.0834954, 37.3186341 ] } },
{ "type": "Feature", "properties": { "osmid": 11831008067, "y": 37.3187929, "x": 127.0839278, "junction": null, "street_count": 3, "highway": null, "ref": null, "felt_temp": 37.033016204833984, "heat_grade": 9.0, "index_right": 4223.0, "uid": "ì©ì¸_12793", "sgg_cd": "41460", "sgg_nm": "ì©ì¸ì", "lclsf_cd": "I", "lclsf_nm": "ìê°íê±´ì¡°ì§", "mclsf_cd": "ID", "mclsf_nm": "êµíµìì¤ì§", "sclsf_cd": "ID2", "sclsf_nm": "ì¼ë°ëë¡", "dclsf_cd": "ID2_1", "dclsf_nm": "ê°ë¡ì ìë ì¼ë°ëë¡", "ldc_lc_cd": "A", "ldc_lc_nm": "ìê°íê±´ì¡°ì§ì­", "ldc_mc_cd": "A5", "ldc_mc_nm": "êµíµì§ì­", "ldc_sc_cd": "A54", "ldc_sc_nm": "ëë¡", "shade": 0.9, "heat_score": -3.0, "heat_grade_norm": 0.889 }, "geometry": { "type": "Point", "coordinates": [ 127.0839278, 37.3187929 ] } },
{ "type": "Feature", "properties": { "osmid": 842899428, "y": 37.3188874, "x": 127.0836481, "junction": "yes", "street_count": 4, "highway": null, "ref": null, "felt_temp": 37.11175537109375, "heat_grade": 9.0, "index_right": 4223.0, "uid": "ì©ì¸_12793", "sgg_cd": "41460", "sgg_nm": "ì©ì¸ì", "lclsf_cd": "I", "lclsf_nm": "ìê°íê±´ì¡°ì§", "mclsf_cd": "ID", "mclsf_nm": "êµíµìì¤ì§", "sclsf_cd": "ID2", "sclsf_nm": "ì¼ë°ëë¡", "dclsf_cd": "ID2_1", "dclsf_nm": "ê°ë¡ì ìë ì¼ë°ëë¡", "ldc_lc_cd": "A", "ldc_lc_nm": "ìê°íê±´ì¡°ì§ì­", "ldc_mc_cd": "A5", "ldc_mc_nm": "êµíµì§ì­", "ldc_sc_cd": "A54", "ldc_sc_nm": "ëë¡", "shade": 0.9, "heat_score": -2.96, "heat_grade_norm": 0.889 }, "geometry": { "type": "Point", "coordinates": [ 127.0836481, 37.3188874 ] } },
{ "type": "Feature", "properties": { "osmid": 13539327756, "y": 37.3192474, "x": 127.0838806, "junction": null, "street_count": 3, "highway": null, "ref": null, "felt_temp": 36.671382904052734, "heat_grade": 3.0, "index_right": 4223.0, "uid": "ì©ì¸_12793", "sgg_cd": "41460", "sgg_nm": "ì©ì¸ì", "lclsf_cd": "I", "lclsf_nm": "ìê°íê±´ì¡°ì§", "mclsf_cd": "ID", "mclsf_nm": "êµíµìì¤ì§", "sclsf_cd": "ID2", "sclsf_nm": "ì¼ë°ëë¡", "dclsf_cd": "ID2_1", "dclsf_nm": "ê°ë¡ì ìë ì¼ë°ëë¡", "ldc_lc_cd": "A", "ldc_lc_nm": "ìê°íê±´ì¡°ì§ì­", "ldc_mc_cd": "A5", "ldc_mc_nm": "êµíµì§ì­", "ldc_sc_cd": "A54", "ldc_sc_nm": "ëë¡", "shade": 0.9, "heat_score": -4.55, "heat_grade_norm": 0.222 }, "geometry": { "type": "Point", "coordinates": [ 127.0838806, 37.3192474 ] } },
{ "type": "Feature", "properties": { "osmid": 11831009774, "y": 37.3187179, "x": 127.0841426, "junction": null, "street_count": 3, "highway": null, "ref": null, "felt_temp": 37.09466552734375, "heat_grade": 9.0, "index_right": 4223.0, "uid": "ì©ì¸_12793", "sgg_cd": "41460", "sgg_nm": "ì©ì¸ì", "lclsf_cd": "I", "lclsf_nm": "ìê°íê±´ì¡°ì§", "mclsf_cd": "ID", "mclsf_nm": "êµíµìì¤ì§", "sclsf_cd": "ID2", "sclsf_nm": "ì¼ë°ëë¡", "dclsf_cd": "ID2_1", "dclsf_nm": "ê°ë¡ì ìë ì¼ë°ëë¡", "ldc_lc_cd": "A", "ldc_lc_nm": "ìê°íê±´ì¡°ì§ì­", "ldc_mc_cd": "A5", "ldc_mc_nm": "êµíµì§ì­", "ldc_sc_cd": "A54", "ldc_sc_nm": "ëë¡", "shade": 0.9, "heat_score": -2.97, "heat_grade_norm": 0.889 }, "geometry": { "type": "Point", "coordinates": [ 127.0841426, 37.31871790000001 ] } },
{ "type": "Feature", "properties": { "osmid": 842899463, "y": 37.3180349, "x": 127.085857, "junction": null, "street_count": 3, "highway": null, "ref": null, "felt_temp": 37.040931701660156, "heat_grade": 9.0, "index_right": 4223.0, "uid": "ì©ì¸_12793", "sgg_cd": "41460", "sgg_nm": "ì©ì¸ì", "lclsf_cd": "I", "lclsf_nm": "ìê°íê±´ì¡°ì§", "mclsf_cd": "ID", "mclsf_nm": "êµíµìì¤ì§", "sclsf_cd": "ID2", "sclsf_nm": "ì¼ë°ëë¡", "dclsf_cd": "ID2_1", "dclsf_nm": "ê°ë¡ì ìë ì¼ë°ëë¡", "ldc_lc_cd": "A", "ldc_lc_nm": "ìê°íê±´ì¡°ì§ì­", "ldc_mc_cd": "A5", "ldc_mc_nm": "êµíµì§ì­", "ldc_sc_cd": "A54", "ldc_sc_nm": "ëë¡", "shade": 0.9, "heat_score": -3.0, "heat_grade_norm": 0.889 }, "geometry": { "type": "Point", "coordinates": [ 127.085857, 37.3180349 ] } },
{ "type": "Feature", "properties": { "osmid": 1994672752, "y": 37.3180479, "x": 127.0867422, "junction": null, "street_count": 3, "highway": null, "ref": null, "felt_temp": 37.066616058349609, "heat_grade": 9.0, "index_right": 4223.0, "uid": "ì©ì¸_12793", "sgg_cd": "41460", "sgg_nm": "ì©ì¸ì", "lclsf_cd": "I", "lclsf_nm": "ìê°íê±´ì¡°ì§", "mclsf_cd": "ID", "mclsf_nm": "êµíµìì¤ì§", "sclsf_cd": "ID2", "sclsf_nm": "ì¼ë°ëë¡", "dclsf_cd": "ID2_1", "dclsf_nm": "ê°ë¡ì ìë ì¼ë°ëë¡", "ldc_lc_cd": "A", "ldc_lc_nm": "ìê°íê±´ì¡°ì§ì­", "ldc_mc_cd": "A5", "ldc_mc_nm": "êµíµì§ì­", "ldc_sc_cd": "A54", "ldc_sc_nm": "ëë¡", "shade": 0.9, "heat_score": -2.98, "heat_grade_norm": 0.889 }, "geometry": { "type": "Point", "coordinates": [ 127.0867422, 37.3180479 ] } },
{ "type": "Feature", "properties": { "osmid": 3655080125, "y": 37.3169431, "x": 127.0876387, "junction": null, "street_count": 4, "highway": null, "ref": null, "felt_temp": 36.741352081298828, "heat_grade": 6.0, "index_right": 3041.0, "uid": "ì©ì¸_8739", "sgg_cd": "41460", "sgg_nm": "ì©ì¸ì", "lclsf_cd": "I", "lclsf_nm": "ìê°íê±´ì¡°ì§", "mclsf_cd": "ID", "mclsf_nm": "êµíµìì¤ì§", "sclsf_cd": "ID2", "sclsf_nm": "ì¼ë°ëë¡", "dclsf_cd": "ID2_2", "dclsf_nm": "ê°ë¡ì ìë ì¼ë°ëë¡", "ldc_lc_cd": "A", "ldc_lc_nm": "ìê°íê±´ì¡°ì§ì­", "ldc_mc_cd": "A5", "ldc_mc_nm": "êµíµì§ì­", "ldc_sc_cd": "A54", "ldc_sc_nm": "ëë¡", "shade": 0.1, "heat_score": 20.16, "heat_grade_norm": 0.556 }, "geometry": { "type": "Point", "coordinates": [ 127.087638699999985, 37.3169431 ] } },
{ "type": "Feature", "properties": { "osmid": 3696997293, "y": 37.3177682, "x": 127.0891462, "junction": null, "street_count": 3, "highway": null, "ref": null, "felt_temp": 36.986740112304688, "heat_grade": 8.0, "index_right": 4223.0, "uid": "ì©ì¸_12793", "sgg_cd": "41460", "sgg_nm": "ì©ì¸ì", "lclsf_cd": "I", "lclsf_nm": "ìê°íê±´ì¡°ì§", "mclsf_cd": "ID", "mclsf_nm": "êµíµìì¤ì§", "sclsf_cd": "ID2", "sclsf_nm": "ì¼ë°ëë¡", "dclsf_cd": "ID2_1", "dclsf_nm": "ê°ë¡ì ìë ì¼ë°ëë¡", "ldc_lc_cd": "A", "ldc_lc_nm": "ìê°íê±´ì¡°ì§ì­", "ldc_mc_cd": "A5", "ldc_mc_nm": "êµíµì§ì­", "ldc_sc_cd": "A54", "ldc_sc_nm": "ëë¡", "shade": 0.9, "heat_score": -3.25, "heat_grade_norm": 0.778 }, "geometry": { "type": "Point", "coordinates": [ 127.089146200000016, 37.3177682 ] } },
{ "type": "Feature", "properties": { "osmid": 414694371, "y": 37.3166525, "x": 127.0901614, "junction": "yes", "street_count": 5, "highway": null, "ref": null, "felt_temp": 37.042392730712891, "heat_grade": 9.0, "index_right": 4223.0, "uid": "ì©ì¸_12793", "sgg_cd": "41460", "sgg_nm": "ì©ì¸ì", "lclsf_cd": "I", "lclsf_nm": "ìê°íê±´ì¡°ì§", "mclsf_cd": "ID", "mclsf_nm": "êµíµìì¤ì§", "sclsf_cd": "ID2", "sclsf_nm": "ì¼ë°ëë¡", "dclsf_cd": "ID2_1", "dclsf_nm": "ê°ë¡ì ìë ì¼ë°ëë¡", "ldc_lc_cd": "A", "ldc_lc_nm": "ìê°íê±´ì¡°ì§ì­", "ldc_mc_cd": "A5", "ldc_mc_nm": "êµíµì§ì­", "ldc_sc_cd": "A54", "ldc_sc_nm": "ëë¡", "shade": 0.9, "heat_score": -3.0, "heat_grade_norm": 0.889 }, "geometry": { "type": "Point", "coordinates": [ 127.0901614, 37.3166525 ] } },
{ "type": "Feature", "properties": { "osmid": 7857963328, "y": 37.3211488, "x": 127.0973615, "junction": null, "street_count": 4, "highway": null, "ref": null, "felt_temp": 36.919723510742188, "heat_grade": 8.0, "index_right": 4223.0, "uid": "ì©ì¸_12793", "sgg_cd": "41460", "sgg_nm": "ì©ì¸ì", "lclsf_cd": "I", "lclsf_nm": "ìê°íê±´ì¡°ì§", "mclsf_cd": "ID", "mclsf_nm": "êµíµìì¤ì§", "sclsf_cd": "ID2", "sclsf_nm": "ì¼ë°ëë¡", "dclsf_cd": "ID2_1", "dclsf_nm": "ê°ë¡ì ìë ì¼ë°ëë¡", "ldc_lc_cd": "A", "ldc_lc_nm": "ìê°íê±´ì¡°ì§ì­", "ldc_mc_cd": "A5", "ldc_mc_nm": "êµíµì§ì­", "ldc_sc_cd": "A54", "ldc_sc_nm": "ëë¡", "shade": 0.9, "heat_score": -3.29, "heat_grade_norm": 0.778 }, "geometry": { "type": "Point", "coordinates": [ 127.097361500000019, 37.3211488 ] } },
{ "type": "Feature", "properties": { "osmid": 3638077030, "y": 37.3218259, "x": 127.0967371, "junction": null, "street_count": 3, "highway": null, "ref": null, "felt_temp": 37.017353057861328, "heat_grade": 9.0, "index_right": 4223.0, "uid": "ì©ì¸_12793", "sgg_cd": "41460", "sgg_nm": "ì©ì¸ì", "lclsf_cd": "I", "lclsf_nm": "ìê°íê±´ì¡°ì§", "mclsf_cd": "ID", "mclsf_nm": "êµíµìì¤ì§", "sclsf_cd": "ID2", "sclsf_nm": "ì¼ë°ëë¡", "dclsf_cd": "ID2_1", "dclsf_nm": "ê°ë¡ì ìë ì¼ë°ëë¡", "ldc_lc_cd": "A", "ldc_lc_nm": "ìê°íê±´ì¡°ì§ì­", "ldc_mc_cd": "A5", "ldc_mc_nm": "êµíµì§ì­", "ldc_sc_cd": "A54", "ldc_sc_nm": "ëë¡", "shade": 0.9, "heat_score": -3.01, "heat_grade_norm": 0.889 }, "geometry": { "type": "Point", "coordinates": [ 127.0967371, 37.3218259 ] } },
{ "type": "Feature", "properties": { "osmid": 3638077029, "y": 37.3214335, "x": 127.0960585, "junction": null, "street_count": 3, "highway": null, "ref": null, "felt_temp": 37.000438690185547, "heat_grade": 8.0, "index_right": 4223.0, "uid": "ì©ì¸_12793", "sgg_cd": "41460", "sgg_nm": "ì©ì¸ì", "lclsf_cd": "I", "lclsf_nm": "ìê°íê±´ì¡°ì§", "mclsf_cd": "ID", "mclsf_nm": "êµíµìì¤ì§", "sclsf_cd": "ID2", "sclsf_nm": "ì¼ë°ëë¡", "dclsf_cd": "ID2_1", "dclsf_nm": "ê°ë¡ì ìë ì¼ë°ëë¡", "ldc_lc_cd": "A", "ldc_lc_nm": "ìê°íê±´ì¡°ì§ì­", "ldc_mc_cd": "A5", "ldc_mc_nm": "êµíµì§ì­", "ldc_sc_cd": "A54", "ldc_sc_nm": "ëë¡", "shade": 0.9, "heat_score": -3.24, "heat_grade_norm": 0.778 }, "geometry": { "type": "Point", "coordinates": [ 127.096058500000012, 37.3214335 ] } },
{ "type": "Feature", "properties": { "osmid": 842899420, "y": 37.3207043, "x": 127.09478, "junction": null, "street_count": 3, "highway": null, "ref": null, "felt_temp": 36.872840881347656, "heat_grade": 8.0, "index_right": 4223.0, "uid": "ì©ì¸_12793", "sgg_cd": "41460", "sgg_nm": "ì©ì¸ì", "lclsf_cd": "I", "lclsf_nm": "ìê°íê±´ì¡°ì§", "mclsf_cd": "ID", "mclsf_nm": "êµíµìì¤ì§", "sclsf_cd": "ID2", "sclsf_nm": "ì¼ë°ëë¡", "dclsf_cd": "ID2_1", "dclsf_nm": "ê°ë¡ì ìë ì¼ë°ëë¡", "ldc_lc_cd": "A", "ldc_lc_nm": "ìê°íê±´ì¡°ì§ì­", "ldc_mc_cd": "A5", "ldc_mc_nm": "êµíµì§ì­", "ldc_sc_cd": "A54", "ldc_sc_nm": "ëë¡", "shade": 0.9, "heat_score": -3.32, "heat_grade_norm": 0.778 }, "geometry": { "type": "Point", "coordinates": [ 127.09478, 37.3207043 ] } },
{ "type": "Feature", "properties": { "osmid": 3699314315, "y": 37.3205454, "x": 127.0944996, "junction": null, "street_count": 3, "highway": null, "ref": null, "felt_temp": 36.655467987060547, "heat_grade": 3.0, "index_right": 3254.0, "uid": "ì©ì¸_119310", "sgg_cd": "41460", "sgg_nm": "ì©ì¸ì", "lclsf_cd": "I", "lclsf_nm": "ìê°íê±´ì¡°ì§", "mclsf_cd": "ID", "mclsf_nm": "êµíµìì¤ì§", "sclsf_cd": "ID3", "sclsf_nm": "ìëë¡", "dclsf_cd": null, "dclsf_nm": null, "ldc_lc_cd": "A", "ldc_lc_nm": "ìê°íê±´ì¡°ì§ì­", "ldc_mc_cd": "A5", "ldc_mc_nm": "êµíµì§ì­", "ldc_sc_cd": "A54", "ldc_sc_nm": "ëë¡", "shade": 0.3, "heat_score": 13.44, "heat_grade_norm": 0.222 }, "geometry": { "type": "Point", "coordinates": [ 127.0944996, 37.3205454 ] } },
{ "type": "Feature", "properties": { "osmid": 3699314314, "y": 37.3214806, "x": 127.093706, "junction": null, "street_count": 3, "highway": null, "ref": null, "felt_temp": 36.698959350585938, "heat_grade": 5.0, "index_right": 3254.0, "uid": "ì©ì¸_119310", "sgg_cd": "41460", "sgg_nm": "ì©ì¸ì", "lclsf_cd": "I", "lclsf_nm": "ìê°íê±´ì¡°ì§", "mclsf_cd": "ID", "mclsf_nm": "êµíµìì¤ì§", "sclsf_cd": "ID3", "sclsf_nm": "ìëë¡", "dclsf_cd": null, "dclsf_nm": null, "ldc_lc_cd": "A", "ldc_lc_nm": "ìê°íê±´ì¡°ì§ì­", "ldc_mc_cd": "A5", "ldc_mc_nm": "êµíµì§ì­", "ldc_sc_cd": "A54", "ldc_sc_nm": "ëë¡", "shade": 0.3, "heat_score": 13.91, "heat_grade_norm": 0.444 }, "geometry": { "type": "Point", "coordinates": [ 127.093706, 37.3214806 ] } },
{ "type": "Feature", "properties": { "osmid": 3699314313, "y": 37.3216475, "x": 127.093964, "junction": null, "street_count": 3, "highway": null, "ref": null, "felt_temp": 36.925197601318359, "heat_grade": 8.0, "index_right": 4223.0, "uid": "ì©ì¸_12793", "sgg_cd": "41460", "sgg_nm": "ì©ì¸ì", "lclsf_cd": "I", "lclsf_nm": "ìê°íê±´ì¡°ì§", "mclsf_cd": "ID", "mclsf_nm": "êµíµìì¤ì§", "sclsf_cd": "ID2", "sclsf_nm": "ì¼ë°ëë¡", "dclsf_cd": "ID2_1", "dclsf_nm": "ê°ë¡ì ìë ì¼ë°ëë¡", "ldc_lc_cd": "A", "ldc_lc_nm": "ìê°íê±´ì¡°ì§ì­", "ldc_mc_cd": "A5", "ldc_mc_nm": "êµíµì§ì­", "ldc_sc_cd": "A54", "ldc_sc_nm": "ëë¡", "shade": 0.9, "heat_score": -3.29, "heat_grade_norm": 0.778 }, "geometry": { "type": "Point", "coordinates": [ 127.093964, 37.3216475 ] } },
{ "type": "Feature", "properties": { "osmid": 842899419, "y": 37.3219477, "x": 127.0937055, "junction": "yes", "street_count": 4, "highway": null, "ref": null, "felt_temp": 36.409053802490234, "heat_grade": 1.0, "index_right": 4223.0, "uid": "ì©ì¸_12793", "sgg_cd": "41460", "sgg_nm": "ì©ì¸ì", "lclsf_cd": "I", "lclsf_nm": "ìê°íê±´ì¡°ì§", "mclsf_cd": "ID", "mclsf_nm": "êµíµìì¤ì§", "sclsf_cd": "ID2", "sclsf_nm": "ì¼ë°ëë¡", "dclsf_cd": "ID2_1", "dclsf_nm": "ê°ë¡ì ìë ì¼ë°ëë¡", "ldc_lc_cd": "A", "ldc_lc_nm": "ìê°íê±´ì¡°ì§ì­", "ldc_mc_cd": "A5", "ldc_mc_nm": "êµíµì§ì­", "ldc_sc_cd": "A54", "ldc_sc_nm": "ëë¡", "shade": 0.9, "heat_score": -5.15, "heat_grade_norm": 0.0 }, "geometry": { "type": "Point", "coordinates": [ 127.093705499999984, 37.3219477 ] } },
{ "type": "Feature", "properties": { "osmid": 6269743767, "y": 37.3225274, "x": 127.0947426, "junction": null, "street_count": 3, "highway": null, "ref": null, "felt_temp": 36.333759307861328, "heat_grade": 1.0, "index_right": 5914.0, "uid": "ì©ì¸_119265", "sgg_cd": "41460", "sgg_nm": "ì©ì¸ì", "lclsf_cd": "I", "lclsf_nm": "ìê°íê±´ì¡°ì§", "mclsf_cd": "ID", "mclsf_nm": "êµíµìì¤ì§", "sclsf_cd": "ID2", "sclsf_nm": "ì¼ë°ëë¡", "dclsf_cd": "ID2_2", "dclsf_nm": "ê°ë¡ì ìë ì¼ë°ëë¡", "ldc_lc_cd": "A", "ldc_lc_nm": "ìê°íê±´ì¡°ì§ì­", "ldc_mc_cd": "A5", "ldc_mc_nm": "êµíµì§ì­", "ldc_sc_cd": "A54", "ldc_sc_nm": "ëë¡", "shade": 0.1, "heat_score": 18.8, "heat_grade_norm": 0.0 }, "geometry": { "type": "Point", "coordinates": [ 127.094742600000018, 37.3225274 ] } },
{ "type": "Feature", "properties": { "osmid": 842899459, "y": 37.3230224, "x": 127.0956584, "junction": "yes", "street_count": 4, "highway": null, "ref": null, "felt_temp": 37.0230712890625, "heat_grade": 9.0, "index_right": 4223.0, "uid": "ì©ì¸_12793", "sgg_cd": "41460", "sgg_nm": "ì©ì¸ì", "lclsf_cd": "I", "lclsf_nm": "ìê°íê±´ì¡°ì§", "mclsf_cd": "ID", "mclsf_nm": "êµíµìì¤ì§", "sclsf_cd": "ID2", "sclsf_nm": "ì¼ë°ëë¡", "dclsf_cd": "ID2_1", "dclsf_nm": "ê°ë¡ì ìë ì¼ë°ëë¡", "ldc_lc_cd": "A", "ldc_lc_nm": "ìê°íê±´ì¡°ì§ì­", "ldc_mc_cd": "A5", "ldc_mc_nm": "êµíµì§ì­", "ldc_sc_cd": "A54", "ldc_sc_nm": "ëë¡", "shade": 0.9, "heat_score": -3.01, "heat_grade_norm": 0.889 }, "geometry": { "type": "Point", "coordinates": [ 127.0956584, 37.3230224 ] } },
{ "type": "Feature", "properties": { "osmid": 3638087285, "y": 37.323303, "x": 127.0961002, "junction": null, "street_count": 4, "highway": null, "ref": null, "felt_temp": 37.000988006591797, "heat_grade": 8.0, "index_right": 4223.0, "uid": "ì©ì¸_12793", "sgg_cd": "41460", "sgg_nm": "ì©ì¸ì", "lclsf_cd": "I", "lclsf_nm": "ìê°íê±´ì¡°ì§", "mclsf_cd": "ID", "mclsf_nm": "êµíµìì¤ì§", "sclsf_cd": "ID2", "sclsf_nm": "ì¼ë°ëë¡", "dclsf_cd": "ID2_1", "dclsf_nm": "ê°ë¡ì ìë ì¼ë°ëë¡", "ldc_lc_cd": "A", "ldc_lc_nm": "ìê°íê±´ì¡°ì§ì­", "ldc_mc_cd": "A5", "ldc_mc_nm": "êµíµì§ì­", "ldc_sc_cd": "A54", "ldc_sc_nm": "ëë¡", "shade": 0.9, "heat_score": -3.24, "heat_grade_norm": 0.778 }, "geometry": { "type": "Point", "coordinates": [ 127.0961002, 37.323303 ] } },
{ "type": "Feature", "properties": { "osmid": 3641792346, "y": 37.3229164, "x": 127.0964603, "junction": null, "street_count": 3, "highway": null, "ref": null, "felt_temp": 36.214061737060547, "heat_grade": 1.0, "index_right": 6270.0, "uid": "ì©ì¸_119325", "sgg_cd": "41460", "sgg_nm": "ì©ì¸ì", "lclsf_cd": "I", "lclsf_nm": "ìê°íê±´ì¡°ì§", "mclsf_cd": "ID", "mclsf_nm": "êµíµìì¤ì§", "sclsf_cd": "ID3", "sclsf_nm": "ìëë¡", "dclsf_cd": null, "dclsf_nm": null, "ldc_lc_cd": "A", "ldc_lc_nm": "ìê°íê±´ì¡°ì§ì­", "ldc_mc_cd": "A5", "ldc_mc_nm": "êµíµì§ì­", "ldc_sc_cd": "A54", "ldc_sc_nm": "ëë¡", "shade": 0.3, "heat_score": 12.73, "heat_grade_norm": 0.0 }, "geometry": { "type": "Point", "coordinates": [ 127.0964603, 37.3229164 ] } },
{ "type": "Feature", "properties": { "osmid": 3641792340, "y": 37.3233989, "x": 127.097248, "junction": null, "street_count": 4, "highway": null, "ref": null, "felt_temp": 36.859249114990234, "heat_grade": 8.0, "index_right": 6270.0, "uid": "ì©ì¸_119325", "sgg_cd": "41460", "sgg_nm": "ì©ì¸ì", "lclsf_cd": "I", "lclsf_nm": "ìê°íê±´ì¡°ì§", "mclsf_cd": "ID", "mclsf_nm": "êµíµìì¤ì§", "sclsf_cd": "ID3", "sclsf_nm": "ìëë¡", "dclsf_cd": null, "dclsf_nm": null, "ldc_lc_cd": "A", "ldc_lc_nm": "ìê°íê±´ì¡°ì§ì­", "ldc_mc_cd": "A5", "ldc_mc_nm": "êµíµì§ì­", "ldc_sc_cd": "A54", "ldc_sc_nm": "ëë¡", "shade": 0.3, "heat_score": 14.67, "heat_grade_norm": 0.778 }, "geometry": { "type": "Point", "coordinates": [ 127.097248, 37.3233989 ] } },
{ "type": "Feature", "properties": { "osmid": 3641674128, "y": 37.3238448, "x": 127.0980298, "junction": null, "street_count": 4, "highway": null, "ref": null, "felt_temp": 36.689125061035156, "heat_grade": 4.0, "index_right": 6270.0, "uid": "ì©ì¸_119325", "sgg_cd": "41460", "sgg_nm": "ì©ì¸ì", "lclsf_cd": "I", "lclsf_nm": "ìê°íê±´ì¡°ì§", "mclsf_cd": "ID", "mclsf_nm": "êµíµìì¤ì§", "sclsf_cd": "ID3", "sclsf_nm": "ìëë¡", "dclsf_cd": null, "dclsf_nm": null, "ldc_lc_cd": "A", "ldc_lc_nm": "ìê°íê±´ì¡°ì§ì­", "ldc_mc_cd": "A5", "ldc_mc_nm": "êµíµì§ì­", "ldc_sc_cd": "A54", "ldc_sc_nm": "ëë¡", "shade": 0.3, "heat_score": 13.68, "heat_grade_norm": 0.333 }, "geometry": { "type": "Point", "coordinates": [ 127.0980298, 37.3238448 ] } },
{ "type": "Feature", "properties": { "osmid": 3641674129, "y": 37.323493, "x": 127.0983393, "junction": null, "street_count": 4, "highway": null, "ref": null, "felt_temp": 36.843082427978516, "heat_grade": 8.0, "index_right": 6270.0, "uid": "ì©ì¸_119325", "sgg_cd": "41460", "sgg_nm": "ì©ì¸ì", "lclsf_cd": "I", "lclsf_nm": "ìê°íê±´ì¡°ì§", "mclsf_cd": "ID", "mclsf_nm": "êµíµìì¤ì§", "sclsf_cd": "ID3", "sclsf_nm": "ìëë¡", "dclsf_cd": null, "dclsf_nm": null, "ldc_lc_cd": "A", "ldc_lc_nm": "ìê°íê±´ì¡°ì§ì­", "ldc_mc_cd": "A5", "ldc_mc_nm": "êµíµì§ì­", "ldc_sc_cd": "A54", "ldc_sc_nm": "ëë¡", "shade": 0.3, "heat_score": 14.66, "heat_grade_norm": 0.778 }, "geometry": { "type": "Point", "coordinates": [ 127.0983393, 37.323493 ] } },
{ "type": "Feature", "properties": { "osmid": 3641674136, "y": 37.3236098, "x": 127.0985459, "junction": null, "street_count": 3, "highway": null, "ref": null, "felt_temp": 36.824527740478516, "heat_grade": 8.0, "index_right": 6270.0, "uid": "ì©ì¸_119325", "sgg_cd": "41460", "sgg_nm": "ì©ì¸ì", "lclsf_cd": "I", "lclsf_nm": "ìê°íê±´ì¡°ì§", "mclsf_cd": "ID", "mclsf_nm": "êµíµìì¤ì§", "sclsf_cd": "ID3", "sclsf_nm": "ìëë¡", "dclsf_cd": null, "dclsf_nm": null, "ldc_lc_cd": "A", "ldc_lc_nm": "ìê°íê±´ì¡°ì§ì­", "ldc_mc_cd": "A5", "ldc_mc_nm": "êµíµì§ì­", "ldc_sc_cd": "A54", "ldc_sc_nm": "ëë¡", "shade": 0.3, "heat_score": 14.65, "heat_grade_norm": 0.778 }, "geometry": { "type": "Point", "coordinates": [ 127.0985459, 37.3236098 ] } },
{ "type": "Feature", "properties": { "osmid": 3641673370, "y": 37.3241074, "x": 127.0994083, "junction": null, "street_count": 4, "highway": null, "ref": null, "felt_temp": 36.522422790527344, "heat_grade": 2.0, "index_right": 6270.0, "uid": "ì©ì¸_119325", "sgg_cd": "41460", "sgg_nm": "ì©ì¸ì", "lclsf_cd": "I", "lclsf_nm": "ìê°íê±´ì¡°ì§", "mclsf_cd": "ID", "mclsf_nm": "êµíµìì¤ì§", "sclsf_cd": "ID3", "sclsf_nm": "ìëë¡", "dclsf_cd": null, "dclsf_nm": null, "ldc_lc_cd": "A", "ldc_lc_nm": "ìê°íê±´ì¡°ì§ì­", "ldc_mc_cd": "A5", "ldc_mc_nm": "êµíµì§ì­", "ldc_sc_cd": "A54", "ldc_sc_nm": "ëë¡", "shade": 0.3, "heat_score": 13.14, "heat_grade_norm": 0.111 }, "geometry": { "type": "Point", "coordinates": [ 127.0994083, 37.3241074 ] } },
{ "type": "Feature", "properties": { "osmid": 3641672247, "y": 37.3247977, "x": 127.1005585, "junction": null, "street_count": 4, "highway": null, "ref": null, "felt_temp": 36.854511260986328, "heat_grade": 8.0, "index_right": 6270.0, "uid": "ì©ì¸_119325", "sgg_cd": "41460", "sgg_nm": "ì©ì¸ì", "lclsf_cd": "I", "lclsf_nm": "ìê°íê±´ì¡°ì§", "mclsf_cd": "ID", "mclsf_nm": "êµíµìì¤ì§", "sclsf_cd": "ID3", "sclsf_nm": "ìëë¡", "dclsf_cd": null, "dclsf_nm": null, "ldc_lc_cd": "A", "ldc_lc_nm": "ìê°íê±´ì¡°ì§ì­", "ldc_mc_cd": "A5", "ldc_mc_nm": "êµíµì§ì­", "ldc_sc_cd": "A54", "ldc_sc_nm": "ëë¡", "shade": 0.3, "heat_score": 14.67, "heat_grade_norm": 0.778 }, "geometry": { "type": "Point", "coordinates": [ 127.10055850000002, 37.3247977 ] } },
{ "type": "Feature", "properties": { "osmid": 3642437650, "y": 37.3250969, "x": 127.101037, "junction": null, "street_count": 3, "highway": null, "ref": null, "felt_temp": 36.873291015625, "heat_grade": 8.0, "index_right": 6270.0, "uid": "ì©ì¸_119325", "sgg_cd": "41460", "sgg_nm": "ì©ì¸ì", "lclsf_cd": "I", "lclsf_nm": "ìê°íê±´ì¡°ì§", "mclsf_cd": "ID", "mclsf_nm": "êµíµìì¤ì§", "sclsf_cd": "ID3", "sclsf_nm": "ìëë¡", "dclsf_cd": null, "dclsf_nm": null, "ldc_lc_cd": "A", "ldc_lc_nm": "ìê°íê±´ì¡°ì§ì­", "ldc_mc_cd": "A5", "ldc_mc_nm": "êµíµì§ì­", "ldc_sc_cd": "A54", "ldc_sc_nm": "ëë¡", "shade": 0.3, "heat_score": 14.68, "heat_grade_norm": 0.778 }, "geometry": { "type": "Point", "coordinates": [ 127.101037, 37.3250969 ] } },
{ "type": "Feature", "properties": { "osmid": 3641672248, "y": 37.3257044, "x": 127.1019654, "junction": null, "street_count": 3, "highway": null, "ref": null, "felt_temp": 36.043140411376953, "heat_grade": 1.0, "index_right": 6270.0, "uid": "ì©ì¸_119325", "sgg_cd": "41460", "sgg_nm": "ì©ì¸ì", "lclsf_cd": "I", "lclsf_nm": "ìê°íê±´ì¡°ì§", "mclsf_cd": "ID", "mclsf_nm": "êµíµìì¤ì§", "sclsf_cd": "ID3", "sclsf_nm": "ìëë¡", "dclsf_cd": null, "dclsf_nm": null, "ldc_lc_cd": "A", "ldc_lc_nm": "ìê°íê±´ì¡°ì§ì­", "ldc_mc_cd": "A5", "ldc_mc_nm": "êµíµì§ì­", "ldc_sc_cd": "A54", "ldc_sc_nm": "ëë¡", "shade": 0.3, "heat_score": 12.63, "heat_grade_norm": 0.0 }, "geometry": { "type": "Point", "coordinates": [ 127.101965400000012, 37.3257044 ] } },
{ "type": "Feature", "properties": { "osmid": 3638087029, "y": 37.3261304, "x": 127.1017969, "junction": null, "street_count": 4, "highway": null, "ref": null, "felt_temp": 36.711917877197266, "heat_grade": 5.0, "index_right": 6270.0, "uid": "ì©ì¸_119325", "sgg_cd": "41460", "sgg_nm": "ì©ì¸ì", "lclsf_cd": "I", "lclsf_nm": "ìê°íê±´ì¡°ì§", "mclsf_cd": "ID", "mclsf_nm": "êµíµìì¤ì§", "sclsf_cd": "ID3", "sclsf_nm": "ìëë¡", "dclsf_cd": null, "dclsf_nm": null, "ldc_lc_cd": "A", "ldc_lc_nm": "ìê°íê±´ì¡°ì§ì­", "ldc_mc_cd": "A5", "ldc_mc_nm": "êµíµì§ì­", "ldc_sc_cd": "A54", "ldc_sc_nm": "ëë¡", "shade": 0.3, "heat_score": 13.92, "heat_grade_norm": 0.444 }, "geometry": { "type": "Point", "coordinates": [ 127.1017969, 37.3261304 ] } },
{ "type": "Feature", "properties": { "osmid": 3641672246, "y": 37.3251679, "x": 127.1002066, "junction": null, "street_count": 4, "highway": null, "ref": null, "felt_temp": 36.491558074951172, "heat_grade": 2.0, "index_right": 6270.0, "uid": "ì©ì¸_119325", "sgg_cd": "41460", "sgg_nm": "ì©ì¸ì", "lclsf_cd": "I", "lclsf_nm": "ìê°íê±´ì¡°ì§", "mclsf_cd": "ID", "mclsf_nm": "êµíµìì¤ì§", "sclsf_cd": "ID3", "sclsf_nm": "ìëë¡", "dclsf_cd": null, "dclsf_nm": null, "ldc_lc_cd": "A", "ldc_lc_nm": "ìê°íê±´ì¡°ì§ì­", "ldc_mc_cd": "A5", "ldc_mc_nm": "êµíµì§ì­", "ldc_sc_cd": "A54", "ldc_sc_nm": "ëë¡", "shade": 0.3, "heat_score": 13.12, "heat_grade_norm": 0.111 }, "geometry": { "type": "Point", "coordinates": [ 127.100206600000021, 37.3251679 ] } },
{ "type": "Feature", "properties": { "osmid": 3641672247, "y": 37.3247977, "x": 127.1005585, "junction": null, "street_count": 4, "highway": null, "ref": null, "felt_temp": 36.854511260986328, "heat_grade": 8.0, "index_right": 6270.0, "uid": "ì©ì¸_119325", "sgg_cd": "41460", "sgg_nm": "ì©ì¸ì", "lclsf_cd": "I", "lclsf_nm": "ìê°íê±´ì¡°ì§", "mclsf_cd": "ID", "mclsf_nm": "êµíµìì¤ì§", "sclsf_cd": "ID3", "sclsf_nm": "ìëë¡", "dclsf_cd": null, "dclsf_nm": null, "ldc_lc_cd": "A", "ldc_lc_nm": "ìê°íê±´ì¡°ì§ì­", "ldc_mc_cd": "A5", "ldc_mc_nm": "êµíµì§ì­", "ldc_sc_cd": "A54", "ldc_sc_nm": "ëë¡", "shade": 0.3, "heat_score": 14.67, "heat_grade_norm": 0.778 }, "geometry": { "type": "Point", "coordinates": [ 127.10055850000002, 37.3247977 ] } },
{ "type": "Feature", "properties": { "osmid": 3642437652, "y": 37.3245205, "x": 127.1008219, "junction": null, "street_count": 3, "highway": null, "ref": null, "felt_temp": 36.642795562744141, "heat_grade": 3.0, "index_right": 6270.0, "uid": "ì©ì¸_119325", "sgg_cd": "41460", "sgg_nm": "ì©ì¸ì", "lclsf_cd": "I", "lclsf_nm": "ìê°íê±´ì¡°ì§", "mclsf_cd": "ID", "mclsf_nm": "êµíµìì¤ì§", "sclsf_cd": "ID3", "sclsf_nm": "ìëë¡", "dclsf_cd": null, "dclsf_nm": null, "ldc_lc_cd": "A", "ldc_lc_nm": "ìê°íê±´ì¡°ì§ì­", "ldc_mc_cd": "A5", "ldc_mc_nm": "êµíµì§ì­", "ldc_sc_cd": "A54", "ldc_sc_nm": "ëë¡", "shade": 0.3, "heat_score": 13.43, "heat_grade_norm": 0.222 }, "geometry": { "type": "Point", "coordinates": [ 127.1008219, 37.3245205 ] } },
{ "type": "Feature", "properties": { "osmid": 3641673371, "y": 37.3244628, "x": 127.1008767, "junction": null, "street_count": 3, "highway": null, "ref": null, "felt_temp": 36.642795562744141, "heat_grade": 3.0, "index_right": 6270.0, "uid": "ì©ì¸_119325", "sgg_cd": "41460", "sgg_nm": "ì©ì¸ì", "lclsf_cd": "I", "lclsf_nm": "ìê°íê±´ì¡°ì§", "mclsf_cd": "ID", "mclsf_nm": "êµíµìì¤ì§", "sclsf_cd": "ID3", "sclsf_nm": "ìëë¡", "dclsf_cd": null, "dclsf_nm": null, "ldc_lc_cd": "A", "ldc_lc_nm": "ìê°íê±´ì¡°ì§ì­", "ldc_mc_cd": "A5", "ldc_mc_nm": "êµíµì§ì­", "ldc_sc_cd": "A54", "ldc_sc_nm": "ëë¡", "shade": 0.3, "heat_score": 13.43, "heat_grade_norm": 0.222 }, "geometry": { "type": "Point", "coordinates": [ 127.1008767, 37.3244628 ] } },
{ "type": "Feature", "properties": { "osmid": 3641673372, "y": 37.3237874, "x": 127.0997139, "junction": null, "street_count": 4, "highway": null, "ref": null, "felt_temp": 36.323444366455078, "heat_grade": 1.0, "index_right": 6270.0, "uid": "ì©ì¸_119325", "sgg_cd": "41460", "sgg_nm": "ì©ì¸ì", "lclsf_cd": "I", "lclsf_nm": "ìê°íê±´ì¡°ì§", "mclsf_cd": "ID", "mclsf_nm": "êµíµìì¤ì§", "sclsf_cd": "ID3", "sclsf_nm": "ìëë¡", "dclsf_cd": null, "dclsf_nm": null, "ldc_lc_cd": "A", "ldc_lc_nm": "ìê°íê±´ì¡°ì§ì­", "ldc_mc_cd": "A5", "ldc_mc_nm": "êµíµì§ì­", "ldc_sc_cd": "A54", "ldc_sc_nm": "ëë¡", "shade": 0.3, "heat_score": 12.79, "heat_grade_norm": 0.0 }, "geometry": { "type": "Point", "coordinates": [ 127.0997139, 37.3237874 ] } },
{ "type": "Feature", "properties": { "osmid": 3641673370, "y": 37.3241074, "x": 127.0994083, "junction": null, "street_count": 4, "highway": null, "ref": null, "felt_temp": 36.522422790527344, "heat_grade": 2.0, "index_right": 6270.0, "uid": "ì©ì¸_119325", "sgg_cd": "41460", "sgg_nm": "ì©ì¸ì", "lclsf_cd": "I", "lclsf_nm": "ìê°íê±´ì¡°ì§", "mclsf_cd": "ID", "mclsf_nm": "êµíµìì¤ì§", "sclsf_cd": "ID3", "sclsf_nm": "ìëë¡", "dclsf_cd": null, "dclsf_nm": null, "ldc_lc_cd": "A", "ldc_lc_nm": "ìê°íê±´ì¡°ì§ì­", "ldc_mc_cd": "A5", "ldc_mc_nm": "êµíµì§ì­", "ldc_sc_cd": "A54", "ldc_sc_nm": "ëë¡", "shade": 0.3, "heat_score": 13.14, "heat_grade_norm": 0.111 }, "geometry": { "type": "Point", "coordinates": [ 127.0994083, 37.3241074 ] } },
{ "type": "Feature", "properties": { "osmid": 3641673369, "y": 37.3244719, "x": 127.0990664, "junction": null, "street_count": 4, "highway": null, "ref": null, "felt_temp": 36.841495513916016, "heat_grade": 8.0, "index_right": 6270.0, "uid": "ì©ì¸_119325", "sgg_cd": "41460", "sgg_nm": "ì©ì¸ì", "lclsf_cd": "I", "lclsf_nm": "ìê°íê±´ì¡°ì§", "mclsf_cd": "ID", "mclsf_nm": "êµíµìì¤ì§", "sclsf_cd": "ID3", "sclsf_nm": "ìëë¡", "dclsf_cd": null, "dclsf_nm": null, "ldc_lc_cd": "A", "ldc_lc_nm": "ìê°íê±´ì¡°ì§ì­", "ldc_mc_cd": "A5", "ldc_mc_nm": "êµíµì§ì­", "ldc_sc_cd": "A54", "ldc_sc_nm": "ëë¡", "shade": 0.3, "heat_score": 14.66, "heat_grade_norm": 0.778 }, "geometry": { "type": "Point", "coordinates": [ 127.0990664, 37.3244719 ] } },
{ "type": "Feature", "properties": { "osmid": 3641674128, "y": 37.3238448, "x": 127.0980298, "junction": null, "street_count": 4, "highway": null, "ref": null, "felt_temp": 36.689125061035156, "heat_grade": 4.0, "index_right": 6270.0, "uid": "ì©ì¸_119325", "sgg_cd": "41460", "sgg_nm": "ì©ì¸ì", "lclsf_cd": "I", "lclsf_nm": "ìê°íê±´ì¡°ì§", "mclsf_cd": "ID", "mclsf_nm": "êµíµìì¤ì§", "sclsf_cd": "ID3", "sclsf_nm": "ìëë¡", "dclsf_cd": null, "dclsf_nm": null, "ldc_lc_cd": "A", "ldc_lc_nm": "ìê°íê±´ì¡°ì§ì­", "ldc_mc_cd": "A5", "ldc_mc_nm": "êµíµì§ì­", "ldc_sc_cd": "A54", "ldc_sc_nm": "ëë¡", "shade": 0.3, "heat_score": 13.68, "heat_grade_norm": 0.333 }, "geometry": { "type": "Point", "coordinates": [ 127.0980298, 37.3238448 ] } },
{ "type": "Feature", "properties": { "osmid": 3638088182, "y": 37.3242444, "x": 127.0976838, "junction": null, "street_count": 4, "highway": null, "ref": null, "felt_temp": 36.994365692138672, "heat_grade": 8.0, "index_right": 4223.0, "uid": "ì©ì¸_12793", "sgg_cd": "41460", "sgg_nm": "ì©ì¸ì", "lclsf_cd": "I", "lclsf_nm": "ìê°íê±´ì¡°ì§", "mclsf_cd": "ID", "mclsf_nm": "êµíµìì¤ì§", "sclsf_cd": "ID2", "sclsf_nm": "ì¼ë°ëë¡", "dclsf_cd": "ID2_1", "dclsf_nm": "ê°ë¡ì ìë ì¼ë°ëë¡", "ldc_lc_cd": "A", "ldc_lc_nm": "ìê°íê±´ì¡°ì§ì­", "ldc_mc_cd": "A5", "ldc_mc_nm": "êµíµì§ì­", "ldc_sc_cd": "A54", "ldc_sc_nm": "ëë¡", "shade": 0.9, "heat_score": -3.25, "heat_grade_norm": 0.778 }, "geometry": { "type": "Point", "coordinates": [ 127.097683799999984, 37.3242444 ] } },
{ "type": "Feature", "properties": { "osmid": 3653760000, "y": 37.3246794, "x": 127.0972807, "junction": null, "street_count": 3, "highway": null, "ref": null, "felt_temp": 36.137176513671875, "heat_grade": 1.0, "index_right": 6231.0, "uid": "ì©ì¸_119343", "sgg_cd": "41460", "sgg_nm": "ì©ì¸ì", "lclsf_cd": "I", "lclsf_nm": "ìê°íê±´ì¡°ì§", "mclsf_cd": "ID", "mclsf_nm": "êµíµìì¤ì§", "sclsf_cd": "ID3", "sclsf_nm": "ìëë¡", "dclsf_cd": null, "dclsf_nm": null, "ldc_lc_cd": "A", "ldc_lc_nm": "ìê°íê±´ì¡°ì§ì­", "ldc_mc_cd": "A5", "ldc_mc_nm": "êµíµì§ì­", "ldc_sc_cd": "A54", "ldc_sc_nm": "ëë¡", "shade": 0.3, "heat_score": 12.68, "heat_grade_norm": 0.0 }, "geometry": { "type": "Point", "coordinates": [ 127.0972807, 37.3246794 ] } },
{ "type": "Feature", "properties": { "osmid": 3653759999, "y": 37.3250502, "x": 127.096937, "junction": null, "street_count": 3, "highway": null, "ref": null, "felt_temp": 36.530590057373047, "heat_grade": 2.0, "index_right": 6231.0, "uid": "ì©ì¸_119343", "sgg_cd": "41460", "sgg_nm": "ì©ì¸ì", "lclsf_cd": "I", "lclsf_nm": "ìê°íê±´ì¡°ì§", "mclsf_cd": "ID", "mclsf_nm": "êµíµìì¤ì§", "sclsf_cd": "ID3", "sclsf_nm": "ìëë¡", "dclsf_cd": null, "dclsf_nm": null, "ldc_lc_cd": "A", "ldc_lc_nm": "ìê°íê±´ì¡°ì§ì­", "ldc_mc_cd": "A5", "ldc_mc_nm": "êµíµì§ì­", "ldc_sc_cd": "A54", "ldc_sc_nm": "ëë¡", "shade": 0.3, "heat_score": 13.14, "heat_grade_norm": 0.111 }, "geometry": { "type": "Point", "coordinates": [ 127.096937, 37.3250502 ] } },
{ "type": "Feature", "properties": { "osmid": 3653759998, "y": 37.3254235, "x": 127.0965911, "junction": null, "street_count": 3, "highway": null, "ref": null, "felt_temp": 36.496986389160156, "heat_grade": 2.0, "index_right": 6231.0, "uid": "ì©ì¸_119343", "sgg_cd": "41460", "sgg_nm": "ì©ì¸ì", "lclsf_cd": "I", "lclsf_nm": "ìê°íê±´ì¡°ì§", "mclsf_cd": "ID", "mclsf_nm": "êµíµìì¤ì§", "sclsf_cd": "ID3", "sclsf_nm": "ìëë¡", "dclsf_cd": null, "dclsf_nm": null, "ldc_lc_cd": "A", "ldc_lc_nm": "ìê°íê±´ì¡°ì§ì­", "ldc_mc_cd": "A5", "ldc_mc_nm": "êµíµì§ì­", "ldc_sc_cd": "A54", "ldc_sc_nm": "ëë¡", "shade": 0.3, "heat_score": 13.12, "heat_grade_norm": 0.111 }, "geometry": { "type": "Point", "coordinates": [ 127.096591100000012, 37.3254235 ] } },
{ "type": "Feature", "properties": { "osmid": 3638088181, "y": 37.325803, "x": 127.0962394, "junction": null, "street_count": 3, "highway": null, "ref": null, "felt_temp": 36.311954498291016, "heat_grade": 1.0, "index_right": 4223.0, "uid": "ì©ì¸_12793", "sgg_cd": "41460", "sgg_nm": "ì©ì¸ì", "lclsf_cd": "I", "lclsf_nm": "ìê°íê±´ì¡°ì§", "mclsf_cd": "ID", "mclsf_nm": "êµíµìì¤ì§", "sclsf_cd": "ID2", "sclsf_nm": "ì¼ë°ëë¡", "dclsf_cd": "ID2_1", "dclsf_nm": "ê°ë¡ì ìë ì¼ë°ëë¡", "ldc_lc_cd": "A", "ldc_lc_nm": "ìê°íê±´ì¡°ì§ì­", "ldc_mc_cd": "A5", "ldc_mc_nm": "êµíµì§ì­", "ldc_sc_cd": "A54", "ldc_sc_nm": "ëë¡", "shade": 0.9, "heat_score": -5.21, "heat_grade_norm": 0.0 }, "geometry": { "type": "Point", "coordinates": [ 127.096239400000016, 37.325803 ] } },
{ "type": "Feature", "properties": { "osmid": 3638084966, "y": 37.3253146, "x": 127.0954602, "junction": null, "street_count": 3, "highway": null, "ref": null, "felt_temp": 36.753894805908203, "heat_grade": 6.0, "index_right": 4223.0, "uid": "ì©ì¸_12793", "sgg_cd": "41460", "sgg_nm": "ì©ì¸ì", "lclsf_cd": "I", "lclsf_nm": "ìê°íê±´ì¡°ì§", "mclsf_cd": "ID", "mclsf_nm": "êµíµìì¤ì§", "sclsf_cd": "ID2", "sclsf_nm": "ì¼ë°ëë¡", "dclsf_cd": "ID2_1", "dclsf_nm": "ê°ë¡ì ìë ì¼ë°ëë¡", "ldc_lc_cd": "A", "ldc_lc_nm": "ìê°íê±´ì¡°ì§ì­", "ldc_mc_cd": "A5", "ldc_mc_nm": "êµíµì§ì­", "ldc_sc_cd": "A54", "ldc_sc_nm": "ëë¡", "shade": 0.9, "heat_score": -3.84, "heat_grade_norm": 0.556 }, "geometry": { "type": "Point", "coordinates": [ 127.095460200000019, 37.3253146 ] } },
{ "type": "Feature", "properties": { "osmid": 3638088208, "y": 37.3248421, "x": 127.0946582, "junction": null, "street_count": 3, "highway": null, "ref": null, "felt_temp": 36.363399505615234, "heat_grade": 1.0, "index_right": 4223.0, "uid": "ì©ì¸_12793", "sgg_cd": "41460", "sgg_nm": "ì©ì¸ì", "lclsf_cd": "I", "lclsf_nm": "ìê°íê±´ì¡°ì§", "mclsf_cd": "ID", "mclsf_nm": "êµíµìì¤ì§", "sclsf_cd": "ID2", "sclsf_nm": "ì¼ë°ëë¡", "dclsf_cd": "ID2_1", "dclsf_nm": "ê°ë¡ì ìë ì¼ë°ëë¡", "ldc_lc_cd": "A", "ldc_lc_nm": "ìê°íê±´ì¡°ì§ì­", "ldc_mc_cd": "A5", "ldc_mc_nm": "êµíµì§ì­", "ldc_sc_cd": "A54", "ldc_sc_nm": "ëë¡", "shade": 0.9, "heat_score": -5.18, "heat_grade_norm": 0.0 }, "geometry": { "type": "Point", "coordinates": [ 127.0946582, 37.3248421 ] } },
{ "type": "Feature", "properties": { "osmid": 3638077031, "y": 37.3246025, "x": 127.0942248, "junction": "yes", "street_count": 4, "highway": null, "ref": null, "felt_temp": 36.874294281005859, "heat_grade": 8.0, "index_right": 4223.0, "uid": "ì©ì¸_12793", "sgg_cd": "41460", "sgg_nm": "ì©ì¸ì", "lclsf_cd": "I", "lclsf_nm": "ìê°íê±´ì¡°ì§", "mclsf_cd": "ID", "mclsf_nm": "êµíµìì¤ì§", "sclsf_cd": "ID2", "sclsf_nm": "ì¼ë°ëë¡", "dclsf_cd": "ID2_1", "dclsf_nm": "ê°ë¡ì ìë ì¼ë°ëë¡", "ldc_lc_cd": "A", "ldc_lc_nm": "ìê°íê±´ì¡°ì§ì­", "ldc_mc_cd": "A5", "ldc_mc_nm": "êµíµì§ì­", "ldc_sc_cd": "A54", "ldc_sc_nm": "ëë¡", "shade": 0.9, "heat_score": -3.32, "heat_grade_norm": 0.778 }, "geometry": { "type": "Point", "coordinates": [ 127.0942248, 37.3246025 ] } },
{ "type": "Feature", "properties": { "osmid": 414694398, "y": 37.326356, "x": 127.0926264, "junction": null, "street_count": 4, "highway": null, "ref": null, "felt_temp": 36.884750366210938, "heat_grade": 8.0, "index_right": 4223.0, "uid": "ì©ì¸_12793", "sgg_cd": "41460", "sgg_nm": "ì©ì¸ì", "lclsf_cd": "I", "lclsf_nm": "ìê°íê±´ì¡°ì§", "mclsf_cd": "ID", "mclsf_nm": "êµíµìì¤ì§", "sclsf_cd": "ID2", "sclsf_nm": "ì¼ë°ëë¡", "dclsf_cd": "ID2_1", "dclsf_nm": "ê°ë¡ì ìë ì¼ë°ëë¡", "ldc_lc_cd": "A", "ldc_lc_nm": "ìê°íê±´ì¡°ì§ì­", "ldc_mc_cd": "A5", "ldc_mc_nm": "êµíµì§ì­", "ldc_sc_cd": "A54", "ldc_sc_nm": "ëë¡", "shade": 0.9, "heat_score": -3.31, "heat_grade_norm": 0.778 }, "geometry": { "type": "Point", "coordinates": [ 127.0926264, 37.326356 ] } },
{ "type": "Feature", "properties": { "osmid": 3677038134, "y": 37.3252036, "x": 127.0906788, "junction": "yes", "street_count": 4, "highway": null, "ref": null, "felt_temp": 37.018669128417969, "heat_grade": 9.0, "index_right": 4223.0, "uid": "ì©ì¸_12793", "sgg_cd": "41460", "sgg_nm": "ì©ì¸ì", "lclsf_cd": "I", "lclsf_nm": "ìê°íê±´ì¡°ì§", "mclsf_cd": "ID", "mclsf_nm": "êµíµìì¤ì§", "sclsf_cd": "ID2", "sclsf_nm": "ì¼ë°ëë¡", "dclsf_cd": "ID2_1", "dclsf_nm": "ê°ë¡ì ìë ì¼ë°ëë¡", "ldc_lc_cd": "A", "ldc_lc_nm": "ìê°íê±´ì¡°ì§ì­", "ldc_mc_cd": "A5", "ldc_mc_nm": "êµíµì§ì­", "ldc_sc_cd": "A54", "ldc_sc_nm": "ëë¡", "shade": 0.9, "heat_score": -3.01, "heat_grade_norm": 0.889 }, "geometry": { "type": "Point", "coordinates": [ 127.0906788, 37.3252036 ] } },
{ "type": "Feature", "properties": { "osmid": 13539327778, "y": 37.325315, "x": 127.0905735, "junction": null, "street_count": 4, "highway": null, "ref": null, "felt_temp": 37.118171691894531, "heat_grade": 9.0, "index_right": 4223.0, "uid": "ì©ì¸_12793", "sgg_cd": "41460", "sgg_nm": "ì©ì¸ì", "lclsf_cd": "I", "lclsf_nm": "ìê°íê±´ì¡°ì§", "mclsf_cd": "ID", "mclsf_nm": "êµíµìì¤ì§", "sclsf_cd": "ID2", "sclsf_nm": "ì¼ë°ëë¡", "dclsf_cd": "ID2_1", "dclsf_nm": "ê°ë¡ì ìë ì¼ë°ëë¡", "ldc_lc_cd": "A", "ldc_lc_nm": "ìê°íê±´ì¡°ì§ì­", "ldc_mc_cd": "A5", "ldc_mc_nm": "êµíµì§ì­", "ldc_sc_cd": "A54", "ldc_sc_nm": "ëë¡", "shade": 0.9, "heat_score": -2.95, "heat_grade_norm": 0.889 }, "geometry": { "type": "Point", "coordinates": [ 127.0905735, 37.325315 ] } },
{ "type": "Feature", "properties": { "osmid": 13539327774, "y": 37.3231401, "x": 127.0869739, "junction": "yes", "street_count": 3, "highway": null, "ref": null, "felt_temp": 36.866199493408203, "heat_grade": 8.0, "index_right": 4223.0, "uid": "ì©ì¸_12793", "sgg_cd": "41460", "sgg_nm": "ì©ì¸ì", "lclsf_cd": "I", "lclsf_nm": "ìê°íê±´ì¡°ì§", "mclsf_cd": "ID", "mclsf_nm": "êµíµìì¤ì§", "sclsf_cd": "ID2", "sclsf_nm": "ì¼ë°ëë¡", "dclsf_cd": "ID2_1", "dclsf_nm": "ê°ë¡ì ìë ì¼ë°ëë¡", "ldc_lc_cd": "A", "ldc_lc_nm": "ìê°íê±´ì¡°ì§ì­", "ldc_mc_cd": "A5", "ldc_mc_nm": "êµíµì§ì­", "ldc_sc_cd": "A54", "ldc_sc_nm": "ëë¡", "shade": 0.9, "heat_score": -3.32, "heat_grade_norm": 0.778 }, "geometry": { "type": "Point", "coordinates": [ 127.0869739, 37.32314010000001 ] } },
{ "type": "Feature", "properties": { "osmid": 3529513813, "y": 37.3211455, "x": 127.0849024, "junction": null, "street_count": 3, "highway": null, "ref": null, "felt_temp": 37.042728424072266, "heat_grade": 9.0, "index_right": 4223.0, "uid": "ì©ì¸_12793", "sgg_cd": "41460", "sgg_nm": "ì©ì¸ì", "lclsf_cd": "I", "lclsf_nm": "ìê°íê±´ì¡°ì§", "mclsf_cd": "ID", "mclsf_nm": "êµíµìì¤ì§", "sclsf_cd": "ID2", "sclsf_nm": "ì¼ë°ëë¡", "dclsf_cd": "ID2_1", "dclsf_nm": "ê°ë¡ì ìë ì¼ë°ëë¡", "ldc_lc_cd": "A", "ldc_lc_nm": "ìê°íê±´ì¡°ì§ì­", "ldc_mc_cd": "A5", "ldc_mc_nm": "êµíµì§ì­", "ldc_sc_cd": "A54", "ldc_sc_nm": "ëë¡", "shade": 0.9, "heat_score": -3.0, "heat_grade_norm": 0.889 }, "geometry": { "type": "Point", "coordinates": [ 127.0849024, 37.3211455 ] } },
{ "type": "Feature", "properties": { "osmid": 11831009780, "y": 37.3201961, "x": 127.0843232, "junction": null, "street_count": 3, "highway": null, "ref": null, "felt_temp": 36.902721405029297, "heat_grade": 8.0, "index_right": 4223.0, "uid": "ì©ì¸_12793", "sgg_cd": "41460", "sgg_nm": "ì©ì¸ì", "lclsf_cd": "I", "lclsf_nm": "ìê°íê±´ì¡°ì§", "mclsf_cd": "ID", "mclsf_nm": "êµíµìì¤ì§", "sclsf_cd": "ID2", "sclsf_nm": "ì¼ë°ëë¡", "dclsf_cd": "ID2_1", "dclsf_nm": "ê°ë¡ì ìë ì¼ë°ëë¡", "ldc_lc_cd": "A", "ldc_lc_nm": "ìê°íê±´ì¡°ì§ì­", "ldc_mc_cd": "A5", "ldc_mc_nm": "êµíµì§ì­", "ldc_sc_cd": "A54", "ldc_sc_nm": "ëë¡", "shade": 0.9, "heat_score": -3.3, "heat_grade_norm": 0.778 }, "geometry": { "type": "Point", "coordinates": [ 127.0843232, 37.3201961 ] } },
{ "type": "Feature", "properties": { "osmid": 3529513823, "y": 37.320511, "x": 127.0830891, "junction": null, "street_count": 3, "highway": null, "ref": null, "felt_temp": 36.753189086914062, "heat_grade": 6.0, "index_right": 4223.0, "uid": "ì©ì¸_12793", "sgg_cd": "41460", "sgg_nm": "ì©ì¸ì", "lclsf_cd": "I", "lclsf_nm": "ìê°íê±´ì¡°ì§", "mclsf_cd": "ID", "mclsf_nm": "êµíµìì¤ì§", "sclsf_cd": "ID2", "sclsf_nm": "ì¼ë°ëë¡", "dclsf_cd": "ID2_1", "dclsf_nm": "ê°ë¡ì ìë ì¼ë°ëë¡", "ldc_lc_cd": "A", "ldc_lc_nm": "ìê°íê±´ì¡°ì§ì­", "ldc_mc_cd": "A5", "ldc_mc_nm": "êµíµì§ì­", "ldc_sc_cd": "A54", "ldc_sc_nm": "ëë¡", "shade": 0.9, "heat_score": -3.84, "heat_grade_norm": 0.556 }, "geometry": { "type": "Point", "coordinates": [ 127.0830891, 37.320511 ] } },
{ "type": "Feature", "properties": { "osmid": 3529513830, "y": 37.3213045, "x": 127.0832286, "junction": null, "street_count": 4, "highway": null, "ref": null, "felt_temp": 36.859870910644531, "heat_grade": 8.0, "index_right": 4223.0, "uid": "ì©ì¸_12793", "sgg_cd": "41460", "sgg_nm": "ì©ì¸ì", "lclsf_cd": "I", "lclsf_nm": "ìê°íê±´ì¡°ì§", "mclsf_cd": "ID", "mclsf_nm": "êµíµìì¤ì§", "sclsf_cd": "ID2", "sclsf_nm": "ì¼ë°ëë¡", "dclsf_cd": "ID2_1", "dclsf_nm": "ê°ë¡ì ìë ì¼ë°ëë¡", "ldc_lc_cd": "A", "ldc_lc_nm": "ìê°íê±´ì¡°ì§ì­", "ldc_mc_cd": "A5", "ldc_mc_nm": "êµíµì§ì­", "ldc_sc_cd": "A54", "ldc_sc_nm": "ëë¡", "shade": 0.9, "heat_score": -3.33, "heat_grade_norm": 0.778 }, "geometry": { "type": "Point", "coordinates": [ 127.083228600000012, 37.3213045 ] } },
{ "type": "Feature", "properties": { "osmid": 8482871796, "y": 37.3229642, "x": 127.0821527, "junction": null, "street_count": 3, "highway": null, "ref": null, "felt_temp": 36.969562530517578, "heat_grade": 8.0, "index_right": 4223.0, "uid": "ì©ì¸_12793", "sgg_cd": "41460", "sgg_nm": "ì©ì¸ì", "lclsf_cd": "I", "lclsf_nm": "ìê°íê±´ì¡°ì§", "mclsf_cd": "ID", "mclsf_nm": "êµíµìì¤ì§", "sclsf_cd": "ID2", "sclsf_nm": "ì¼ë°ëë¡", "dclsf_cd": "ID2_1", "dclsf_nm": "ê°ë¡ì ìë ì¼ë°ëë¡", "ldc_lc_cd": "A", "ldc_lc_nm": "ìê°íê±´ì¡°ì§ì­", "ldc_mc_cd": "A5", "ldc_mc_nm": "êµíµì§ì­", "ldc_sc_cd": "A54", "ldc_sc_nm": "ëë¡", "shade": 0.9, "heat_score": -3.26, "heat_grade_norm": 0.778 }, "geometry": { "type": "Point", "coordinates": [ 127.0821527, 37.3229642 ] } },
{ "type": "Feature", "properties": { "osmid": 3529506337, "y": 37.3236924, "x": 127.0825983, "junction": null, "street_count": 3, "highway": null, "ref": null, "felt_temp": 36.827480316162109, "heat_grade": 8.0, "index_right": 4223.0, "uid": "ì©ì¸_12793", "sgg_cd": "41460", "sgg_nm": "ì©ì¸ì", "lclsf_cd": "I", "lclsf_nm": "ìê°íê±´ì¡°ì§", "mclsf_cd": "ID", "mclsf_nm": "êµíµìì¤ì§", "sclsf_cd": "ID2", "sclsf_nm": "ì¼ë°ëë¡", "dclsf_cd": "ID2_1", "dclsf_nm": "ê°ë¡ì ìë ì¼ë°ëë¡", "ldc_lc_cd": "A", "ldc_lc_nm": "ìê°íê±´ì¡°ì§ì­", "ldc_mc_cd": "A5", "ldc_mc_nm": "êµíµì§ì­", "ldc_sc_cd": "A54", "ldc_sc_nm": "ëë¡", "shade": 0.9, "heat_score": -3.35, "heat_grade_norm": 0.778 }, "geometry": { "type": "Point", "coordinates": [ 127.0825983, 37.3236924 ] } },
{ "type": "Feature", "properties": { "osmid": 3529506336, "y": 37.3238097, "x": 127.082035, "junction": null, "street_count": 3, "highway": null, "ref": null, "felt_temp": 36.252323150634766, "heat_grade": 1.0, "index_right": 4223.0, "uid": "ì©ì¸_12793", "sgg_cd": "41460", "sgg_nm": "ì©ì¸ì", "lclsf_cd": "I", "lclsf_nm": "ìê°íê±´ì¡°ì§", "mclsf_cd": "ID", "mclsf_nm": "êµíµìì¤ì§", "sclsf_cd": "ID2", "sclsf_nm": "ì¼ë°ëë¡", "dclsf_cd": "ID2_1", "dclsf_nm": "ê°ë¡ì ìë ì¼ë°ëë¡", "ldc_lc_cd": "A", "ldc_lc_nm": "ìê°íê±´ì¡°ì§ì­", "ldc_mc_cd": "A5", "ldc_mc_nm": "êµíµì§ì­", "ldc_sc_cd": "A54", "ldc_sc_nm": "ëë¡", "shade": 0.9, "heat_score": -5.25, "heat_grade_norm": 0.0 }, "geometry": { "type": "Point", "coordinates": [ 127.082035, 37.3238097 ] } },
{ "type": "Feature", "properties": { "osmid": 3660317658, "y": 37.3239314, "x": 127.0812039, "junction": null, "street_count": 3, "highway": null, "ref": null, "felt_temp": 36.244159698486328, "heat_grade": 1.0, "index_right": 4223.0, "uid": "ì©ì¸_12793", "sgg_cd": "41460", "sgg_nm": "ì©ì¸ì", "lclsf_cd": "I", "lclsf_nm": "ìê°íê±´ì¡°ì§", "mclsf_cd": "ID", "mclsf_nm": "êµíµìì¤ì§", "sclsf_cd": "ID2", "sclsf_nm": "ì¼ë°ëë¡", "dclsf_cd": "ID2_1", "dclsf_nm": "ê°ë¡ì ìë ì¼ë°ëë¡", "ldc_lc_cd": "A", "ldc_lc_nm": "ìê°íê±´ì¡°ì§ì­", "ldc_mc_cd": "A5", "ldc_mc_nm": "êµíµì§ì­", "ldc_sc_cd": "A54", "ldc_sc_nm": "ëë¡", "shade": 0.9, "heat_score": -5.25, "heat_grade_norm": 0.0 }, "geometry": { "type": "Point", "coordinates": [ 127.08120390000002, 37.3239314 ] } },
{ "type": "Feature", "properties": { "osmid": 3707678681, "y": 37.3224252, "x": 127.0799336, "junction": null, "street_count": 5, "highway": null, "ref": null, "felt_temp": 36.993259429931641, "heat_grade": 8.0, "index_right": 4223.0, "uid": "ì©ì¸_12793", "sgg_cd": "41460", "sgg_nm": "ì©ì¸ì", "lclsf_cd": "I", "lclsf_nm": "ìê°íê±´ì¡°ì§", "mclsf_cd": "ID", "mclsf_nm": "êµíµìì¤ì§", "sclsf_cd": "ID2", "sclsf_nm": "ì¼ë°ëë¡", "dclsf_cd": "ID2_1", "dclsf_nm": "ê°ë¡ì ìë ì¼ë°ëë¡", "ldc_lc_cd": "A", "ldc_lc_nm": "ìê°íê±´ì¡°ì§ì­", "ldc_mc_cd": "A5", "ldc_mc_nm": "êµíµì§ì­", "ldc_sc_cd": "A54", "ldc_sc_nm": "ëë¡", "shade": 0.9, "heat_score": -3.25, "heat_grade_norm": 0.778 }, "geometry": { "type": "Point", "coordinates": [ 127.0799336, 37.3224252 ] } },
{ "type": "Feature", "properties": { "osmid": 3707678649, "y": 37.3221692, "x": 127.0793326, "junction": null, "street_count": 4, "highway": null, "ref": null, "felt_temp": 36.764366149902344, "heat_grade": 6.0, "index_right": 4223.0, "uid": "ì©ì¸_12793", "sgg_cd": "41460", "sgg_nm": "ì©ì¸ì", "lclsf_cd": "I", "lclsf_nm": "ìê°íê±´ì¡°ì§", "mclsf_cd": "ID", "mclsf_nm": "êµíµìì¤ì§", "sclsf_cd": "ID2", "sclsf_nm": "ì¼ë°ëë¡", "dclsf_cd": "ID2_1", "dclsf_nm": "ê°ë¡ì ìë ì¼ë°ëë¡", "ldc_lc_cd": "A", "ldc_lc_nm": "ìê°íê±´ì¡°ì§ì­", "ldc_mc_cd": "A5", "ldc_mc_nm": "êµíµì§ì­", "ldc_sc_cd": "A54", "ldc_sc_nm": "ëë¡", "shade": 0.9, "heat_score": -3.83, "heat_grade_norm": 0.556 }, "geometry": { "type": "Point", "coordinates": [ 127.0793326, 37.3221692 ] } },
{ "type": "Feature", "properties": { "osmid": 3529505225, "y": 37.3229197, "x": 127.0773947, "junction": "yes", "street_count": 4, "highway": null, "ref": null, "felt_temp": 37.038955688476562, "heat_grade": 9.0, "index_right": 4223.0, "uid": "ì©ì¸_12793", "sgg_cd": "41460", "sgg_nm": "ì©ì¸ì", "lclsf_cd": "I", "lclsf_nm": "ìê°íê±´ì¡°ì§", "mclsf_cd": "ID", "mclsf_nm": "êµíµìì¤ì§", "sclsf_cd": "ID2", "sclsf_nm": "ì¼ë°ëë¡", "dclsf_cd": "ID2_1", "dclsf_nm": "ê°ë¡ì ìë ì¼ë°ëë¡", "ldc_lc_cd": "A", "ldc_lc_nm": "ìê°íê±´ì¡°ì§ì­", "ldc_mc_cd": "A5", "ldc_mc_nm": "êµíµì§ì­", "ldc_sc_cd": "A54", "ldc_sc_nm": "ëë¡", "shade": 0.9, "heat_score": -3.0, "heat_grade_norm": 0.889 }, "geometry": { "type": "Point", "coordinates": [ 127.0773947, 37.3229197 ] } },
{ "type": "Feature", "properties": { "osmid": 3707678662, "y": 37.3239581, "x": 127.0753983, "junction": null, "street_count": 3, "highway": null, "ref": null, "felt_temp": 36.987155914306641, "heat_grade": 8.0, "index_right": 4223.0, "uid": "ì©ì¸_12793", "sgg_cd": "41460", "sgg_nm": "ì©ì¸ì", "lclsf_cd": "I", "lclsf_nm": "ìê°íê±´ì¡°ì§", "mclsf_cd": "ID", "mclsf_nm": "êµíµìì¤ì§", "sclsf_cd": "ID2", "sclsf_nm": "ì¼ë°ëë¡", "dclsf_cd": "ID2_1", "dclsf_nm": "ê°ë¡ì ìë ì¼ë°ëë¡", "ldc_lc_cd": "A", "ldc_lc_nm": "ìê°íê±´ì¡°ì§ì­", "ldc_mc_cd": "A5", "ldc_mc_nm": "êµíµì§ì­", "ldc_sc_cd": "A54", "ldc_sc_nm": "ëë¡", "shade": 0.9, "heat_score": -3.25, "heat_grade_norm": 0.778 }, "geometry": { "type": "Point", "coordinates": [ 127.0753983, 37.3239581 ] } },
{ "type": "Feature", "properties": { "osmid": 3707678661, "y": 37.3237203, "x": 127.0777235, "junction": null, "street_count": 4, "highway": null, "ref": null, "felt_temp": 36.075519561767578, "heat_grade": 1.0, "index_right": 4223.0, "uid": "ì©ì¸_12793", "sgg_cd": "41460", "sgg_nm": "ì©ì¸ì", "lclsf_cd": "I", "lclsf_nm": "ìê°íê±´ì¡°ì§", "mclsf_cd": "ID", "mclsf_nm": "êµíµìì¤ì§", "sclsf_cd": "ID2", "sclsf_nm": "ì¼ë°ëë¡", "dclsf_cd": "ID2_1", "dclsf_nm": "ê°ë¡ì ìë ì¼ë°ëë¡", "ldc_lc_cd": "A", "ldc_lc_nm": "ìê°íê±´ì¡°ì§ì­", "ldc_mc_cd": "A5", "ldc_mc_nm": "êµíµì§ì­", "ldc_sc_cd": "A54", "ldc_sc_nm": "ëë¡", "shade": 0.9, "heat_score": -5.35, "heat_grade_norm": 0.0 }, "geometry": { "type": "Point", "coordinates": [ 127.0777235, 37.3237203 ] } }
]
}
