{
"type": "FeatureCollection",
"name": "cool_cycle_5km_route1_edges",
"crs": { "type": "name", "properties": { "name": "urn:ogc:def:crs:OGC:1.3:CRS84" } },
"features": [
{ "type": "Feature", "properties": { "u": 3717799627, "v": 842899426, "length": 59.326186158478549, "heat_score": -4.37 }, "geometry": { "type": "LineString", "coordinates": [ [ 127.0802048, 37.3133203 ], [ 127.0803347, 37.31342080000001 ], [ 127.080429399999986, 37.3135156 ], [ 127.080445, 37.3135312 ], [ 127.0804977, 37.3135871 ], [ 127.0805581, 37.3136606 ], [ 127.080623, 37.313735200000011 ] ] } },
{ "type": "Feature", "properties": { "u": 842899426, "v": 6152750617, "length": 50.101290386548236, "heat_score": -3.41 }, "geometry": { "type": "LineString", "coordinates": [ [ 127.0797676, 37.3130345 ], [ 127.0798431, 37.313085900000011 ], [ 127.0800001, 37.3131789 ], [ 127.0800539, 37.3132108 ], [ 127.0802048, 37.3133203 ] ] } },
{ "type": "Feature", "properties": { "u": 6152750617, "v": 6152750610, "length": 80.86979690831032, "heat_score": -3.54 }, "geometry": { "type": "LineString", "coordinates": [ [ 127.0797676, 37.3130345 ], [ 127.0799114, 37.3130667 ], [ 127.080072, 37.31306570000001 ], [ 127.0801136, 37.313062 ], [ 127.080159699999982, 37.3130535 ], [ 127.0801766, 37.3130508 ], [ 127.080198900000013, 37.3130492 ], [ 127.0802195, 37.3130423 ], [ 127.0802812, 37.3130252 ], [ 127.0804532, 37.3129229 ], [ 127.0805981, 37.3128475 ] ] } },
{ "type": "Feature", "properties": { "u": 6152750610, "v": 842899424, "length": 57.518544897430246, "heat_score": -3.545 }, "geometry": { "type": "LineString", "coordinates": [ [ 127.0805981, 37.3128475 ], [ 127.080994, 37.3124371 ] ] } },
{ "type": "Feature", "properties": { "u": 842899424, "v": 842899493, "length": 150.17720559247533, "heat_score": -3.13 }, "geometry": { "type": "LineString", "coordinates": [ [ 127.0793004, 37.3123816 ], [ 127.07972, 37.3124019 ], [ 127.079846900000021, 37.3124048 ], [ 127.079948900000019, 37.3124027 ], [ 127.0801153, 37.3123992 ], [ 127.080158700000013, 37.312399 ], [ 127.080228099999985, 37.3123986 ], [ 127.0805452, 37.312397 ], [ 127.0806253, 37.3123975 ], [ 127.080789399999986, 37.3124203 ], [ 127.080994, 37.3124371 ] ] } },
{ "type": "Feature", "properties": { "u": 842899493, "v": 842899492, "length": 71.415231192655952, "heat_score": -3.14 }, "geometry": { "type": "LineString", "coordinates": [ [ 127.078506899999979, 37.31226250000001 ], [ 127.078696, 37.3122921 ], [ 127.0788175, 37.3123099 ], [ 127.0789672, 37.3123325 ], [ 127.0793004, 37.3123816 ] ] } },
{ "type": "Feature", "properties": { "u": 842899492, "v": 13521746025, "length": 20.093226273590233, "heat_score": -3.135 }, "geometry": { "type": "LineString", "coordinates": [ [ 127.078692700000019, 37.3123665 ], [ 127.078506899999979, 37.31226250000001 ] ] } },
{ "type": "Feature", "properties": { "u": 13521746025, "v": 12794611279, "length": 25.26766011931667, "heat_score": -3.0 }, "geometry": { "type": "LineString", "coordinates": [ [ 127.078692700000019, 37.3123665 ], [ 127.0788801, 37.3124725 ], [ 127.0789264, 37.31249720000001 ] ] } },
{ "type": "Feature", "properties": { "u": 12794611279, "v": 13539327720, "length": 21.047041786980309, "heat_score": -2.995 }, "geometry": { "type": "LineString", "coordinates": [ [ 127.0790694, 37.3126485 ], [ 127.0789763, 37.31255 ], [ 127.0789264, 37.31249720000001 ] ] } },
{ "type": "Feature", "properties": { "u": 13539327720, "v": 842899375, "length": 31.991450615054205, "heat_score": -3.15 }, "geometry": { "type": "LineString", "coordinates": [ [ 127.078712800000019, 37.3126633 ], [ 127.0788022, 37.3126433 ], [ 127.0788484, 37.3126391 ], [ 127.0789063, 37.312635 ], [ 127.0790118, 37.3126402 ], [ 127.0790694, 37.3126485 ] ] } },
{ "type": "Feature", "properties": { "u": 842899375, "v": 13539327715, "length": 67.617039913262275, "heat_score": -3.315 }, "geometry": { "type": "LineString", "coordinates": [ [ 127.0794237, 37.3128833 ], [ 127.079111, 37.3127653 ], [ 127.0790053, 37.3127356 ], [ 127.078960199999983, 37.3127229 ], [ 127.078896299999982, 37.3127065 ], [ 127.078712800000019, 37.3126633 ] ] } },
{ "type": "Feature", "properties": { "u": 13539327715, "v": 13539327729, "length": 85.486837511386454, "heat_score": -3.335 }, "geometry": { "type": "LineString", "coordinates": [ [ 127.080143100000015, 37.3133947 ], [ 127.08000939999998, 37.313277 ], [ 127.0798003, 37.31313 ], [ 127.079701, 37.3130716 ], [ 127.0794237, 37.3128833 ] ] } },
{ "type": "Feature", "properties": { "u": 13539327729, "v": 842899389, "length": 321.43921271221416, "heat_score": -3.33 }, "geometry": { "type": "LineString", "coordinates": [ [ 127.080143100000015, 37.3133947 ], [ 127.0800289, 37.3135311 ], [ 127.079999700000016, 37.3135656 ], [ 127.079849, 37.3137332 ], [ 127.0797946, 37.3137978 ], [ 127.0796165, 37.31397350000001 ], [ 127.079604300000014, 37.3139807 ], [ 127.079543, 37.3140525 ], [ 127.07944310000002, 37.31416 ], [ 127.0792666, 37.3143048 ], [ 127.078959500000011, 37.3145398 ], [ 127.0788189, 37.3146382 ], [ 127.078671200000016, 37.3147163 ], [ 127.0784445, 37.3148322 ], [ 127.078313599999987, 37.3148988 ], [ 127.078200100000018, 37.3149428 ], [ 127.078087399999987, 37.3149669 ], [ 127.0780169, 37.3149834 ], [ 127.0779636, 37.3149924 ], [ 127.0778955, 37.3150231 ], [ 127.077860500000014, 37.3150827 ], [ 127.0777772, 37.3153237 ], [ 127.0777756, 37.3153746 ], [ 127.077774, 37.3154254 ] ] } },
{ "type": "Feature", "properties": { "u": 842899389, "v": 842899368, "length": 94.859183845145708, "heat_score": -3.125 }, "geometry": { "type": "LineString", "coordinates": [ [ 127.077774, 37.3154254 ], [ 127.077593, 37.3154334 ], [ 127.0772474, 37.3154235 ], [ 127.0768722, 37.3154097 ], [ 127.0767028, 37.3153989 ] ] } },
{ "type": "Feature", "properties": { "u": 842899368, "v": 3717949535, "length": 210.46161947760612, "heat_score": -3.14 }, "geometry": { "type": "LineString", "coordinates": [ [ 127.0743726, 37.3154613 ], [ 127.074806800000019, 37.3153471 ], [ 127.074927, 37.3153202 ], [ 127.0750454, 37.31529050000001 ], [ 127.0752171, 37.31526550000001 ], [ 127.0753975, 37.3152561 ], [ 127.0758277, 37.315295399999989 ], [ 127.0761986, 37.31533 ], [ 127.0765515, 37.3153821 ], [ 127.0767028, 37.3153989 ] ] } },
{ "type": "Feature", "properties": { "u": 3717949535, "v": 3485490152, "length": 881.39176718926922, "heat_score": -3.715 }, "geometry": { "type": "LineString", "coordinates": [ [ 127.0743726, 37.3154613 ], [ 127.0736128, 37.3156624 ], [ 127.072927899999982, 37.3158249 ], [ 127.0727281, 37.3158849 ], [ 127.072401099999979, 37.3159567 ], [ 127.0722596, 37.3159911 ], [ 127.0718169, 37.3160988 ], [ 127.0716523, 37.3161449 ], [ 127.0714933, 37.316196 ], [ 127.0713325, 37.3162573 ], [ 127.0711857, 37.31632230000001 ], [ 127.0707906, 37.316503 ], [ 127.0705874, 37.3165995 ], [ 127.0703292, 37.3167171 ], [ 127.070068300000017, 37.3167976 ], [ 127.0697357, 37.3168755 ], [ 127.0695188, 37.3169127 ], [ 127.0693434, 37.3169533 ], [ 127.069254, 37.3169852 ], [ 127.0691984, 37.317005 ], [ 127.069079799999983, 37.3170596 ], [ 127.068972099999982, 37.3171228 ], [ 127.0689323, 37.3171461 ], [ 127.0689123, 37.3171579 ], [ 127.0687534, 37.317279 ], [ 127.068693900000014, 37.317334 ], [ 127.068593, 37.317444 ], [ 127.0685062, 37.3175307 ], [ 127.0684046, 37.3175917 ], [ 127.0681725, 37.3177525 ], [ 127.068093500000018, 37.3178073 ], [ 127.06786790000001, 37.31796150000001 ], [ 127.06772669999998, 37.3180433 ], [ 127.0672604, 37.3183032 ], [ 127.0668816, 37.318533 ], [ 127.0666985, 37.3186441 ], [ 127.066495, 37.31876410000001 ], [ 127.0662528, 37.3189107 ], [ 127.0661062, 37.319007 ], [ 127.0658945, 37.3191251 ], [ 127.065863799999988, 37.3191422 ], [ 127.0657709, 37.3191974 ] ] } },
{ "type": "Feature", "properties": { "u": 3485490152, "v": 3528563908, "length": 842.47653278598284, "heat_score": 8.475 }, "geometry": { "type": "LineString", "coordinates": [ [ 127.0703978, 37.3253977 ], [ 127.0703344, 37.3253263 ], [ 127.0702171, 37.3251942 ], [ 127.0699469, 37.3248885 ], [ 127.0696013, 37.3245901 ], [ 127.069107300000013, 37.3242304 ], [ 127.0686874, 37.3240051 ], [ 127.068384599999987, 37.3238439 ], [ 127.06814820000001, 37.3236996 ], [ 127.0677493, 37.3234615 ], [ 127.067414899999989, 37.323234 ], [ 127.06711580000001, 37.3229678 ], [ 127.0667696, 37.3225937 ], [ 127.06660549999998, 37.3223987 ], [ 127.066474, 37.322184300000011 ], [ 127.06637929999998, 37.3219247 ], [ 127.066284600000017, 37.3216004 ], [ 127.0661832, 37.3210874 ], [ 127.066166200000012, 37.3210151 ], [ 127.0661665, 37.3209072 ], [ 127.0661632, 37.3207702 ], [ 127.0661385, 37.320636 ], [ 127.066016, 37.3201733 ], [ 127.0658027, 37.3193297 ], [ 127.0657709, 37.3191974 ] ] } },
{ "type": "Feature", "properties": { "u": 3528563908, "v": 3528563900, "length": 249.64136715975485, "heat_score": 8.1 }, "geometry": { "type": "LineString", "coordinates": [ [ 127.0703978, 37.3253977 ], [ 127.070249500000017, 37.3254511 ], [ 127.070183200000017, 37.3254749 ], [ 127.0699696, 37.3255815 ], [ 127.0699117, 37.3256034 ], [ 127.0697977, 37.3256696 ], [ 127.069694400000017, 37.3257357 ], [ 127.0695884, 37.3258135 ], [ 127.069339, 37.3259639 ], [ 127.0689085, 37.3262465 ], [ 127.068150800000012, 37.3267435 ] ] } },
{ "type": "Feature", "properties": { "u": 3528563900, "v": 3528551420, "length": 49.564559980089228, "heat_score": 7.15 }, "geometry": { "type": "LineString", "coordinates": [ [ 127.068150800000012, 37.3267435 ], [ 127.06822050000001, 37.3268 ], [ 127.068461900000017, 37.3270175 ], [ 127.0685236, 37.3270762 ] ] } },
{ "type": "Feature", "properties": { "u": 3528551420, "v": 3528566606, "length": 163.46962726509594, "heat_score": 7.91 }, "geometry": { "type": "LineString", "coordinates": [ [ 127.0679274, 37.3275555 ], [ 127.0682527, 37.3277928 ], [ 127.068277200000011, 37.3278078 ], [ 127.068287600000019, 37.3278142 ], [ 127.0683332, 37.3278248 ], [ 127.0683734, 37.3278227 ], [ 127.0684136, 37.3278056 ], [ 127.0686756, 37.3275696 ], [ 127.0688589, 37.3274046 ], [ 127.0688696, 37.3273769 ], [ 127.0688696, 37.3273556 ], [ 127.0688566, 37.3273429 ], [ 127.0688106, 37.327298 ], [ 127.068706, 37.3272106 ], [ 127.0686148, 37.3271402 ], [ 127.0685236, 37.3270762 ] ] } },
{ "type": "Feature", "properties": { "u": 3528566606, "v": 3528551421, "length": 34.780862994865167, "heat_score": -3.455 }, "geometry": { "type": "LineString", "coordinates": [ [ 127.0679274, 37.3275555 ], [ 127.0677039, 37.3277352 ], [ 127.067650799999981, 37.3277779 ] ] } },
{ "type": "Feature", "properties": { "u": 3528551421, "v": 3706019517, "length": 43.11659592337768, "heat_score": -4.455 }, "geometry": { "type": "LineString", "coordinates": [ [ 127.068016499999985, 37.3280344 ], [ 127.067650799999981, 37.3277779 ] ] } },
{ "type": "Feature", "properties": { "u": 3706019517, "v": 3525982789, "length": 44.315117139411612, "heat_score": -4.585 }, "geometry": { "type": "LineString", "coordinates": [ [ 127.068016499999985, 37.3280344 ], [ 127.0683924, 37.328298 ] ] } },
{ "type": "Feature", "properties": { "u": 3525982789, "v": 11832084116, "length": 289.67971579228697, "heat_score": -4.51 }, "geometry": { "type": "LineString", "coordinates": [ [ 127.070697100000018, 37.3264513 ], [ 127.07014, 37.3268895 ], [ 127.069688400000018, 37.32719 ], [ 127.069273200000012, 37.3275159 ], [ 127.0683924, 37.328298 ] ] } },
{ "type": "Feature", "properties": { "u": 11832084116, "v": 1924789289, "length": 46.704663336902726, "heat_score": -4.25 }, "geometry": { "type": "LineString", "coordinates": [ [ 127.070697100000018, 37.3264513 ], [ 127.070938, 37.3262618 ], [ 127.07107259999998, 37.3261559 ] ] } },
{ "type": "Feature", "properties": { "u": 1924789289, "v": 11832084109, "length": 242.05737223972704, "heat_score": -3.3 }, "geometry": { "type": "LineString", "coordinates": [ [ 127.0733309, 37.3249468 ], [ 127.07313640000001, 37.3250252 ], [ 127.0724905, 37.32534540000001 ], [ 127.072353299999989, 37.325405600000011 ], [ 127.0718902, 37.3256087 ], [ 127.071327200000013, 37.3259391 ], [ 127.07107259999998, 37.3261559 ] ] } },
{ "type": "Feature", "properties": { "u": 11832084109, "v": 12735464747, "length": 199.64504413890515, "heat_score": -3.675 }, "geometry": { "type": "LineString", "coordinates": [ [ 127.0752612, 37.3240201 ], [ 127.0749304, 37.3241643 ], [ 127.0744578, 37.3244068 ], [ 127.0743438, 37.3244443 ], [ 127.074007900000012, 37.3246031 ], [ 127.073840500000017, 37.3246904 ], [ 127.0737409, 37.3247424 ], [ 127.073547100000013, 37.3248265 ], [ 127.0733309, 37.3249468 ] ] } },
{ "type": "Feature", "properties": { "u": 12735464747, "v": 3707678662, "length": 13.948554955801558, "heat_score": -3.665 }, "geometry": { "type": "LineString", "coordinates": [ [ 127.0752612, 37.3240201 ], [ 127.0753437, 37.3239841 ], [ 127.0753983, 37.3239581 ] ] } },
{ "type": "Feature", "properties": { "u": 3707678662, "v": 3529505225, "length": 211.31779252702691, "heat_score": -3.125 }, "geometry": { "type": "LineString", "coordinates": [ [ 127.0753983, 37.3239581 ], [ 127.075515899999985, 37.323895 ], [ 127.0760752, 37.3236177 ], [ 127.0765427, 37.3233881 ], [ 127.0770113, 37.3231673 ], [ 127.077195100000012, 37.3230627 ], [ 127.0773947, 37.3229197 ] ] } },
{ "type": "Feature", "properties": { "u": 3529505225, "v": 3707678649, "length": 191.53356191090748, "heat_score": -3.415 }, "geometry": { "type": "LineString", "coordinates": [ [ 127.0793326, 37.3221692 ], [ 127.0792341, 37.3222026 ], [ 127.079116400000018, 37.3222315 ], [ 127.0789988, 37.3222604 ], [ 127.078737500000017, 37.3223333 ], [ 127.07845589999998, 37.3224206 ], [ 127.0782117, 37.3225229 ], [ 127.07800610000001, 37.3226169 ], [ 127.07780480000001, 37.3227208 ], [ 127.0775613, 37.3228372 ], [ 127.0773947, 37.3229197 ] ] } },
{ "type": "Feature", "properties": { "u": 3707678649, "v": 1924789280, "length": 45.036097237574651, "heat_score": -3.405 }, "geometry": { "type": "LineString", "coordinates": [ [ 127.0793326, 37.3221692 ], [ 127.079523, 37.3220867 ], [ 127.0795787, 37.3220599 ], [ 127.079766699999979, 37.3219582 ] ] } },
{ "type": "Feature", "properties": { "u": 1924789280, "v": 3707678681, "length": 55.058599340119954, "heat_score": -3.115 }, "geometry": { "type": "LineString", "coordinates": [ [ 127.0799336, 37.3224252 ], [ 127.079923800000017, 37.3223161 ], [ 127.079890899999981, 37.3221531 ], [ 127.079874600000011, 37.3221146 ], [ 127.079848200000015, 37.3220518 ], [ 127.079766699999979, 37.3219582 ] ] } },
{ "type": "Feature", "properties": { "u": 3707678681, "v": 12794837217, "length": 91.512453091489988, "heat_score": -3.3 }, "geometry": { "type": "LineString", "coordinates": [ [ 127.080060099999983, 37.3216088 ], [ 127.0800389, 37.32177690000001 ], [ 127.080013899999983, 37.3219131 ], [ 127.0800107, 37.3219263 ], [ 127.079983299999981, 37.3220858 ], [ 127.0799401, 37.322326 ], [ 127.0799336, 37.3224252 ] ] } },
{ "type": "Feature", "properties": { "u": 12794837217, "v": 3529513828, "length": 328.86656831242186, "heat_score": -3.34 }, "geometry": { "type": "LineString", "coordinates": [ [ 127.080060099999983, 37.3216088 ], [ 127.080266400000014, 37.321375 ], [ 127.0804832, 37.3210828 ], [ 127.080639, 37.32089710000001 ], [ 127.0809205, 37.3205718 ], [ 127.0810652, 37.320422 ], [ 127.081135, 37.3203566 ], [ 127.081238, 37.32026 ], [ 127.0813502, 37.3201595 ], [ 127.08158, 37.3199539 ], [ 127.081808899999984, 37.3197465 ], [ 127.081895500000016, 37.3196693 ], [ 127.0819656, 37.3196158 ], [ 127.0820366, 37.319567 ], [ 127.0821222, 37.3195211 ], [ 127.082258900000014, 37.3194584 ], [ 127.082385800000011, 37.3194075 ], [ 127.082442500000013, 37.319382 ] ] } },
{ "type": "Feature", "properties": { "u": 3529513828, "v": 11831009773, "length": 59.619732686719118, "heat_score": -3.29 }, "geometry": { "type": "LineString", "coordinates": [ [ 127.0830472, 37.3191449 ], [ 127.082442500000013, 37.319382 ] ] } },
{ "type": "Feature", "properties": { "u": 11831009773, "v": 11831008065, "length": 21.420400278464214, "heat_score": -3.25 }, "geometry": { "type": "LineString", "coordinates": [ [ 127.0830472, 37.3191449 ], [ 127.083253, 37.3190433 ] ] } },
{ "type": "Feature", "properties": { "u": 11831008065, "v": 13539327752, "length": 26.678116799415687, "heat_score": -3.12 }, "geometry": { "type": "LineString", "coordinates": [ [ 127.083519800000019, 37.3189317 ], [ 127.0834586, 37.3189529 ], [ 127.0833177, 37.3190148 ], [ 127.083253, 37.3190433 ] ] } },
{ "type": "Feature", "properties": { "u": 13539327752, "v": 842899428, "length": 12.368843478303724, "heat_score": -2.975 }, "geometry": { "type": "LineString", "coordinates": [ [ 127.083519800000019, 37.3189317 ], [ 127.0836481, 37.3188874 ] ] } },
{ "type": "Feature", "properties": { "u": 842899428, "v": 13539327751, "length": 31.235770972881248, "heat_score": -2.98 }, "geometry": { "type": "LineString", "coordinates": [ [ 127.0834954, 37.3186341 ], [ 127.0835169, 37.3186692 ], [ 127.08360519999998, 37.3188148 ], [ 127.0836481, 37.3188874 ] ] } },
{ "type": "Feature", "properties": { "u": 13539327751, "v": 3655078943, "length": 360.27055614531383, "heat_score": -3.165 }, "geometry": { "type": "LineString", "coordinates": [ [ 127.0817247, 37.3157166 ], [ 127.0821313, 37.3163845 ], [ 127.0825495, 37.3170645 ], [ 127.082789099999985, 37.3174912 ], [ 127.082990600000016, 37.3178241 ], [ 127.0832087, 37.3181569 ], [ 127.0834374, 37.3185396 ], [ 127.0834954, 37.3186341 ] ] } },
{ "type": "Feature", "properties": { "u": 3655078943, "v": 13539327739, "length": 10.875769449256902, "heat_score": -3.32 }, "geometry": { "type": "LineString", "coordinates": [ [ 127.0816127, 37.315757 ], [ 127.0817247, 37.3157166 ] ] } },
{ "type": "Feature", "properties": { "u": 13539327739, "v": 13539327749, "length": 104.93927250892878, "heat_score": -3.32 }, "geometry": { "type": "LineString", "coordinates": [ [ 127.0816127, 37.315757 ], [ 127.0814117, 37.3154339 ], [ 127.0812195, 37.31508980000001 ], [ 127.0811156, 37.3149003 ] ] } },
{ "type": "Feature", "properties": { "u": 13539327749, "v": 3520971522, "length": 11.407869974804932, "heat_score": -3.325 }, "geometry": { "type": "LineString", "coordinates": [ [ 127.0811156, 37.3149003 ], [ 127.081234600000016, 37.3148607 ] ] } },
{ "type": "Feature", "properties": { "u": 3520971522, "v": 1978988811, "length": 99.237808277441317, "heat_score": -4.1 }, "geometry": { "type": "LineString", "coordinates": [ [ 127.080819, 37.3140318 ], [ 127.0808338, 37.3140621 ], [ 127.080851, 37.3140973 ], [ 127.0810317, 37.314456 ], [ 127.081182799999979, 37.3147675 ], [ 127.081234600000016, 37.3148607 ] ] } },
{ "type": "Feature", "properties": { "u": 1978988811, "v": 3717799627, "length": 37.258050742887846, "heat_score": -5.02 }, "geometry": { "type": "LineString", "coordinates": [ [ 127.080623, 37.313735200000011 ], [ 127.080819, 37.3140318 ] ] } }
]
}
