{
"type": "FeatureCollection",
"name": "cool_cycle_5km_route3_edges",
"crs": { "type": "name", "properties": { "name": "urn:ogc:def:crs:OGC:1.3:CRS84" } },
"features": [
{ "type": "Feature", "properties": { "u": 4708513142, "v": 7179444058, "length": 30.980307906186432, "heat_score": -4.205 }, "geometry": { "type": "LineString", "coordinates": [ [ 127.0743944, 37.3030394 ], [ 127.074483700000016, 37.3029489 ], [ 127.0745208, 37.3029113 ], [ 127.0746297, 37.3028345 ] ] } },
{ "type": "Feature", "properties": { "u": 7179444058, "v": 7179444061, "length": 19.708823947511256, "heat_score": -3.245 }, "geometry": { "type": "LineString", "coordinates": [ [ 127.074332200000015, 37.3032096 ], [ 127.0743417, 37.3031836 ], [ 127.0743633, 37.3031245 ], [ 127.0743944, 37.3030394 ] ] } },
{ "type": "Feature", "properties": { "u": 7179444061, "v": 7179444062, "length": 68.445001963934118, "heat_score": 8.875 }, "geometry": { "type": "LineString", "coordinates": [ [ 127.0749433, 37.3035869 ], [ 127.0747033, 37.3034359 ], [ 127.0744001, 37.3032454 ], [ 127.074332200000015, 37.3032096 ] ] } },
{ "type": "Feature", "properties": { "u": 7179444062, "v": 7179444069, "length": 73.491944445220497, "heat_score": 8.985 }, "geometry": { "type": "LineString", "coordinates": [ [ 127.0749433, 37.3035869 ], [ 127.074793700000015, 37.3035428 ], [ 127.0747129, 37.3035053 ], [ 127.074617500000016, 37.303478 ], [ 127.0745508, 37.30347660000001 ], [ 127.0744997, 37.3034908 ], [ 127.074462100000019, 37.3035373 ], [ 127.074464800000015, 37.3036001 ], [ 127.074477499999986, 37.3037645 ] ] } },
{ "type": "Feature", "properties": { "u": 7179444069, "v": 7179444070, "length": 36.983258299637981, "heat_score": -3.02 }, "geometry": { "type": "LineString", "coordinates": [ [ 127.074304, 37.3034624 ], [ 127.0743305, 37.3035255 ], [ 127.074477499999986, 37.3037645 ] ] } },
{ "type": "Feature", "properties": { "u": 7179444070, "v": 7179444073, "length": 54.636919057859565, "heat_score": -2.99 }, "geometry": { "type": "LineString", "coordinates": [ [ 127.074304, 37.3034624 ], [ 127.0742256, 37.3033584 ], [ 127.074146500000012, 37.3032191 ], [ 127.0740013, 37.3030351 ] ] } },
{ "type": "Feature", "properties": { "u": 7179444073, "v": 6820615290, "length": 197.772761858226, "heat_score": -3.15 }, "geometry": { "type": "LineString", "coordinates": [ [ 127.0740013, 37.3030351 ], [ 127.0739219, 37.3029933 ], [ 127.0734854, 37.30276520000001 ], [ 127.0722892, 37.3021115 ], [ 127.07215, 37.3020378 ] ] } },
{ "type": "Feature", "properties": { "u": 6820615290, "v": 6820615302, "length": 31.796712210196659, "heat_score": -3.965 }, "geometry": { "type": "LineString", "coordinates": [ [ 127.0723612, 37.301806400000011 ], [ 127.07215, 37.3020378 ] ] } },
{ "type": "Feature", "properties": { "u": 6820615302, "v": 3790816771, "length": 237.51124209456603, "heat_score": -4.34 }, "geometry": { "type": "LineString", "coordinates": [ [ 127.070134600000017, 37.30061280000001 ], [ 127.0702765, 37.3006851 ], [ 127.071920099999986, 37.301558 ], [ 127.0723612, 37.301806400000011 ] ] } },
{ "type": "Feature", "properties": { "u": 3790816771, "v": 4569903204, "length": 72.918140970883584, "heat_score": -3.55 }, "geometry": { "type": "LineString", "coordinates": [ [ 127.0694128, 37.3002969 ], [ 127.069813900000014, 37.3004589 ], [ 127.0699883, 37.3005426 ], [ 127.070134600000017, 37.30061280000001 ] ] } },
{ "type": "Feature", "properties": { "u": 4569903204, "v": 3790816770, "length": 69.370760863396072, "heat_score": -3.295 }, "geometry": { "type": "LineString", "coordinates": [ [ 127.0694128, 37.3002969 ], [ 127.0696805, 37.3003421 ], [ 127.0697894, 37.3003445 ], [ 127.0698465, 37.3003276 ], [ 127.0698887, 37.3003015 ], [ 127.0699149, 37.3002678 ], [ 127.0699367, 37.3002267 ], [ 127.0699897, 37.3000887 ] ] } },
{ "type": "Feature", "properties": { "u": 3790816770, "v": 3187954871, "length": 156.65483559065359, "heat_score": -3.585 }, "geometry": { "type": "LineString", "coordinates": [ [ 127.0699897, 37.3000887 ], [ 127.069836, 37.2995196 ], [ 127.0697422, 37.29917240000001 ], [ 127.06968280000001, 37.2989524 ], [ 127.0696687, 37.2989 ], [ 127.0696177, 37.2987113 ] ] } },
{ "type": "Feature", "properties": { "u": 3187954871, "v": 3790849638, "length": 184.60535625059862, "heat_score": -4.075 }, "geometry": { "type": "LineString", "coordinates": [ [ 127.071643100000017, 37.2983176 ], [ 127.071367400000014, 37.2983966 ], [ 127.0710495, 37.2984532 ], [ 127.0703224, 37.2985772 ], [ 127.0696177, 37.2987113 ] ] } },
{ "type": "Feature", "properties": { "u": 3790849638, "v": 3662166668, "length": 208.18918379713523, "heat_score": 1.135 }, "geometry": { "type": "LineString", "coordinates": [ [ 127.071643100000017, 37.2983176 ], [ 127.071588800000015, 37.2981556 ], [ 127.0714994, 37.2975195 ], [ 127.071418, 37.2973815 ], [ 127.0713468, 37.297317 ], [ 127.07127490000002, 37.297268099999989 ], [ 127.0711978, 37.297232 ], [ 127.071084199999987, 37.2971757 ], [ 127.0710303, 37.2971385 ], [ 127.070970800000012, 37.2970671 ], [ 127.0709154, 37.2969648 ], [ 127.0708411, 37.2967368 ], [ 127.0708174, 37.2966549 ] ] } },
{ "type": "Feature", "properties": { "u": 3662166668, "v": 3662168493, "length": 246.66286548174594, "heat_score": 7.115 }, "geometry": { "type": "LineString", "coordinates": [ [ 127.0730328, 37.296939 ], [ 127.072920900000014, 37.2965972 ], [ 127.0728928, 37.2965151 ], [ 127.0728431, 37.2964585 ], [ 127.0726607, 37.2963198 ], [ 127.072591, 37.2963091 ], [ 127.0716334, 37.296467 ], [ 127.0708174, 37.2966549 ] ] } },
{ "type": "Feature", "properties": { "u": 3662168493, "v": 3662168684, "length": 22.12094412342201, "heat_score": 1.13 }, "geometry": { "type": "LineString", "coordinates": [ [ 127.0732781, 37.2969003 ], [ 127.0730328, 37.296939 ] ] } },
{ "type": "Feature", "properties": { "u": 3662168684, "v": 3187964067, "length": 91.867822164257277, "heat_score": -4.85 }, "geometry": { "type": "LineString", "coordinates": [ [ 127.0732781, 37.2969003 ], [ 127.0735029, 37.2977069 ] ] } },
{ "type": "Feature", "properties": { "u": 3187964067, "v": 1819993263, "length": 635.73958513877403, "heat_score": -3.925 }, "geometry": { "type": "LineString", "coordinates": [ [ 127.0735029, 37.2977069 ], [ 127.07448140000001, 37.2975266 ], [ 127.074723, 37.2974829 ], [ 127.0749361, 37.2974209 ], [ 127.075083800000016, 37.2973735 ], [ 127.075223500000021, 37.2973189 ], [ 127.075365599999984, 37.2972487 ], [ 127.075499600000015, 37.2971713 ], [ 127.075613, 37.29709840000001 ], [ 127.0756954, 37.2970391 ], [ 127.0762967, 37.2965089 ], [ 127.076756, 37.2961016 ], [ 127.076940400000012, 37.2959412 ], [ 127.0771008, 37.29582090000001 ], [ 127.0772795, 37.2957189 ], [ 127.077435199999982, 37.2956433 ], [ 127.077541699999983, 37.2956086 ], [ 127.0776631, 37.2955686 ], [ 127.077812, 37.2955339 ], [ 127.0779518, 37.2955157 ], [ 127.078094900000011, 37.2955011 ], [ 127.078840600000021, 37.295441 ], [ 127.07948930000002, 37.2953815 ], [ 127.0795163, 37.295379 ], [ 127.0797202, 37.2953672 ] ] } },
{ "type": "Feature", "properties": { "u": 1819993263, "v": 1819993149, "length": 64.607541240474063, "heat_score": -3.57 }, "geometry": { "type": "LineString", "coordinates": [ [ 127.0797202, 37.2953672 ], [ 127.079757200000017, 37.295509 ], [ 127.0798118, 37.2957201 ], [ 127.079847, 37.295939 ] ] } },
{ "type": "Feature", "properties": { "u": 1819993149, "v": 3692817080, "length": 98.355194393229539, "heat_score": 5.285 }, "geometry": { "type": "LineString", "coordinates": [ [ 127.0801337, 37.2965627 ], [ 127.0801576, 37.2959285 ], [ 127.0800932, 37.2959157 ], [ 127.079847, 37.295939 ] ] } },
{ "type": "Feature", "properties": { "u": 3692817080, "v": 3692817081, "length": 172.7616238479138, "heat_score": 14.165 }, "geometry": { "type": "LineString", "coordinates": [ [ 127.0803826, 37.2980958 ], [ 127.0802112, 37.2974989 ], [ 127.0802005, 37.2974477 ], [ 127.080216600000014, 37.2973155 ], [ 127.08021810000001, 37.2972538 ], [ 127.08021810000001, 37.2971955 ], [ 127.080205800000016, 37.2970893 ], [ 127.0801576, 37.2968204 ], [ 127.0801468, 37.2966967 ], [ 127.0801337, 37.2965627 ] ] } },
{ "type": "Feature", "properties": { "u": 3692817081, "v": 3692817077, "length": 31.918962799760493, "heat_score": 5.33 }, "geometry": { "type": "LineString", "coordinates": [ [ 127.0803826, 37.2980958 ], [ 127.08003770000002, 37.2981802 ] ] } },
{ "type": "Feature", "properties": { "u": 3692817077, "v": 3692812390, "length": 75.596993007572166, "heat_score": -2.97 }, "geometry": { "type": "LineString", "coordinates": [ [ 127.08003770000002, 37.2981802 ], [ 127.0801043, 37.2983753 ], [ 127.0801474, 37.2985113 ], [ 127.0802264, 37.2987605 ], [ 127.080251100000012, 37.2988385 ] ] } },
{ "type": "Feature", "properties": { "u": 3692812390, "v": 1819993248, "length": 189.23998570640128, "heat_score": -3.005 }, "geometry": { "type": "LineString", "coordinates": [ [ 127.080251100000012, 37.2988385 ], [ 127.080289, 37.2989626 ], [ 127.0804982, 37.2995728 ], [ 127.0805867, 37.2998332 ], [ 127.0806833, 37.3000444 ], [ 127.0807634, 37.3001811 ], [ 127.0808603, 37.3002812 ], [ 127.08099439999998, 37.3004136 ] ] } },
{ "type": "Feature", "properties": { "u": 1819993248, "v": 1819993240, "length": 130.62790866304232, "heat_score": -3.31 }, "geometry": { "type": "LineString", "coordinates": [ [ 127.08099439999998, 37.3004136 ], [ 127.081278700000013, 37.3006269 ], [ 127.081977200000011, 37.301288400000011 ] ] } },
{ "type": "Feature", "properties": { "u": 1819993240, "v": 1824007725, "length": 25.824618581332295, "heat_score": 5.715 }, "geometry": { "type": "LineString", "coordinates": [ [ 127.0816955, 37.3013438 ], [ 127.0818887, 37.3013182 ], [ 127.081977200000011, 37.301288400000011 ] ] } },
{ "type": "Feature", "properties": { "u": 1824007725, "v": 1824007722, "length": 154.70313919320915, "heat_score": 5.57 }, "geometry": { "type": "LineString", "coordinates": [ [ 127.0816955, 37.3013438 ], [ 127.081698, 37.3014179 ], [ 127.0816101, 37.3014998 ], [ 127.0806231, 37.3024198 ] ] } },
{ "type": "Feature", "properties": { "u": 1824007722, "v": 842899448, "length": 261.27167925636337, "heat_score": -4.075 }, "geometry": { "type": "LineString", "coordinates": [ [ 127.0806231, 37.3024198 ], [ 127.079557799999989, 37.3017535 ], [ 127.079525100000012, 37.3017474 ], [ 127.0794828, 37.3017493 ], [ 127.079438, 37.3017592 ], [ 127.0793976, 37.301771 ], [ 127.0793513, 37.3017961 ], [ 127.078904, 37.3022586 ], [ 127.0788514, 37.3023129 ], [ 127.0785225, 37.3026709 ] ] } },
{ "type": "Feature", "properties": { "u": 842899448, "v": 3660798017, "length": 293.21895369983247, "heat_score": -4.325 }, "geometry": { "type": "LineString", "coordinates": [ [ 127.07549370000001, 37.3026928 ], [ 127.075796, 37.3026122 ], [ 127.075951800000013, 37.3025657 ], [ 127.076252400000016, 37.3024657 ], [ 127.0770599, 37.302212 ], [ 127.0771643, 37.3021936 ], [ 127.0772588, 37.3021858 ], [ 127.077358600000011, 37.3021822 ], [ 127.0774242, 37.3021858 ], [ 127.077500400000019, 37.3022004 ], [ 127.0775766, 37.3022193 ], [ 127.077678100000014, 37.3022464 ], [ 127.0777742, 37.3022777 ], [ 127.0778748, 37.3023115 ], [ 127.078008199999985, 37.3023796 ], [ 127.0781631, 37.3024647 ], [ 127.0784727, 37.3026413 ], [ 127.0785225, 37.3026709 ] ] } },
{ "type": "Feature", "properties": { "u": 3660798017, "v": 4708513142, "length": 78.607492483856589, "heat_score": -4.625 }, "geometry": { "type": "LineString", "coordinates": [ [ 127.0746297, 37.3028345 ], [ 127.0747135, 37.3027953 ], [ 127.0749946, 37.3027716 ], [ 127.07549370000001, 37.3026928 ] ] } }
]
}
