{
"type": "FeatureCollection",
"name": "cool_cycle_5km_route3_nodes",
"crs": { "type": "name", "properties": { "name": "urn:ogc:def:crs:OGC:1.3:CRS84" } },
"features": [
{ "type": "Feature", "properties": { "osmid": 4708513142, "y": 37.3028345, "x": 127.0746297, "junction": null, "street_count": 5, "highway": null, "ref": null, "felt_temp": 36.398815155029297, "heat_grade": 1.0, "index_right": 4223.0, "uid": "ì©ì¸_12793", "sgg_cd": "41460", "sgg_nm": "ì©ì¸ì", "lclsf_cd": "I", "lclsf_nm": "ìê°íê±´ì¡°ì§", "mclsf_cd": "ID", "mclsf_nm": "êµíµìì¤ì§", "sclsf_cd": "ID2", "sclsf_nm": "ì¼ë°ëë¡", "dclsf_cd": "ID2_1", "dclsf_nm": "ê°ë¡ì ìë ì¼ë°ëë¡", "ldc_lc_cd": "A", "ldc_lc_nm": "ìê°íê±´ì¡°ì§ì­", "ldc_mc_cd": "A5", "ldc_mc_nm": "êµíµì§ì­", "ldc_sc_cd": "A54", "ldc_sc_nm": "ëë¡", "shade": 0.9, "heat_score": -5.16, "heat_grade_norm": 0.0 }, "geometry": { "type": "Point", "coordinates": [ 127.0746297, 37.3028345 ] } },
{ "type": "Feature", "properties": { "osmid": 7179444058, "y": 37.3030394, "x": 127.0743944, "junction": null, "street_count": 4, "highway": null, "ref": null, "felt_temp": 36.997943878173828, "heat_grade": 8.0, "index_right": 4223.0, "uid": "ì©ì¸_12793", "sgg_cd": "41460", "sgg_nm": "ì©ì¸ì", "lclsf_cd": "I", "lclsf_nm": "ìê°íê±´ì¡°ì§", "mclsf_cd": "ID", "mclsf_nm": "êµíµìì¤ì§", "sclsf_cd": "ID2", "sclsf_nm": "ì¼ë°ëë¡", "dclsf_cd": "ID2_1", "dclsf_nm": "ê°ë¡ì ìë ì¼ë°ëë¡", "ldc_lc_cd": "A", "ldc_lc_nm": "ìê°íê±´ì¡°ì§ì­", "ldc_mc_cd": "A5", "ldc_mc_nm": "êµíµì§ì­", "ldc_sc_cd": "A54", "ldc_sc_nm": "ëë¡", "shade": 0.9, "heat_score": -3.25, "heat_grade_norm": 0.778 }, "geometry": { "type": "Point", "coordinates": [ 127.0743944, 37.3030394 ] } },
{ "type": "Feature", "properties": { "osmid": 7179444061, "y": 37.3032096, "x": 127.0743322, "junction": null, "street_count": 4, "highway": null, "ref": null, "felt_temp": 37.005653381347656, "heat_grade": 8.0, "index_right": 4223.0, "uid": "ì©ì¸_12793", "sgg_cd": "41460", "sgg_nm": "ì©ì¸ì", "lclsf_cd": "I", "lclsf_nm": "ìê°íê±´ì¡°ì§", "mclsf_cd": "ID", "mclsf_nm": "êµíµìì¤ì§", "sclsf_cd": "ID2", "sclsf_nm": "ì¼ë°ëë¡", "dclsf_cd": "ID2_1", "dclsf_nm": "ê°ë¡ì ìë ì¼ë°ëë¡", "ldc_lc_cd": "A", "ldc_lc_nm": "ìê°íê±´ì¡°ì§ì­", "ldc_mc_cd": "A5", "ldc_mc_nm": "êµíµì§ì­", "ldc_sc_cd": "A54", "ldc_sc_nm": "ëë¡", "shade": 0.9, "heat_score": -3.24, "heat_grade_norm": 0.778 }, "geometry": { "type": "Point", "coordinates": [ 127.074332200000015, 37.3032096 ] } },
{ "type": "Feature", "properties": { "osmid": 7179444062, "y": 37.3035869, "x": 127.0749433, "junction": null, "street_count": 3, "highway": null, "ref": null, "felt_temp": 37.014804840087891, "heat_grade": 9.0, "index_right": 1889.0, "uid": "ì©ì¸_12777", "sgg_cd": "41460", "sgg_nm": "ì©ì¸ì", "lclsf_cd": "I", "lclsf_nm": "ìê°íê±´ì¡°ì§", "mclsf_cd": "ID", "mclsf_nm": "êµíµìì¤ì§", "sclsf_cd": "ID2", "sclsf_nm": "ì¼ë°ëë¡", "dclsf_cd": "ID2_2", "dclsf_nm": "ê°ë¡ì ìë ì¼ë°ëë¡", "ldc_lc_cd": "A", "ldc_lc_nm": "ìê°íê±´ì¡°ì§ì­", "ldc_mc_cd": "A5", "ldc_mc_nm": "êµíµì§ì­", "ldc_sc_cd": "A54", "ldc_sc_nm": "ëë¡", "shade": 0.1, "heat_score": 20.99, "heat_grade_norm": 0.889 }, "geometry": { "type": "Point", "coordinates": [ 127.0749433, 37.3035869 ] } },
{ "type": "Feature", "properties": { "osmid": 7179444069, "y": 37.3037645, "x": 127.0744775, "junction": null, "street_count": 3, "highway": null, "ref": null, "felt_temp": 37.011070251464844, "heat_grade": 9.0, "index_right": 4223.0, "uid": "ì©ì¸_12793", "sgg_cd": "41460", "sgg_nm": "ì©ì¸ì", "lclsf_cd": "I", "lclsf_nm": "ìê°íê±´ì¡°ì§", "mclsf_cd": "ID", "mclsf_nm": "êµíµìì¤ì§", "sclsf_cd": "ID2", "sclsf_nm": "ì¼ë°ëë¡", "dclsf_cd": "ID2_1", "dclsf_nm": "ê°ë¡ì ìë ì¼ë°ëë¡", "ldc_lc_cd": "A", "ldc_lc_nm": "ìê°íê±´ì¡°ì§ì­", "ldc_mc_cd": "A5", "ldc_mc_nm": "êµíµì§ì­", "ldc_sc_cd": "A54", "ldc_sc_nm": "ëë¡", "shade": 0.9, "heat_score": -3.02, "heat_grade_norm": 0.889 }, "geometry": { "type": "Point", "coordinates": [ 127.074477499999986, 37.3037645 ] } },
{ "type": "Feature", "properties": { "osmid": 7179444070, "y": 37.3034624, "x": 127.074304, "junction": null, "street_count": 3, "highway": null, "ref": null, "felt_temp": 37.011100769042969, "heat_grade": 9.0, "index_right": 4223.0, "uid": "ì©ì¸_12793", "sgg_cd": "41460", "sgg_nm": "ì©ì¸ì", "lclsf_cd": "I", "lclsf_nm": "ìê°íê±´ì¡°ì§", "mclsf_cd": "ID", "mclsf_nm": "êµíµìì¤ì§", "sclsf_cd": "ID2", "sclsf_nm": "ì¼ë°ëë¡", "dclsf_cd": "ID2_1", "dclsf_nm": "ê°ë¡ì ìë ì¼ë°ëë¡", "ldc_lc_cd": "A", "ldc_lc_nm": "ìê°íê±´ì¡°ì§ì­", "ldc_mc_cd": "A5", "ldc_mc_nm": "êµíµì§ì­", "ldc_sc_cd": "A54", "ldc_sc_nm": "ëë¡", "shade": 0.9, "heat_score": -3.02, "heat_grade_norm": 0.889 }, "geometry": { "type": "Point", "coordinates": [ 127.074304, 37.3034624 ] } },
{ "type": "Feature", "properties": { "osmid": 7179444073, "y": 37.3030351, "x": 127.0740013, "junction": null, "street_count": 3, "highway": null, "ref": null, "felt_temp": 37.107982635498047, "heat_grade": 9.0, "index_right": 4223.0, "uid": "ì©ì¸_12793", "sgg_cd": "41460", "sgg_nm": "ì©ì¸ì", "lclsf_cd": "I", "lclsf_nm": "ìê°íê±´ì¡°ì§", "mclsf_cd": "ID", "mclsf_nm": "êµíµìì¤ì§", "sclsf_cd": "ID2", "sclsf_nm": "ì¼ë°ëë¡", "dclsf_cd": "ID2_1", "dclsf_nm": "ê°ë¡ì ìë ì¼ë°ëë¡", "ldc_lc_cd": "A", "ldc_lc_nm": "ìê°íê±´ì¡°ì§ì­", "ldc_mc_cd": "A5", "ldc_mc_nm": "êµíµì§ì­", "ldc_sc_cd": "A54", "ldc_sc_nm": "ëë¡", "shade": 0.9, "heat_score": -2.96, "heat_grade_norm": 0.889 }, "geometry": { "type": "Point", "coordinates": [ 127.0740013, 37.3030351 ] } },
{ "type": "Feature", "properties": { "osmid": 6820615290, "y": 37.3020378, "x": 127.07215, "junction": null, "street_count": 4, "highway": null, "ref": null, "felt_temp": 36.83477783203125, "heat_grade": 8.0, "index_right": 4223.0, "uid": "ì©ì¸_12793", "sgg_cd": "41460", "sgg_nm": "ì©ì¸ì", "lclsf_cd": "I", "lclsf_nm": "ìê°íê±´ì¡°ì§", "mclsf_cd": "ID", "mclsf_nm": "êµíµìì¤ì§", "sclsf_cd": "ID2", "sclsf_nm": "ì¼ë°ëë¡", "dclsf_cd": "ID2_1", "dclsf_nm": "ê°ë¡ì ìë ì¼ë°ëë¡", "ldc_lc_cd": "A", "ldc_lc_nm": "ìê°íê±´ì¡°ì§ì­", "ldc_mc_cd": "A5", "ldc_mc_nm": "êµíµì§ì­", "ldc_sc_cd": "A54", "ldc_sc_nm": "ëë¡", "shade": 0.9, "heat_score": -3.34, "heat_grade_norm": 0.778 }, "geometry": { "type": "Point", "coordinates": [ 127.07215, 37.3020378 ] } },
{ "type": "Feature", "properties": { "osmid": 6820615302, "y": 37.3018064, "x": 127.0723612, "junction": "yes", "street_count": 4, "highway": null, "ref": null, "felt_temp": 36.613399505615234, "heat_grade": 3.0, "index_right": 4223.0, "uid": "ì©ì¸_12793", "sgg_cd": "41460", "sgg_nm": "ì©ì¸ì", "lclsf_cd": "I", "lclsf_nm": "ìê°íê±´ì¡°ì§", "mclsf_cd": "ID", "mclsf_nm": "êµíµìì¤ì§", "sclsf_cd": "ID2", "sclsf_nm": "ì¼ë°ëë¡", "dclsf_cd": "ID2_1", "dclsf_nm": "ê°ë¡ì ìë ì¼ë°ëë¡", "ldc_lc_cd": "A", "ldc_lc_nm": "ìê°íê±´ì¡°ì§ì­", "ldc_mc_cd": "A5", "ldc_mc_nm": "êµíµì§ì­", "ldc_sc_cd": "A54", "ldc_sc_nm": "ëë¡", "shade": 0.9, "heat_score": -4.59, "heat_grade_norm": 0.222 }, "geometry": { "type": "Point", "coordinates": [ 127.0723612, 37.301806400000011 ] } },
{ "type": "Feature", "properties": { "osmid": 3790816771, "y": 37.3006128, "x": 127.0701346, "junction": null, "street_count": 4, "highway": null, "ref": null, "felt_temp": 36.697883605957031, "heat_grade": 5.0, "index_right": 4223.0, "uid": "ì©ì¸_12793", "sgg_cd": "41460", "sgg_nm": "ì©ì¸ì", "lclsf_cd": "I", "lclsf_nm": "ìê°íê±´ì¡°ì§", "mclsf_cd": "ID", "mclsf_nm": "êµíµìì¤ì§", "sclsf_cd": "ID2", "sclsf_nm": "ì¼ë°ëë¡", "dclsf_cd": "ID2_1", "dclsf_nm": "ê°ë¡ì ìë ì¼ë°ëë¡", "ldc_lc_cd": "A", "ldc_lc_nm": "ìê°íê±´ì¡°ì§ì­", "ldc_mc_cd": "A5", "ldc_mc_nm": "êµíµì§ì­", "ldc_sc_cd": "A54", "ldc_sc_nm": "ëë¡", "shade": 0.9, "heat_score": -4.09, "heat_grade_norm": 0.444 }, "geometry": { "type": "Point", "coordinates": [ 127.070134600000017, 37.30061280000001 ] } },
{ "type": "Feature", "properties": { "osmid": 4569903204, "y": 37.3002969, "x": 127.0694128, "junction": null, "street_count": 3, "highway": null, "ref": null, "felt_temp": 37.0145263671875, "heat_grade": 9.0, "index_right": 4223.0, "uid": "ì©ì¸_12793", "sgg_cd": "41460", "sgg_nm": "ì©ì¸ì", "lclsf_cd": "I", "lclsf_nm": "ìê°íê±´ì¡°ì§", "mclsf_cd": "ID", "mclsf_nm": "êµíµìì¤ì§", "sclsf_cd": "ID2", "sclsf_nm": "ì¼ë°ëë¡", "dclsf_cd": "ID2_1", "dclsf_nm": "ê°ë¡ì ìë ì¼ë°ëë¡", "ldc_lc_cd": "A", "ldc_lc_nm": "ìê°íê±´ì¡°ì§ì­", "ldc_mc_cd": "A5", "ldc_mc_nm": "êµíµì§ì­", "ldc_sc_cd": "A54", "ldc_sc_nm": "ëë¡", "shade": 0.9, "heat_score": -3.01, "heat_grade_norm": 0.889 }, "geometry": { "type": "Point", "coordinates": [ 127.0694128, 37.3002969 ] } },
{ "type": "Feature", "properties": { "osmid": 3790816770, "y": 37.3000887, "x": 127.0699897, "junction": null, "street_count": 3, "highway": null, "ref": null, "felt_temp": 36.812282562255859, "heat_grade": 7.0, "index_right": 4223.0, "uid": "ì©ì¸_12793", "sgg_cd": "41460", "sgg_nm": "ì©ì¸ì", "lclsf_cd": "I", "lclsf_nm": "ìê°íê±´ì¡°ì§", "mclsf_cd": "ID", "mclsf_nm": "êµíµìì¤ì§", "sclsf_cd": "ID2", "sclsf_nm": "ì¼ë°ëë¡", "dclsf_cd": "ID2_1", "dclsf_nm": "ê°ë¡ì ìë ì¼ë°ëë¡", "ldc_lc_cd": "A", "ldc_lc_nm": "ìê°íê±´ì¡°ì§ì­", "ldc_mc_cd": "A5", "ldc_mc_nm": "êµíµì§ì­", "ldc_sc_cd": "A54", "ldc_sc_nm": "ëë¡", "shade": 0.9, "heat_score": -3.58, "heat_grade_norm": 0.667 }, "geometry": { "type": "Point", "coordinates": [ 127.0699897, 37.3000887 ] } },
{ "type": "Feature", "properties": { "osmid": 3187954871, "y": 37.2987113, "x": 127.0696177, "junction": "yes", "street_count": 4, "highway": null, "ref": null, "felt_temp": 36.789409637451172, "heat_grade": 7.0, "index_right": 4223.0, "uid": "ì©ì¸_12793", "sgg_cd": "41460", "sgg_nm": "ì©ì¸ì", "lclsf_cd": "I", "lclsf_nm": "ìê°íê±´ì¡°ì§", "mclsf_cd": "ID", "mclsf_nm": "êµíµìì¤ì§", "sclsf_cd": "ID2", "sclsf_nm": "ì¼ë°ëë¡", "dclsf_cd": "ID2_1", "dclsf_nm": "ê°ë¡ì ìë ì¼ë°ëë¡", "ldc_lc_cd": "A", "ldc_lc_nm": "ìê°íê±´ì¡°ì§ì­", "ldc_mc_cd": "A5", "ldc_mc_nm": "êµíµì§ì­", "ldc_sc_cd": "A54", "ldc_sc_nm": "ëë¡", "shade": 0.9, "heat_score": -3.59, "heat_grade_norm": 0.667 }, "geometry": { "type": "Point", "coordinates": [ 127.0696177, 37.2987113 ] } },
{ "type": "Feature", "properties": { "osmid": 3790849638, "y": 37.2983176, "x": 127.0716431, "junction": "yes", "street_count": 3, "highway": null, "ref": null, "felt_temp": 36.654678344726562, "heat_grade": 3.0, "index_right": 4223.0, "uid": "ì©ì¸_12793", "sgg_cd": "41460", "sgg_nm": "ì©ì¸ì", "lclsf_cd": "I", "lclsf_nm": "ìê°íê±´ì¡°ì§", "mclsf_cd": "ID", "mclsf_nm": "êµíµìì¤ì§", "sclsf_cd": "ID2", "sclsf_nm": "ì¼ë°ëë¡", "dclsf_cd": "ID2_1", "dclsf_nm": "ê°ë¡ì ìë ì¼ë°ëë¡", "ldc_lc_cd": "A", "ldc_lc_nm": "ìê°íê±´ì¡°ì§ì­", "ldc_mc_cd": "A5", "ldc_mc_nm": "êµíµì§ì­", "ldc_sc_cd": "A54", "ldc_sc_nm": "ëë¡", "shade": 0.9, "heat_score": -4.56, "heat_grade_norm": 0.222 }, "geometry": { "type": "Point", "coordinates": [ 127.071643100000017, 37.2983176 ] } },
{ "type": "Feature", "properties": { "osmid": 3662166668, "y": 37.2966549, "x": 127.0708174, "junction": null, "street_count": 3, "highway": null, "ref": null, "felt_temp": 36.375995635986328, "heat_grade": 1.0, "index_right": 285.0, "uid": "ì©ì¸_4096", "sgg_cd": "41460", "sgg_nm": "ì©ì¸ì", "lclsf_cd": "I", "lclsf_nm": "ìê°íê±´ì¡°ì§", "mclsf_cd": "IA", "mclsf_nm": "ê³µëì£¼íì§", "sclsf_cd": "IA1", "sclsf_nm": "ê³ ì¸µ ê³µëì£¼íë¨ì§", "dclsf_cd": "IA1_2", "dclsf_nm": "ê³ ì¸µ ê³µëì£¼íìì¤", "ldc_lc_cd": "A", "ldc_lc_nm": "ìê°íê±´ì¡°ì§ì­", "ldc_mc_cd": "A1", "ldc_mc_nm": "ì£¼ê±°ì§ì­", "ldc_sc_cd": "A12", "ldc_sc_nm": "ê³µëì£¼ê±°ìì¤", "shade": 0.5, "heat_score": 6.83, "heat_grade_norm": 0.0 }, "geometry": { "type": "Point", "coordinates": [ 127.0708174, 37.2966549 ] } },
{ "type": "Feature", "properties": { "osmid": 3662168493, "y": 37.296939, "x": 127.0730328, "junction": null, "street_count": 3, "highway": null, "ref": null, "felt_temp": 36.597354888916016, "heat_grade": 3.0, "index_right": 285.0, "uid": "ì©ì¸_4096", "sgg_cd": "41460", "sgg_nm": "ì©ì¸ì", "lclsf_cd": "I", "lclsf_nm": "ìê°íê±´ì¡°ì§", "mclsf_cd": "IA", "mclsf_nm": "ê³µëì£¼íì§", "sclsf_cd": "IA1", "sclsf_nm": "ê³ ì¸µ ê³µëì£¼íë¨ì§", "dclsf_cd": "IA1_2", "dclsf_nm": "ê³ ì¸µ ê³µëì£¼íìì¤", "ldc_lc_cd": "A", "ldc_lc_nm": "ìê°íê±´ì¡°ì§ì­", "ldc_mc_cd": "A1", "ldc_mc_nm": "ì£¼ê±°ì§ì­", "ldc_sc_cd": "A12", "ldc_sc_nm": "ê³µëì£¼ê±°ìì¤", "shade": 0.5, "heat_score": 7.4, "heat_grade_norm": 0.222 }, "geometry": { "type": "Point", "coordinates": [ 127.0730328, 37.296939 ] } },
{ "type": "Feature", "properties": { "osmid": 3662168684, "y": 37.2969003, "x": 127.0732781, "junction": null, "street_count": 3, "highway": null, "ref": null, "felt_temp": 36.425430297851562, "heat_grade": 1.0, "index_right": 4223.0, "uid": "ì©ì¸_12793", "sgg_cd": "41460", "sgg_nm": "ì©ì¸ì", "lclsf_cd": "I", "lclsf_nm": "ìê°íê±´ì¡°ì§", "mclsf_cd": "ID", "mclsf_nm": "êµíµìì¤ì§", "sclsf_cd": "ID2", "sclsf_nm": "ì¼ë°ëë¡", "dclsf_cd": "ID2_1", "dclsf_nm": "ê°ë¡ì ìë ì¼ë°ëë¡", "ldc_lc_cd": "A", "ldc_lc_nm": "ìê°íê±´ì¡°ì§ì­", "ldc_mc_cd": "A5", "ldc_mc_nm": "êµíµì§ì­", "ldc_sc_cd": "A54", "ldc_sc_nm": "ëë¡", "shade": 0.9, "heat_score": -5.14, "heat_grade_norm": 0.0 }, "geometry": { "type": "Point", "coordinates": [ 127.0732781, 37.2969003 ] } },
{ "type": "Feature", "properties": { "osmid": 3187964067, "y": 37.2977069, "x": 127.0735029, "junction": "yes", "street_count": 4, "highway": null, "ref": null, "felt_temp": 36.659690856933594, "heat_grade": 3.0, "index_right": 4223.0, "uid": "ì©ì¸_12793", "sgg_cd": "41460", "sgg_nm": "ì©ì¸ì", "lclsf_cd": "I", "lclsf_nm": "ìê°íê±´ì¡°ì§", "mclsf_cd": "ID", "mclsf_nm": "êµíµìì¤ì§", "sclsf_cd": "ID2", "sclsf_nm": "ì¼ë°ëë¡", "dclsf_cd": "ID2_1", "dclsf_nm": "ê°ë¡ì ìë ì¼ë°ëë¡", "ldc_lc_cd": "A", "ldc_lc_nm": "ìê°íê±´ì¡°ì§ì­", "ldc_mc_cd": "A5", "ldc_mc_nm": "êµíµì§ì­", "ldc_sc_cd": "A54", "ldc_sc_nm": "ëë¡", "shade": 0.9, "heat_score": -4.56, "heat_grade_norm": 0.222 }, "geometry": { "type": "Point", "coordinates": [ 127.0735029, 37.2977069 ] } },
{ "type": "Feature", "properties": { "osmid": 1819993263, "y": 37.2953672, "x": 127.0797202, "junction": "yes", "street_count": 5, "highway": null, "ref": null, "felt_temp": 36.931617736816406, "heat_grade": 8.0, "index_right": 4223.0, "uid": "ì©ì¸_12793", "sgg_cd": "41460", "sgg_nm": "ì©ì¸ì", "lclsf_cd": "I", "lclsf_nm": "ìê°íê±´ì¡°ì§", "mclsf_cd": "ID", "mclsf_nm": "êµíµìì¤ì§", "sclsf_cd": "ID2", "sclsf_nm": "ì¼ë°ëë¡", "dclsf_cd": "ID2_1", "dclsf_nm": "ê°ë¡ì ìë ì¼ë°ëë¡", "ldc_lc_cd": "A", "ldc_lc_nm": "ìê°íê±´ì¡°ì§ì­", "ldc_mc_cd": "A5", "ldc_mc_nm": "êµíµì§ì­", "ldc_sc_cd": "A54", "ldc_sc_nm": "ëë¡", "shade": 0.9, "heat_score": -3.29, "heat_grade_norm": 0.778 }, "geometry": { "type": "Point", "coordinates": [ 127.0797202, 37.2953672 ] } },
{ "type": "Feature", "properties": { "osmid": 1819993149, "y": 37.295939, "x": 127.079847, "junction": null, "street_count": 3, "highway": null, "ref": null, "felt_temp": 36.725528717041016, "heat_grade": 6.0, "index_right": 4223.0, "uid": "ì©ì¸_12793", "sgg_cd": "41460", "sgg_nm": "ì©ì¸ì", "lclsf_cd": "I", "lclsf_nm": "ìê°íê±´ì¡°ì§", "mclsf_cd": "ID", "mclsf_nm": "êµíµìì¤ì§", "sclsf_cd": "ID2", "sclsf_nm": "ì¼ë°ëë¡", "dclsf_cd": "ID2_1", "dclsf_nm": "ê°ë¡ì ìë ì¼ë°ëë¡", "ldc_lc_cd": "A", "ldc_lc_nm": "ìê°íê±´ì¡°ì§ì­", "ldc_mc_cd": "A5", "ldc_mc_nm": "êµíµì§ì­", "ldc_sc_cd": "A54", "ldc_sc_nm": "ëë¡", "shade": 0.9, "heat_score": -3.85, "heat_grade_norm": 0.556 }, "geometry": { "type": "Point", "coordinates": [ 127.079847, 37.295939 ] } },
{ "type": "Feature", "properties": { "osmid": 3692817080, "y": 37.2965627, "x": 127.0801337, "junction": null, "street_count": 4, "highway": null, "ref": null, "felt_temp": 36.80810546875, "heat_grade": 7.0, "index_right": 195.0, "uid": "ì©ì¸_4648", "sgg_cd": "41460", "sgg_nm": "ì©ì¸ì", "lclsf_cd": "I", "lclsf_nm": "ìê°íê±´ì¡°ì§", "mclsf_cd": "ID", "mclsf_nm": "êµíµìì¤ì§", "sclsf_cd": "ID3", "sclsf_nm": "ìëë¡", "dclsf_cd": null, "dclsf_nm": null, "ldc_lc_cd": "A", "ldc_lc_nm": "ìê°íê±´ì¡°ì§ì­", "ldc_mc_cd": "A5", "ldc_mc_nm": "êµíµì§ì­", "ldc_sc_cd": "A54", "ldc_sc_nm": "ëë¡", "shade": 0.3, "heat_score": 14.42, "heat_grade_norm": 0.667 }, "geometry": { "type": "Point", "coordinates": [ 127.0801337, 37.2965627 ] } },
{ "type": "Feature", "properties": { "osmid": 3692817081, "y": 37.2980958, "x": 127.0803826, "junction": null, "street_count": 3, "highway": null, "ref": null, "felt_temp": 36.70709228515625, "heat_grade": 5.0, "index_right": 195.0, "uid": "ì©ì¸_4648", "sgg_cd": "41460", "sgg_nm": "ì©ì¸ì", "lclsf_cd": "I", "lclsf_nm": "ìê°íê±´ì¡°ì§", "mclsf_cd": "ID", "mclsf_nm": "êµíµìì¤ì§", "sclsf_cd": "ID3", "sclsf_nm": "ìëë¡", "dclsf_cd": null, "dclsf_nm": null, "ldc_lc_cd": "A", "ldc_lc_nm": "ìê°íê±´ì¡°ì§ì­", "ldc_mc_cd": "A5", "ldc_mc_nm": "êµíµì§ì­", "ldc_sc_cd": "A54", "ldc_sc_nm": "ëë¡", "shade": 0.3, "heat_score": 13.91, "heat_grade_norm": 0.444 }, "geometry": { "type": "Point", "coordinates": [ 127.0803826, 37.2980958 ] } },
{ "type": "Feature", "properties": { "osmid": 3692817077, "y": 37.2981802, "x": 127.0800377, "junction": null, "street_count": 3, "highway": null, "ref": null, "felt_temp": 36.990036010742188, "heat_grade": 8.0, "index_right": 4223.0, "uid": "ì©ì¸_12793", "sgg_cd": "41460", "sgg_nm": "ì©ì¸ì", "lclsf_cd": "I", "lclsf_nm": "ìê°íê±´ì¡°ì§", "mclsf_cd": "ID", "mclsf_nm": "êµíµìì¤ì§", "sclsf_cd": "ID2", "sclsf_nm": "ì¼ë°ëë¡", "dclsf_cd": "ID2_1", "dclsf_nm": "ê°ë¡ì ìë ì¼ë°ëë¡", "ldc_lc_cd": "A", "ldc_lc_nm": "ìê°íê±´ì¡°ì§ì­", "ldc_mc_cd": "A5", "ldc_mc_nm": "êµíµì§ì­", "ldc_sc_cd": "A54", "ldc_sc_nm": "ëë¡", "shade": 0.9, "heat_score": -3.25, "heat_grade_norm": 0.778 }, "geometry": { "type": "Point", "coordinates": [ 127.08003770000002, 37.2981802 ] } },
{ "type": "Feature", "properties": { "osmid": 3692812390, "y": 37.2988385, "x": 127.0802511, "junction": "yes", "street_count": 3, "highway": null, "ref": null, "felt_temp": 37.188129425048828, "heat_grade": 10.0, "index_right": 4223.0, "uid": "ì©ì¸_12793", "sgg_cd": "41460", "sgg_nm": "ì©ì¸ì", "lclsf_cd": "I", "lclsf_nm": "ìê°íê±´ì¡°ì§", "mclsf_cd": "ID", "mclsf_nm": "êµíµìì¤ì§", "sclsf_cd": "ID2", "sclsf_nm": "ì¼ë°ëë¡", "dclsf_cd": "ID2_1", "dclsf_nm": "ê°ë¡ì ìë ì¼ë°ëë¡", "ldc_lc_cd": "A", "ldc_lc_nm": "ìê°íê±´ì¡°ì§ì­", "ldc_mc_cd": "A5", "ldc_mc_nm": "êµíµì§ì­", "ldc_sc_cd": "A54", "ldc_sc_nm": "ëë¡", "shade": 0.9, "heat_score": -2.69, "heat_grade_norm": 1.0 }, "geometry": { "type": "Point", "coordinates": [ 127.080251100000012, 37.2988385 ] } },
{ "type": "Feature", "properties": { "osmid": 1819993248, "y": 37.3004136, "x": 127.0809944, "junction": null, "street_count": 3, "highway": null, "ref": null, "felt_temp": 36.876701354980469, "heat_grade": 8.0, "index_right": 4223.0, "uid": "ì©ì¸_12793", "sgg_cd": "41460", "sgg_nm": "ì©ì¸ì", "lclsf_cd": "I", "lclsf_nm": "ìê°íê±´ì¡°ì§", "mclsf_cd": "ID", "mclsf_nm": "êµíµìì¤ì§", "sclsf_cd": "ID2", "sclsf_nm": "ì¼ë°ëë¡", "dclsf_cd": "ID2_1", "dclsf_nm": "ê°ë¡ì ìë ì¼ë°ëë¡", "ldc_lc_cd": "A", "ldc_lc_nm": "ìê°íê±´ì¡°ì§ì­", "ldc_mc_cd": "A5", "ldc_mc_nm": "êµíµì§ì­", "ldc_sc_cd": "A54", "ldc_sc_nm": "ëë¡", "shade": 0.9, "heat_score": -3.32, "heat_grade_norm": 0.778 }, "geometry": { "type": "Point", "coordinates": [ 127.08099439999998, 37.3004136 ] } },
{ "type": "Feature", "properties": { "osmid": 1819993240, "y": 37.3012884, "x": 127.0819772, "junction": null, "street_count": 4, "highway": null, "ref": null, "felt_temp": 36.911647796630859, "heat_grade": 8.0, "index_right": 4223.0, "uid": "ì©ì¸_12793", "sgg_cd": "41460", "sgg_nm": "ì©ì¸ì", "lclsf_cd": "I", "lclsf_nm": "ìê°íê±´ì¡°ì§", "mclsf_cd": "ID", "mclsf_nm": "êµíµìì¤ì§", "sclsf_cd": "ID2", "sclsf_nm": "ì¼ë°ëë¡", "dclsf_cd": "ID2_1", "dclsf_nm": "ê°ë¡ì ìë ì¼ë°ëë¡", "ldc_lc_cd": "A", "ldc_lc_nm": "ìê°íê±´ì¡°ì§ì­", "ldc_mc_cd": "A5", "ldc_mc_nm": "êµíµì§ì­", "ldc_sc_cd": "A54", "ldc_sc_nm": "ëë¡", "shade": 0.9, "heat_score": -3.3, "heat_grade_norm": 0.778 }, "geometry": { "type": "Point", "coordinates": [ 127.081977200000011, 37.301288400000011 ] } },
{ "type": "Feature", "properties": { "osmid": 1824007725, "y": 37.3013438, "x": 127.0816955, "junction": null, "street_count": 4, "highway": null, "ref": null, "felt_temp": 36.953701019287109, "heat_grade": 8.0, "index_right": 675.0, "uid": "ì©ì¸_4618", "sgg_cd": "41460", "sgg_nm": "ì©ì¸ì", "lclsf_cd": "I", "lclsf_nm": "ìê°íê±´ì¡°ì§", "mclsf_cd": "ID", "mclsf_nm": "êµíµìì¤ì§", "sclsf_cd": "ID3", "sclsf_nm": "ìëë¡", "dclsf_cd": null, "dclsf_nm": null, "ldc_lc_cd": "A", "ldc_lc_nm": "ìê°íê±´ì¡°ì§ì­", "ldc_mc_cd": "A5", "ldc_mc_nm": "êµíµì§ì­", "ldc_sc_cd": "A54", "ldc_sc_nm": "ëë¡", "shade": 0.3, "heat_score": 14.73, "heat_grade_norm": 0.778 }, "geometry": { "type": "Point", "coordinates": [ 127.0816955, 37.3013438 ] } },
{ "type": "Feature", "properties": { "osmid": 1824007722, "y": 37.3024198, "x": 127.0806231, "junction": null, "street_count": 3, "highway": null, "ref": null, "felt_temp": 36.797916412353516, "heat_grade": 7.0, "index_right": 4223.0, "uid": "ì©ì¸_12793", "sgg_cd": "41460", "sgg_nm": "ì©ì¸ì", "lclsf_cd": "I", "lclsf_nm": "ìê°íê±´ì¡°ì§", "mclsf_cd": "ID", "mclsf_nm": "êµíµìì¤ì§", "sclsf_cd": "ID2", "sclsf_nm": "ì¼ë°ëë¡", "dclsf_cd": "ID2_1", "dclsf_nm": "ê°ë¡ì ìë ì¼ë°ëë¡", "ldc_lc_cd": "A", "ldc_lc_nm": "ìê°íê±´ì¡°ì§ì­", "ldc_mc_cd": "A5", "ldc_mc_nm": "êµíµì§ì­", "ldc_sc_cd": "A54", "ldc_sc_nm": "ëë¡", "shade": 0.9, "heat_score": -3.59, "heat_grade_norm": 0.667 }, "geometry": { "type": "Point", "coordinates": [ 127.0806231, 37.3024198 ] } },
{ "type": "Feature", "properties": { "osmid": 842899448, "y": 37.3026709, "x": 127.0785225, "junction": null, "street_count": 3, "highway": null, "ref": null, "felt_temp": 36.666297912597656, "heat_grade": 3.0, "index_right": 4223.0, "uid": "ì©ì¸_12793", "sgg_cd": "41460", "sgg_nm": "ì©ì¸ì", "lclsf_cd": "I", "lclsf_nm": "ìê°íê±´ì¡°ì§", "mclsf_cd": "ID", "mclsf_nm": "êµíµìì¤ì§", "sclsf_cd": "ID2", "sclsf_nm": "ì¼ë°ëë¡", "dclsf_cd": "ID2_1", "dclsf_nm": "ê°ë¡ì ìë ì¼ë°ëë¡", "ldc_lc_cd": "A", "ldc_lc_nm": "ìê°íê±´ì¡°ì§ì­", "ldc_mc_cd": "A5", "ldc_mc_nm": "êµíµì§ì­", "ldc_sc_cd": "A54", "ldc_sc_nm": "ëë¡", "shade": 0.9, "heat_score": -4.56, "heat_grade_norm": 0.222 }, "geometry": { "type": "Point", "coordinates": [ 127.0785225, 37.3026709 ] } },
{ "type": "Feature", "properties": { "osmid": 3660798017, "y": 37.3026928, "x": 127.0754937, "junction": null, "street_count": 4, "highway": null, "ref": null, "felt_temp": 36.700706481933594, "heat_grade": 5.0, "index_right": 4223.0, "uid": "ì©ì¸_12793", "sgg_cd": "41460", "sgg_nm": "ì©ì¸ì", "lclsf_cd": "I", "lclsf_nm": "ìê°íê±´ì¡°ì§", "mclsf_cd": "ID", "mclsf_nm": "êµíµìì¤ì§", "sclsf_cd": "ID2", "sclsf_nm": "ì¼ë°ëë¡", "dclsf_cd": "ID2_1", "dclsf_nm": "ê°ë¡ì ìë ì¼ë°ëë¡", "ldc_lc_cd": "A", "ldc_lc_nm": "ìê°íê±´ì¡°ì§ì­", "ldc_mc_cd": "A5", "ldc_mc_nm": "êµíµì§ì­", "ldc_sc_cd": "A54", "ldc_sc_nm": "ëë¡", "shade": 0.9, "heat_score": -4.09, "heat_grade_norm": 0.444 }, "geometry": { "type": "Point", "coordinates": [ 127.07549370000001, 37.3026928 ] } },
{ "type": "Feature", "properties": { "osmid": 4708513142, "y": 37.3028345, "x": 127.0746297, "junction": null, "street_count": 5, "highway": null, "ref": null, "felt_temp": 36.398815155029297, "heat_grade": 1.0, "index_right": 4223.0, "uid": "ì©ì¸_12793", "sgg_cd": "41460", "sgg_nm": "ì©ì¸ì", "lclsf_cd": "I", "lclsf_nm": "ìê°íê±´ì¡°ì§", "mclsf_cd": "ID", "mclsf_nm": "êµíµìì¤ì§", "sclsf_cd": "ID2", "sclsf_nm": "ì¼ë°ëë¡", "dclsf_cd": "ID2_1", "dclsf_nm": "ê°ë¡ì ìë ì¼ë°ëë¡", "ldc_lc_cd": "A", "ldc_lc_nm": "ìê°íê±´ì¡°ì§ì­", "ldc_mc_cd": "A5", "ldc_mc_nm": "êµíµì§ì­", "ldc_sc_cd": "A54", "ldc_sc_nm": "ëë¡", "shade": 0.9, "heat_score": -5.16, "heat_grade_norm": 0.0 }, "geometry": { "type": "Point", "coordinates": [ 127.0746297, 37.3028345 ] } }
]
}
