{
"type": "FeatureCollection",
"name": "cool_cycle_5km_route1_nodes",
"crs": { "type": "name", "properties": { "name": "urn:ogc:def:crs:OGC:1.3:CRS84" } },
"features": [
{ "type": "Feature", "properties": { "osmid": 3638088181, "y": 37.325803, "x": 127.0962394, "junction": null, "street_count": 3, "highway": null, "ref": null, "felt_temp": 36.311954498291016, "heat_grade": 1.0, "index_right": 4223.0, "uid": "ì©ì¸_12793", "sgg_cd": "41460", "sgg_nm": "ì©ì¸ì", "lclsf_cd": "I", "lclsf_nm": "ìê°íê±´ì¡°ì§", "mclsf_cd": "ID", "mclsf_nm": "êµíµìì¤ì§", "sclsf_cd": "ID2", "sclsf_nm": "ì¼ë°ëë¡", "dclsf_cd": "ID2_1", "dclsf_nm": "ê°ë¡ì ìë ì¼ë°ëë¡", "ldc_lc_cd": "A", "ldc_lc_nm": "ìê°íê±´ì¡°ì§ì­", "ldc_mc_cd": "A5", "ldc_mc_nm": "êµíµì§ì­", "ldc_sc_cd": "A54", "ldc_sc_nm": "ëë¡", "shade": 0.9, "heat_score": -5.21, "heat_grade_norm": 0.0 }, "geometry": { "type": "Point", "coordinates": [ 127.096239400000016, 37.325803 ] } },
{ "type": "Feature", "properties": { "osmid": 3638084966, "y": 37.3253146, "x": 127.0954602, "junction": null, "street_count": 3, "highway": null, "ref": null, "felt_temp": 36.753894805908203, "heat_grade": 6.0, "index_right": 4223.0, "uid": "ì©ì¸_12793", "sgg_cd": "41460", "sgg_nm": "ì©ì¸ì", "lclsf_cd": "I", "lclsf_nm": "ìê°íê±´ì¡°ì§", "mclsf_cd": "ID", "mclsf_nm": "êµíµìì¤ì§", "sclsf_cd": "ID2", "sclsf_nm": "ì¼ë°ëë¡", "dclsf_cd": "ID2_1", "dclsf_nm": "ê°ë¡ì ìë ì¼ë°ëë¡", "ldc_lc_cd": "A", "ldc_lc_nm": "ìê°íê±´ì¡°ì§ì­", "ldc_mc_cd": "A5", "ldc_mc_nm": "êµíµì§ì­", "ldc_sc_cd": "A54", "ldc_sc_nm": "ëë¡", "shade": 0.9, "heat_score": -3.84, "heat_grade_norm": 0.556 }, "geometry": { "type": "Point", "coordinates": [ 127.095460200000019, 37.3253146 ] } },
{ "type": "Feature", "properties": { "osmid": 3638088208, "y": 37.3248421, "x": 127.0946582, "junction": null, "street_count": 3, "highway": null, "ref": null, "felt_temp": 36.363399505615234, "heat_grade": 1.0, "index_right": 4223.0, "uid": "ì©ì¸_12793", "sgg_cd": "41460", "sgg_nm": "ì©ì¸ì", "lclsf_cd": "I", "lclsf_nm": "ìê°íê±´ì¡°ì§", "mclsf_cd": "ID", "mclsf_nm": "êµíµìì¤ì§", "sclsf_cd": "ID2", "sclsf_nm": "ì¼ë°ëë¡", "dclsf_cd": "ID2_1", "dclsf_nm": "ê°ë¡ì ìë ì¼ë°ëë¡", "ldc_lc_cd": "A", "ldc_lc_nm": "ìê°íê±´ì¡°ì§ì­", "ldc_mc_cd": "A5", "ldc_mc_nm": "êµíµì§ì­", "ldc_sc_cd": "A54", "ldc_sc_nm": "ëë¡", "shade": 0.9, "heat_score": -5.18, "heat_grade_norm": 0.0 }, "geometry": { "type": "Point", "coordinates": [ 127.0946582, 37.3248421 ] } },
{ "type": "Feature", "properties": { "osmid": 3638077031, "y": 37.3246025, "x": 127.0942248, "junction": "yes", "street_count": 4, "highway": null, "ref": null, "felt_temp": 36.874294281005859, "heat_grade": 8.0, "index_right": 4223.0, "uid": "ì©ì¸_12793", "sgg_cd": "41460", "sgg_nm": "ì©ì¸ì", "lclsf_cd": "I", "lclsf_nm": "ìê°íê±´ì¡°ì§", "mclsf_cd": "ID", "mclsf_nm": "êµíµìì¤ì§", "sclsf_cd": "ID2", "sclsf_nm": "ì¼ë°ëë¡", "dclsf_cd": "ID2_1", "dclsf_nm": "ê°ë¡ì ìë ì¼ë°ëë¡", "ldc_lc_cd": "A", "ldc_lc_nm": "ìê°íê±´ì¡°ì§ì­", "ldc_mc_cd": "A5", "ldc_mc_nm": "êµíµì§ì­", "ldc_sc_cd": "A54", "ldc_sc_nm": "ëë¡", "shade": 0.9, "heat_score": -3.32, "heat_grade_norm": 0.778 }, "geometry": { "type": "Point", "coordinates": [ 127.0942248, 37.3246025 ] } },
{ "type": "Feature", "properties": { "osmid": 842899459, "y": 37.3230224, "x": 127.0956584, "junction": "yes", "street_count": 4, "highway": null, "ref": null, "felt_temp": 37.0230712890625, "heat_grade": 9.0, "index_right": 4223.0, "uid": "ì©ì¸_12793", "sgg_cd": "41460", "sgg_nm": "ì©ì¸ì", "lclsf_cd": "I", "lclsf_nm": "ìê°íê±´ì¡°ì§", "mclsf_cd": "ID", "mclsf_nm": "êµíµìì¤ì§", "sclsf_cd": "ID2", "sclsf_nm": "ì¼ë°ëë¡", "dclsf_cd": "ID2_1", "dclsf_nm": "ê°ë¡ì ìë ì¼ë°ëë¡", "ldc_lc_cd": "A", "ldc_lc_nm": "ìê°íê±´ì¡°ì§ì­", "ldc_mc_cd": "A5", "ldc_mc_nm": "êµíµì§ì­", "ldc_sc_cd": "A54", "ldc_sc_nm": "ëë¡", "shade": 0.9, "heat_score": -3.01, "heat_grade_norm": 0.889 }, "geometry": { "type": "Point", "coordinates": [ 127.0956584, 37.3230224 ] } },
{ "type": "Feature", "properties": { "osmid": 6269743767, "y": 37.3225274, "x": 127.0947426, "junction": null, "street_count": 3, "highway": null, "ref": null, "felt_temp": 36.333759307861328, "heat_grade": 1.0, "index_right": 5914.0, "uid": "ì©ì¸_119265", "sgg_cd": "41460", "sgg_nm": "ì©ì¸ì", "lclsf_cd": "I", "lclsf_nm": "ìê°íê±´ì¡°ì§", "mclsf_cd": "ID", "mclsf_nm": "êµíµìì¤ì§", "sclsf_cd": "ID2", "sclsf_nm": "ì¼ë°ëë¡", "dclsf_cd": "ID2_2", "dclsf_nm": "ê°ë¡ì ìë ì¼ë°ëë¡", "ldc_lc_cd": "A", "ldc_lc_nm": "ìê°íê±´ì¡°ì§ì­", "ldc_mc_cd": "A5", "ldc_mc_nm": "êµíµì§ì­", "ldc_sc_cd": "A54", "ldc_sc_nm": "ëë¡", "shade": 0.1, "heat_score": 18.8, "heat_grade_norm": 0.0 }, "geometry": { "type": "Point", "coordinates": [ 127.094742600000018, 37.3225274 ] } },
{ "type": "Feature", "properties": { "osmid": 842899419, "y": 37.3219477, "x": 127.0937055, "junction": "yes", "street_count": 4, "highway": null, "ref": null, "felt_temp": 36.409053802490234, "heat_grade": 1.0, "index_right": 4223.0, "uid": "ì©ì¸_12793", "sgg_cd": "41460", "sgg_nm": "ì©ì¸ì", "lclsf_cd": "I", "lclsf_nm": "ìê°íê±´ì¡°ì§", "mclsf_cd": "ID", "mclsf_nm": "êµíµìì¤ì§", "sclsf_cd": "ID2", "sclsf_nm": "ì¼ë°ëë¡", "dclsf_cd": "ID2_1", "dclsf_nm": "ê°ë¡ì ìë ì¼ë°ëë¡", "ldc_lc_cd": "A", "ldc_lc_nm": "ìê°íê±´ì¡°ì§ì­", "ldc_mc_cd": "A5", "ldc_mc_nm": "êµíµì§ì­", "ldc_sc_cd": "A54", "ldc_sc_nm": "ëë¡", "shade": 0.9, "heat_score": -5.15, "heat_grade_norm": 0.0 }, "geometry": { "type": "Point", "coordinates": [ 127.093705499999984, 37.3219477 ] } },
{ "type": "Feature", "properties": { "osmid": 3699314313, "y": 37.3216475, "x": 127.093964, "junction": null, "street_count": 3, "highway": null, "ref": null, "felt_temp": 36.925197601318359, "heat_grade": 8.0, "index_right": 4223.0, "uid": "ì©ì¸_12793", "sgg_cd": "41460", "sgg_nm": "ì©ì¸ì", "lclsf_cd": "I", "lclsf_nm": "ìê°íê±´ì¡°ì§", "mclsf_cd": "ID", "mclsf_nm": "êµíµìì¤ì§", "sclsf_cd": "ID2", "sclsf_nm": "ì¼ë°ëë¡", "dclsf_cd": "ID2_1", "dclsf_nm": "ê°ë¡ì ìë ì¼ë°ëë¡", "ldc_lc_cd": "A", "ldc_lc_nm": "ìê°íê±´ì¡°ì§ì­", "ldc_mc_cd": "A5", "ldc_mc_nm": "êµíµì§ì­", "ldc_sc_cd": "A54", "ldc_sc_nm": "ëë¡", "shade": 0.9, "heat_score": -3.29, "heat_grade_norm": 0.778 }, "geometry": { "type": "Point", "coordinates": [ 127.093964, 37.3216475 ] } },
{ "type": "Feature", "properties": { "osmid": 3638077027, "y": 37.3213421, "x": 127.094232, "junction": null, "street_count": 3, "highway": null, "ref": null, "felt_temp": 36.378372192382812, "heat_grade": 1.0, "index_right": 4223.0, "uid": "ì©ì¸_12793", "sgg_cd": "41460", "sgg_nm": "ì©ì¸ì", "lclsf_cd": "I", "lclsf_nm": "ìê°íê±´ì¡°ì§", "mclsf_cd": "ID", "mclsf_nm": "êµíµìì¤ì§", "sclsf_cd": "ID2", "sclsf_nm": "ì¼ë°ëë¡", "dclsf_cd": "ID2_1", "dclsf_nm": "ê°ë¡ì ìë ì¼ë°ëë¡", "ldc_lc_cd": "A", "ldc_lc_nm": "ìê°íê±´ì¡°ì§ì­", "ldc_mc_cd": "A5", "ldc_mc_nm": "êµíµì§ì­", "ldc_sc_cd": "A54", "ldc_sc_nm": "ëë¡", "shade": 0.9, "heat_score": -5.17, "heat_grade_norm": 0.0 }, "geometry": { "type": "Point", "coordinates": [ 127.094232, 37.3213421 ] } },
{ "type": "Feature", "properties": { "osmid": 3638077029, "y": 37.3214335, "x": 127.0960585, "junction": null, "street_count": 3, "highway": null, "ref": null, "felt_temp": 37.000438690185547, "heat_grade": 8.0, "index_right": 4223.0, "uid": "ì©ì¸_12793", "sgg_cd": "41460", "sgg_nm": "ì©ì¸ì", "lclsf_cd": "I", "lclsf_nm": "ìê°íê±´ì¡°ì§", "mclsf_cd": "ID", "mclsf_nm": "êµíµìì¤ì§", "sclsf_cd": "ID2", "sclsf_nm": "ì¼ë°ëë¡", "dclsf_cd": "ID2_1", "dclsf_nm": "ê°ë¡ì ìë ì¼ë°ëë¡", "ldc_lc_cd": "A", "ldc_lc_nm": "ìê°íê±´ì¡°ì§ì­", "ldc_mc_cd": "A5", "ldc_mc_nm": "êµíµì§ì­", "ldc_sc_cd": "A54", "ldc_sc_nm": "ëë¡", "shade": 0.9, "heat_score": -3.24, "heat_grade_norm": 0.778 }, "geometry": { "type": "Point", "coordinates": [ 127.096058500000012, 37.3214335 ] } },
{ "type": "Feature", "properties": { "osmid": 3638077030, "y": 37.3218259, "x": 127.0967371, "junction": null, "street_count": 3, "highway": null, "ref": null, "felt_temp": 37.017353057861328, "heat_grade": 9.0, "index_right": 4223.0, "uid": "ì©ì¸_12793", "sgg_cd": "41460", "sgg_nm": "ì©ì¸ì", "lclsf_cd": "I", "lclsf_nm": "ìê°íê±´ì¡°ì§", "mclsf_cd": "ID", "mclsf_nm": "êµíµìì¤ì§", "sclsf_cd": "ID2", "sclsf_nm": "ì¼ë°ëë¡", "dclsf_cd": "ID2_1", "dclsf_nm": "ê°ë¡ì ìë ì¼ë°ëë¡", "ldc_lc_cd": "A", "ldc_lc_nm": "ìê°íê±´ì¡°ì§ì­", "ldc_mc_cd": "A5", "ldc_mc_nm": "êµíµì§ì­", "ldc_sc_cd": "A54", "ldc_sc_nm": "ëë¡", "shade": 0.9, "heat_score": -3.01, "heat_grade_norm": 0.889 }, "geometry": { "type": "Point", "coordinates": [ 127.0967371, 37.3218259 ] } },
{ "type": "Feature", "properties": { "osmid": 7857963328, "y": 37.3211488, "x": 127.0973615, "junction": null, "street_count": 4, "highway": null, "ref": null, "felt_temp": 36.919723510742188, "heat_grade": 8.0, "index_right": 4223.0, "uid": "ì©ì¸_12793", "sgg_cd": "41460", "sgg_nm": "ì©ì¸ì", "lclsf_cd": "I", "lclsf_nm": "ìê°íê±´ì¡°ì§", "mclsf_cd": "ID", "mclsf_nm": "êµíµìì¤ì§", "sclsf_cd": "ID2", "sclsf_nm": "ì¼ë°ëë¡", "dclsf_cd": "ID2_1", "dclsf_nm": "ê°ë¡ì ìë ì¼ë°ëë¡", "ldc_lc_cd": "A", "ldc_lc_nm": "ìê°íê±´ì¡°ì§ì­", "ldc_mc_cd": "A5", "ldc_mc_nm": "êµíµì§ì­", "ldc_sc_cd": "A54", "ldc_sc_nm": "ëë¡", "shade": 0.9, "heat_score": -3.29, "heat_grade_norm": 0.778 }, "geometry": { "type": "Point", "coordinates": [ 127.097361500000019, 37.3211488 ] } },
{ "type": "Feature", "properties": { "osmid": 414694371, "y": 37.3166525, "x": 127.0901614, "junction": "yes", "street_count": 5, "highway": null, "ref": null, "felt_temp": 37.042392730712891, "heat_grade": 9.0, "index_right": 4223.0, "uid": "ì©ì¸_12793", "sgg_cd": "41460", "sgg_nm": "ì©ì¸ì", "lclsf_cd": "I", "lclsf_nm": "ìê°íê±´ì¡°ì§", "mclsf_cd": "ID", "mclsf_nm": "êµíµìì¤ì§", "sclsf_cd": "ID2", "sclsf_nm": "ì¼ë°ëë¡", "dclsf_cd": "ID2_1", "dclsf_nm": "ê°ë¡ì ìë ì¼ë°ëë¡", "ldc_lc_cd": "A", "ldc_lc_nm": "ìê°íê±´ì¡°ì§ì­", "ldc_mc_cd": "A5", "ldc_mc_nm": "êµíµì§ì­", "ldc_sc_cd": "A54", "ldc_sc_nm": "ëë¡", "shade": 0.9, "heat_score": -3.0, "heat_grade_norm": 0.889 }, "geometry": { "type": "Point", "coordinates": [ 127.0901614, 37.3166525 ] } },
{ "type": "Feature", "properties": { "osmid": 1994672751, "y": 37.3157442, "x": 127.0886562, "junction": null, "street_count": 3, "highway": null, "ref": null, "felt_temp": 36.894710540771484, "heat_grade": 8.0, "index_right": 4223.0, "uid": "ì©ì¸_12793", "sgg_cd": "41460", "sgg_nm": "ì©ì¸ì", "lclsf_cd": "I", "lclsf_nm": "ìê°íê±´ì¡°ì§", "mclsf_cd": "ID", "mclsf_nm": "êµíµìì¤ì§", "sclsf_cd": "ID2", "sclsf_nm": "ì¼ë°ëë¡", "dclsf_cd": "ID2_1", "dclsf_nm": "ê°ë¡ì ìë ì¼ë°ëë¡", "ldc_lc_cd": "A", "ldc_lc_nm": "ìê°íê±´ì¡°ì§ì­", "ldc_mc_cd": "A5", "ldc_mc_nm": "êµíµì§ì­", "ldc_sc_cd": "A54", "ldc_sc_nm": "ëë¡", "shade": 0.9, "heat_score": -3.31, "heat_grade_norm": 0.778 }, "geometry": { "type": "Point", "coordinates": [ 127.0886562, 37.3157442 ] } },
{ "type": "Feature", "properties": { "osmid": 3655080125, "y": 37.3169431, "x": 127.0876387, "junction": null, "street_count": 4, "highway": null, "ref": null, "felt_temp": 36.741352081298828, "heat_grade": 6.0, "index_right": 3041.0, "uid": "ì©ì¸_8739", "sgg_cd": "41460", "sgg_nm": "ì©ì¸ì", "lclsf_cd": "I", "lclsf_nm": "ìê°íê±´ì¡°ì§", "mclsf_cd": "ID", "mclsf_nm": "êµíµìì¤ì§", "sclsf_cd": "ID2", "sclsf_nm": "ì¼ë°ëë¡", "dclsf_cd": "ID2_2", "dclsf_nm": "ê°ë¡ì ìë ì¼ë°ëë¡", "ldc_lc_cd": "A", "ldc_lc_nm": "ìê°íê±´ì¡°ì§ì­", "ldc_mc_cd": "A5", "ldc_mc_nm": "êµíµì§ì­", "ldc_sc_cd": "A54", "ldc_sc_nm": "ëë¡", "shade": 0.1, "heat_score": 20.16, "heat_grade_norm": 0.556 }, "geometry": { "type": "Point", "coordinates": [ 127.087638699999985, 37.3169431 ] } },
{ "type": "Feature", "properties": { "osmid": 1994672752, "y": 37.3180479, "x": 127.0867422, "junction": null, "street_count": 3, "highway": null, "ref": null, "felt_temp": 37.066616058349609, "heat_grade": 9.0, "index_right": 4223.0, "uid": "ì©ì¸_12793", "sgg_cd": "41460", "sgg_nm": "ì©ì¸ì", "lclsf_cd": "I", "lclsf_nm": "ìê°íê±´ì¡°ì§", "mclsf_cd": "ID", "mclsf_nm": "êµíµìì¤ì§", "sclsf_cd": "ID2", "sclsf_nm": "ì¼ë°ëë¡", "dclsf_cd": "ID2_1", "dclsf_nm": "ê°ë¡ì ìë ì¼ë°ëë¡", "ldc_lc_cd": "A", "ldc_lc_nm": "ìê°íê±´ì¡°ì§ì­", "ldc_mc_cd": "A5", "ldc_mc_nm": "êµíµì§ì­", "ldc_sc_cd": "A54", "ldc_sc_nm": "ëë¡", "shade": 0.9, "heat_score": -2.98, "heat_grade_norm": 0.889 }, "geometry": { "type": "Point", "coordinates": [ 127.0867422, 37.3180479 ] } },
{ "type": "Feature", "properties": { "osmid": 842899463, "y": 37.3180349, "x": 127.085857, "junction": null, "street_count": 3, "highway": null, "ref": null, "felt_temp": 37.040931701660156, "heat_grade": 9.0, "index_right": 4223.0, "uid": "ì©ì¸_12793", "sgg_cd": "41460", "sgg_nm": "ì©ì¸ì", "lclsf_cd": "I", "lclsf_nm": "ìê°íê±´ì¡°ì§", "mclsf_cd": "ID", "mclsf_nm": "êµíµìì¤ì§", "sclsf_cd": "ID2", "sclsf_nm": "ì¼ë°ëë¡", "dclsf_cd": "ID2_1", "dclsf_nm": "ê°ë¡ì ìë ì¼ë°ëë¡", "ldc_lc_cd": "A", "ldc_lc_nm": "ìê°íê±´ì¡°ì§ì­", "ldc_mc_cd": "A5", "ldc_mc_nm": "êµíµì§ì­", "ldc_sc_cd": "A54", "ldc_sc_nm": "ëë¡", "shade": 0.9, "heat_score": -3.0, "heat_grade_norm": 0.889 }, "geometry": { "type": "Point", "coordinates": [ 127.085857, 37.3180349 ] } },
{ "type": "Feature", "properties": { "osmid": 11831009774, "y": 37.3187179, "x": 127.0841426, "junction": null, "street_count": 3, "highway": null, "ref": null, "felt_temp": 37.09466552734375, "heat_grade": 9.0, "index_right": 4223.0, "uid": "ì©ì¸_12793", "sgg_cd": "41460", "sgg_nm": "ì©ì¸ì", "lclsf_cd": "I", "lclsf_nm": "ìê°íê±´ì¡°ì§", "mclsf_cd": "ID", "mclsf_nm": "êµíµìì¤ì§", "sclsf_cd": "ID2", "sclsf_nm": "ì¼ë°ëë¡", "dclsf_cd": "ID2_1", "dclsf_nm": "ê°ë¡ì ìë ì¼ë°ëë¡", "ldc_lc_cd": "A", "ldc_lc_nm": "ìê°íê±´ì¡°ì§ì­", "ldc_mc_cd": "A5", "ldc_mc_nm": "êµíµì§ì­", "ldc_sc_cd": "A54", "ldc_sc_nm": "ëë¡", "shade": 0.9, "heat_score": -2.97, "heat_grade_norm": 0.889 }, "geometry": { "type": "Point", "coordinates": [ 127.0841426, 37.31871790000001 ] } },
{ "type": "Feature", "properties": { "osmid": 11831008067, "y": 37.3187929, "x": 127.0839278, "junction": null, "street_count": 3, "highway": null, "ref": null, "felt_temp": 37.033016204833984, "heat_grade": 9.0, "index_right": 4223.0, "uid": "ì©ì¸_12793", "sgg_cd": "41460", "sgg_nm": "ì©ì¸ì", "lclsf_cd": "I", "lclsf_nm": "ìê°íê±´ì¡°ì§", "mclsf_cd": "ID", "mclsf_nm": "êµíµìì¤ì§", "sclsf_cd": "ID2", "sclsf_nm": "ì¼ë°ëë¡", "dclsf_cd": "ID2_1", "dclsf_nm": "ê°ë¡ì ìë ì¼ë°ëë¡", "ldc_lc_cd": "A", "ldc_lc_nm": "ìê°íê±´ì¡°ì§ì­", "ldc_mc_cd": "A5", "ldc_mc_nm": "êµíµì§ì­", "ldc_sc_cd": "A54", "ldc_sc_nm": "ëë¡", "shade": 0.9, "heat_score": -3.0, "heat_grade_norm": 0.889 }, "geometry": { "type": "Point", "coordinates": [ 127.0839278, 37.3187929 ] } },
{ "type": "Feature", "properties": { "osmid": 842899428, "y": 37.3188874, "x": 127.0836481, "junction": "yes", "street_count": 4, "highway": null, "ref": null, "felt_temp": 37.11175537109375, "heat_grade": 9.0, "index_right": 4223.0, "uid": "ì©ì¸_12793", "sgg_cd": "41460", "sgg_nm": "ì©ì¸ì", "lclsf_cd": "I", "lclsf_nm": "ìê°íê±´ì¡°ì§", "mclsf_cd": "ID", "mclsf_nm": "êµíµìì¤ì§", "sclsf_cd": "ID2", "sclsf_nm": "ì¼ë°ëë¡", "dclsf_cd": "ID2_1", "dclsf_nm": "ê°ë¡ì ìë ì¼ë°ëë¡", "ldc_lc_cd": "A", "ldc_lc_nm": "ìê°íê±´ì¡°ì§ì­", "ldc_mc_cd": "A5", "ldc_mc_nm": "êµíµì§ì­", "ldc_sc_cd": "A54", "ldc_sc_nm": "ëë¡", "shade": 0.9, "heat_score": -2.96, "heat_grade_norm": 0.889 }, "geometry": { "type": "Point", "coordinates": [ 127.0836481, 37.3188874 ] } },
{ "type": "Feature", "properties": { "osmid": 13539327752, "y": 37.3189317, "x": 127.0835198, "junction": null, "street_count": 4, "highway": null, "ref": null, "felt_temp": 37.046783447265625, "heat_grade": 9.0, "index_right": 4223.0, "uid": "ì©ì¸_12793", "sgg_cd": "41460", "sgg_nm": "ì©ì¸ì", "lclsf_cd": "I", "lclsf_nm": "ìê°íê±´ì¡°ì§", "mclsf_cd": "ID", "mclsf_nm": "êµíµìì¤ì§", "sclsf_cd": "ID2", "sclsf_nm": "ì¼ë°ëë¡", "dclsf_cd": "ID2_1", "dclsf_nm": "ê°ë¡ì ìë ì¼ë°ëë¡", "ldc_lc_cd": "A", "ldc_lc_nm": "ìê°íê±´ì¡°ì§ì­", "ldc_mc_cd": "A5", "ldc_mc_nm": "êµíµì§ì­", "ldc_sc_cd": "A54", "ldc_sc_nm": "ëë¡", "shade": 0.9, "heat_score": -2.99, "heat_grade_norm": 0.889 }, "geometry": { "type": "Point", "coordinates": [ 127.083519800000019, 37.3189317 ] } },
{ "type": "Feature", "properties": { "osmid": 13539327750, "y": 37.3187337, "x": 127.0834023, "junction": null, "street_count": 3, "highway": null, "ref": null, "felt_temp": 37.052871704101562, "heat_grade": 9.0, "index_right": 4223.0, "uid": "ì©ì¸_12793", "sgg_cd": "41460", "sgg_nm": "ì©ì¸ì", "lclsf_cd": "I", "lclsf_nm": "ìê°íê±´ì¡°ì§", "mclsf_cd": "ID", "mclsf_nm": "êµíµìì¤ì§", "sclsf_cd": "ID2", "sclsf_nm": "ì¼ë°ëë¡", "dclsf_cd": "ID2_1", "dclsf_nm": "ê°ë¡ì ìë ì¼ë°ëë¡", "ldc_lc_cd": "A", "ldc_lc_nm": "ìê°íê±´ì¡°ì§ì­", "ldc_mc_cd": "A5", "ldc_mc_nm": "êµíµì§ì­", "ldc_sc_cd": "A54", "ldc_sc_nm": "ëë¡", "shade": 0.9, "heat_score": -2.99, "heat_grade_norm": 0.889 }, "geometry": { "type": "Point", "coordinates": [ 127.083402299999989, 37.31873370000001 ] } },
{ "type": "Feature", "properties": { "osmid": 11831008065, "y": 37.3190433, "x": 127.083253, "junction": null, "street_count": 3, "highway": null, "ref": null, "felt_temp": 36.98358154296875, "heat_grade": 8.0, "index_right": 4223.0, "uid": "ì©ì¸_12793", "sgg_cd": "41460", "sgg_nm": "ì©ì¸ì", "lclsf_cd": "I", "lclsf_nm": "ìê°íê±´ì¡°ì§", "mclsf_cd": "ID", "mclsf_nm": "êµíµìì¤ì§", "sclsf_cd": "ID2", "sclsf_nm": "ì¼ë°ëë¡", "dclsf_cd": "ID2_1", "dclsf_nm": "ê°ë¡ì ìë ì¼ë°ëë¡", "ldc_lc_cd": "A", "ldc_lc_nm": "ìê°íê±´ì¡°ì§ì­", "ldc_mc_cd": "A5", "ldc_mc_nm": "êµíµì§ì­", "ldc_sc_cd": "A54", "ldc_sc_nm": "ëë¡", "shade": 0.9, "heat_score": -3.25, "heat_grade_norm": 0.778 }, "geometry": { "type": "Point", "coordinates": [ 127.083253, 37.3190433 ] } },
{ "type": "Feature", "properties": { "osmid": 13539327752, "y": 37.3189317, "x": 127.0835198, "junction": null, "street_count": 4, "highway": null, "ref": null, "felt_temp": 37.046783447265625, "heat_grade": 9.0, "index_right": 4223.0, "uid": "ì©ì¸_12793", "sgg_cd": "41460", "sgg_nm": "ì©ì¸ì", "lclsf_cd": "I", "lclsf_nm": "ìê°íê±´ì¡°ì§", "mclsf_cd": "ID", "mclsf_nm": "êµíµìì¤ì§", "sclsf_cd": "ID2", "sclsf_nm": "ì¼ë°ëë¡", "dclsf_cd": "ID2_1", "dclsf_nm": "ê°ë¡ì ìë ì¼ë°ëë¡", "ldc_lc_cd": "A", "ldc_lc_nm": "ìê°íê±´ì¡°ì§ì­", "ldc_mc_cd": "A5", "ldc_mc_nm": "êµíµì§ì­", "ldc_sc_cd": "A54", "ldc_sc_nm": "ëë¡", "shade": 0.9, "heat_score": -2.99, "heat_grade_norm": 0.889 }, "geometry": { "type": "Point", "coordinates": [ 127.083519800000019, 37.3189317 ] } },
{ "type": "Feature", "properties": { "osmid": 13539327755, "y": 37.3193363, "x": 127.0837942, "junction": null, "street_count": 3, "highway": null, "ref": null, "felt_temp": 36.698226928710938, "heat_grade": 5.0, "index_right": 4223.0, "uid": "ì©ì¸_12793", "sgg_cd": "41460", "sgg_nm": "ì©ì¸ì", "lclsf_cd": "I", "lclsf_nm": "ìê°íê±´ì¡°ì§", "mclsf_cd": "ID", "mclsf_nm": "êµíµìì¤ì§", "sclsf_cd": "ID2", "sclsf_nm": "ì¼ë°ëë¡", "dclsf_cd": "ID2_1", "dclsf_nm": "ê°ë¡ì ìë ì¼ë°ëë¡", "ldc_lc_cd": "A", "ldc_lc_nm": "ìê°íê±´ì¡°ì§ì­", "ldc_mc_cd": "A5", "ldc_mc_nm": "êµíµì§ì­", "ldc_sc_cd": "A54", "ldc_sc_nm": "ëë¡", "shade": 0.9, "heat_score": -4.09, "heat_grade_norm": 0.444 }, "geometry": { "type": "Point", "coordinates": [ 127.0837942, 37.319336300000018 ] } },
{ "type": "Feature", "properties": { "osmid": 11831009773, "y": 37.3191449, "x": 127.0830472, "junction": null, "street_count": 3, "highway": null, "ref": null, "felt_temp": 36.998928070068359, "heat_grade": 8.0, "index_right": 4223.0, "uid": "ì©ì¸_12793", "sgg_cd": "41460", "sgg_nm": "ì©ì¸ì", "lclsf_cd": "I", "lclsf_nm": "ìê°íê±´ì¡°ì§", "mclsf_cd": "ID", "mclsf_nm": "êµíµìì¤ì§", "sclsf_cd": "ID2", "sclsf_nm": "ì¼ë°ëë¡", "dclsf_cd": "ID2_1", "dclsf_nm": "ê°ë¡ì ìë ì¼ë°ëë¡", "ldc_lc_cd": "A", "ldc_lc_nm": "ìê°íê±´ì¡°ì§ì­", "ldc_mc_cd": "A5", "ldc_mc_nm": "êµíµì§ì­", "ldc_sc_cd": "A54", "ldc_sc_nm": "ëë¡", "shade": 0.9, "heat_score": -3.25, "heat_grade_norm": 0.778 }, "geometry": { "type": "Point", "coordinates": [ 127.0830472, 37.3191449 ] } },
{ "type": "Feature", "properties": { "osmid": 3529513828, "y": 37.319382, "x": 127.0824425, "junction": null, "street_count": 4, "highway": null, "ref": null, "felt_temp": 36.856964111328125, "heat_grade": 8.0, "index_right": 4223.0, "uid": "ì©ì¸_12793", "sgg_cd": "41460", "sgg_nm": "ì©ì¸ì", "lclsf_cd": "I", "lclsf_nm": "ìê°íê±´ì¡°ì§", "mclsf_cd": "ID", "mclsf_nm": "êµíµìì¤ì§", "sclsf_cd": "ID2", "sclsf_nm": "ì¼ë°ëë¡", "dclsf_cd": "ID2_1", "dclsf_nm": "ê°ë¡ì ìë ì¼ë°ëë¡", "ldc_lc_cd": "A", "ldc_lc_nm": "ìê°íê±´ì¡°ì§ì­", "ldc_mc_cd": "A5", "ldc_mc_nm": "êµíµì§ì­", "ldc_sc_cd": "A54", "ldc_sc_nm": "ëë¡", "shade": 0.9, "heat_score": -3.33, "heat_grade_norm": 0.778 }, "geometry": { "type": "Point", "coordinates": [ 127.082442500000013, 37.319382 ] } },
{ "type": "Feature", "properties": { "osmid": 12794837217, "y": 37.3216088, "x": 127.0800601, "junction": null, "street_count": 3, "highway": null, "ref": null, "felt_temp": 36.822338104248047, "heat_grade": 8.0, "index_right": 4223.0, "uid": "ì©ì¸_12793", "sgg_cd": "41460", "sgg_nm": "ì©ì¸ì", "lclsf_cd": "I", "lclsf_nm": "ìê°íê±´ì¡°ì§", "mclsf_cd": "ID", "mclsf_nm": "êµíµìì¤ì§", "sclsf_cd": "ID2", "sclsf_nm": "ì¼ë°ëë¡", "dclsf_cd": "ID2_1", "dclsf_nm": "ê°ë¡ì ìë ì¼ë°ëë¡", "ldc_lc_cd": "A", "ldc_lc_nm": "ìê°íê±´ì¡°ì§ì­", "ldc_mc_cd": "A5", "ldc_mc_nm": "êµíµì§ì­", "ldc_sc_cd": "A54", "ldc_sc_nm": "ëë¡", "shade": 0.9, "heat_score": -3.35, "heat_grade_norm": 0.778 }, "geometry": { "type": "Point", "coordinates": [ 127.080060099999983, 37.3216088 ] } },
{ "type": "Feature", "properties": { "osmid": 1924789280, "y": 37.3219582, "x": 127.0797667, "junction": "yes", "street_count": 3, "highway": null, "ref": null, "felt_temp": 37.068618774414062, "heat_grade": 9.0, "index_right": 4223.0, "uid": "ì©ì¸_12793", "sgg_cd": "41460", "sgg_nm": "ì©ì¸ì", "lclsf_cd": "I", "lclsf_nm": "ìê°íê±´ì¡°ì§", "mclsf_cd": "ID", "mclsf_nm": "êµíµìì¤ì§", "sclsf_cd": "ID2", "sclsf_nm": "ì¼ë°ëë¡", "dclsf_cd": "ID2_1", "dclsf_nm": "ê°ë¡ì ìë ì¼ë°ëë¡", "ldc_lc_cd": "A", "ldc_lc_nm": "ìê°íê±´ì¡°ì§ì­", "ldc_mc_cd": "A5", "ldc_mc_nm": "êµíµì§ì­", "ldc_sc_cd": "A54", "ldc_sc_nm": "ëë¡", "shade": 0.9, "heat_score": -2.98, "heat_grade_norm": 0.889 }, "geometry": { "type": "Point", "coordinates": [ 127.079766699999979, 37.3219582 ] } },
{ "type": "Feature", "properties": { "osmid": 3707678681, "y": 37.3224252, "x": 127.0799336, "junction": null, "street_count": 5, "highway": null, "ref": null, "felt_temp": 36.993259429931641, "heat_grade": 8.0, "index_right": 4223.0, "uid": "ì©ì¸_12793", "sgg_cd": "41460", "sgg_nm": "ì©ì¸ì", "lclsf_cd": "I", "lclsf_nm": "ìê°íê±´ì¡°ì§", "mclsf_cd": "ID", "mclsf_nm": "êµíµìì¤ì§", "sclsf_cd": "ID2", "sclsf_nm": "ì¼ë°ëë¡", "dclsf_cd": "ID2_1", "dclsf_nm": "ê°ë¡ì ìë ì¼ë°ëë¡", "ldc_lc_cd": "A", "ldc_lc_nm": "ìê°íê±´ì¡°ì§ì­", "ldc_mc_cd": "A5", "ldc_mc_nm": "êµíµì§ì­", "ldc_sc_cd": "A54", "ldc_sc_nm": "ëë¡", "shade": 0.9, "heat_score": -3.25, "heat_grade_norm": 0.778 }, "geometry": { "type": "Point", "coordinates": [ 127.0799336, 37.3224252 ] } },
{ "type": "Feature", "properties": { "osmid": 3660317658, "y": 37.3239314, "x": 127.0812039, "junction": null, "street_count": 3, "highway": null, "ref": null, "felt_temp": 36.244159698486328, "heat_grade": 1.0, "index_right": 4223.0, "uid": "ì©ì¸_12793", "sgg_cd": "41460", "sgg_nm": "ì©ì¸ì", "lclsf_cd": "I", "lclsf_nm": "ìê°íê±´ì¡°ì§", "mclsf_cd": "ID", "mclsf_nm": "êµíµìì¤ì§", "sclsf_cd": "ID2", "sclsf_nm": "ì¼ë°ëë¡", "dclsf_cd": "ID2_1", "dclsf_nm": "ê°ë¡ì ìë ì¼ë°ëë¡", "ldc_lc_cd": "A", "ldc_lc_nm": "ìê°íê±´ì¡°ì§ì­", "ldc_mc_cd": "A5", "ldc_mc_nm": "êµíµì§ì­", "ldc_sc_cd": "A54", "ldc_sc_nm": "ëë¡", "shade": 0.9, "heat_score": -5.25, "heat_grade_norm": 0.0 }, "geometry": { "type": "Point", "coordinates": [ 127.08120390000002, 37.3239314 ] } },
{ "type": "Feature", "properties": { "osmid": 3529506336, "y": 37.3238097, "x": 127.082035, "junction": null, "street_count": 3, "highway": null, "ref": null, "felt_temp": 36.252323150634766, "heat_grade": 1.0, "index_right": 4223.0, "uid": "ì©ì¸_12793", "sgg_cd": "41460", "sgg_nm": "ì©ì¸ì", "lclsf_cd": "I", "lclsf_nm": "ìê°íê±´ì¡°ì§", "mclsf_cd": "ID", "mclsf_nm": "êµíµìì¤ì§", "sclsf_cd": "ID2", "sclsf_nm": "ì¼ë°ëë¡", "dclsf_cd": "ID2_1", "dclsf_nm": "ê°ë¡ì ìë ì¼ë°ëë¡", "ldc_lc_cd": "A", "ldc_lc_nm": "ìê°íê±´ì¡°ì§ì­", "ldc_mc_cd": "A5", "ldc_mc_nm": "êµíµì§ì­", "ldc_sc_cd": "A54", "ldc_sc_nm": "ëë¡", "shade": 0.9, "heat_score": -5.25, "heat_grade_norm": 0.0 }, "geometry": { "type": "Point", "coordinates": [ 127.082035, 37.3238097 ] } },
{ "type": "Feature", "properties": { "osmid": 3529506337, "y": 37.3236924, "x": 127.0825983, "junction": null, "street_count": 3, "highway": null, "ref": null, "felt_temp": 36.827480316162109, "heat_grade": 8.0, "index_right": 4223.0, "uid": "ì©ì¸_12793", "sgg_cd": "41460", "sgg_nm": "ì©ì¸ì", "lclsf_cd": "I", "lclsf_nm": "ìê°íê±´ì¡°ì§", "mclsf_cd": "ID", "mclsf_nm": "êµíµìì¤ì§", "sclsf_cd": "ID2", "sclsf_nm": "ì¼ë°ëë¡", "dclsf_cd": "ID2_1", "dclsf_nm": "ê°ë¡ì ìë ì¼ë°ëë¡", "ldc_lc_cd": "A", "ldc_lc_nm": "ìê°íê±´ì¡°ì§ì­", "ldc_mc_cd": "A5", "ldc_mc_nm": "êµíµì§ì­", "ldc_sc_cd": "A54", "ldc_sc_nm": "ëë¡", "shade": 0.9, "heat_score": -3.35, "heat_grade_norm": 0.778 }, "geometry": { "type": "Point", "coordinates": [ 127.0825983, 37.3236924 ] } },
{ "type": "Feature", "properties": { "osmid": 8482871796, "y": 37.3229642, "x": 127.0821527, "junction": null, "street_count": 3, "highway": null, "ref": null, "felt_temp": 36.969562530517578, "heat_grade": 8.0, "index_right": 4223.0, "uid": "ì©ì¸_12793", "sgg_cd": "41460", "sgg_nm": "ì©ì¸ì", "lclsf_cd": "I", "lclsf_nm": "ìê°íê±´ì¡°ì§", "mclsf_cd": "ID", "mclsf_nm": "êµíµìì¤ì§", "sclsf_cd": "ID2", "sclsf_nm": "ì¼ë°ëë¡", "dclsf_cd": "ID2_1", "dclsf_nm": "ê°ë¡ì ìë ì¼ë°ëë¡", "ldc_lc_cd": "A", "ldc_lc_nm": "ìê°íê±´ì¡°ì§ì­", "ldc_mc_cd": "A5", "ldc_mc_nm": "êµíµì§ì­", "ldc_sc_cd": "A54", "ldc_sc_nm": "ëë¡", "shade": 0.9, "heat_score": -3.26, "heat_grade_norm": 0.778 }, "geometry": { "type": "Point", "coordinates": [ 127.0821527, 37.3229642 ] } },
{ "type": "Feature", "properties": { "osmid": 3529513830, "y": 37.3213045, "x": 127.0832286, "junction": null, "street_count": 4, "highway": null, "ref": null, "felt_temp": 36.859870910644531, "heat_grade": 8.0, "index_right": 4223.0, "uid": "ì©ì¸_12793", "sgg_cd": "41460", "sgg_nm": "ì©ì¸ì", "lclsf_cd": "I", "lclsf_nm": "ìê°íê±´ì¡°ì§", "mclsf_cd": "ID", "mclsf_nm": "êµíµìì¤ì§", "sclsf_cd": "ID2", "sclsf_nm": "ì¼ë°ëë¡", "dclsf_cd": "ID2_1", "dclsf_nm": "ê°ë¡ì ìë ì¼ë°ëë¡", "ldc_lc_cd": "A", "ldc_lc_nm": "ìê°íê±´ì¡°ì§ì­", "ldc_mc_cd": "A5", "ldc_mc_nm": "êµíµì§ì­", "ldc_sc_cd": "A54", "ldc_sc_nm": "ëë¡", "shade": 0.9, "heat_score": -3.33, "heat_grade_norm": 0.778 }, "geometry": { "type": "Point", "coordinates": [ 127.083228600000012, 37.3213045 ] } },
{ "type": "Feature", "properties": { "osmid": 3529513813, "y": 37.3211455, "x": 127.0849024, "junction": null, "street_count": 3, "highway": null, "ref": null, "felt_temp": 37.042728424072266, "heat_grade": 9.0, "index_right": 4223.0, "uid": "ì©ì¸_12793", "sgg_cd": "41460", "sgg_nm": "ì©ì¸ì", "lclsf_cd": "I", "lclsf_nm": "ìê°íê±´ì¡°ì§", "mclsf_cd": "ID", "mclsf_nm": "êµíµìì¤ì§", "sclsf_cd": "ID2", "sclsf_nm": "ì¼ë°ëë¡", "dclsf_cd": "ID2_1", "dclsf_nm": "ê°ë¡ì ìë ì¼ë°ëë¡", "ldc_lc_cd": "A", "ldc_lc_nm": "ìê°íê±´ì¡°ì§ì­", "ldc_mc_cd": "A5", "ldc_mc_nm": "êµíµì§ì­", "ldc_sc_cd": "A54", "ldc_sc_nm": "ëë¡", "shade": 0.9, "heat_score": -3.0, "heat_grade_norm": 0.889 }, "geometry": { "type": "Point", "coordinates": [ 127.0849024, 37.3211455 ] } },
{ "type": "Feature", "properties": { "osmid": 13539327774, "y": 37.3231401, "x": 127.0869739, "junction": "yes", "street_count": 3, "highway": null, "ref": null, "felt_temp": 36.866199493408203, "heat_grade": 8.0, "index_right": 4223.0, "uid": "ì©ì¸_12793", "sgg_cd": "41460", "sgg_nm": "ì©ì¸ì", "lclsf_cd": "I", "lclsf_nm": "ìê°íê±´ì¡°ì§", "mclsf_cd": "ID", "mclsf_nm": "êµíµìì¤ì§", "sclsf_cd": "ID2", "sclsf_nm": "ì¼ë°ëë¡", "dclsf_cd": "ID2_1", "dclsf_nm": "ê°ë¡ì ìë ì¼ë°ëë¡", "ldc_lc_cd": "A", "ldc_lc_nm": "ìê°íê±´ì¡°ì§ì­", "ldc_mc_cd": "A5", "ldc_mc_nm": "êµíµì§ì­", "ldc_sc_cd": "A54", "ldc_sc_nm": "ëë¡", "shade": 0.9, "heat_score": -3.32, "heat_grade_norm": 0.778 }, "geometry": { "type": "Point", "coordinates": [ 127.0869739, 37.32314010000001 ] } },
{ "type": "Feature", "properties": { "osmid": 13539327778, "y": 37.325315, "x": 127.0905735, "junction": null, "street_count": 4, "highway": null, "ref": null, "felt_temp": 37.118171691894531, "heat_grade": 9.0, "index_right": 4223.0, "uid": "ì©ì¸_12793", "sgg_cd": "41460", "sgg_nm": "ì©ì¸ì", "lclsf_cd": "I", "lclsf_nm": "ìê°íê±´ì¡°ì§", "mclsf_cd": "ID", "mclsf_nm": "êµíµìì¤ì§", "sclsf_cd": "ID2", "sclsf_nm": "ì¼ë°ëë¡", "dclsf_cd": "ID2_1", "dclsf_nm": "ê°ë¡ì ìë ì¼ë°ëë¡", "ldc_lc_cd": "A", "ldc_lc_nm": "ìê°íê±´ì¡°ì§ì­", "ldc_mc_cd": "A5", "ldc_mc_nm": "êµíµì§ì­", "ldc_sc_cd": "A54", "ldc_sc_nm": "ëë¡", "shade": 0.9, "heat_score": -2.95, "heat_grade_norm": 0.889 }, "geometry": { "type": "Point", "coordinates": [ 127.0905735, 37.325315 ] } },
{ "type": "Feature", "properties": { "osmid": 3677038134, "y": 37.3252036, "x": 127.0906788, "junction": "yes", "street_count": 4, "highway": null, "ref": null, "felt_temp": 37.018669128417969, "heat_grade": 9.0, "index_right": 4223.0, "uid": "ì©ì¸_12793", "sgg_cd": "41460", "sgg_nm": "ì©ì¸ì", "lclsf_cd": "I", "lclsf_nm": "ìê°íê±´ì¡°ì§", "mclsf_cd": "ID", "mclsf_nm": "êµíµìì¤ì§", "sclsf_cd": "ID2", "sclsf_nm": "ì¼ë°ëë¡", "dclsf_cd": "ID2_1", "dclsf_nm": "ê°ë¡ì ìë ì¼ë°ëë¡", "ldc_lc_cd": "A", "ldc_lc_nm": "ìê°íê±´ì¡°ì§ì­", "ldc_mc_cd": "A5", "ldc_mc_nm": "êµíµì§ì­", "ldc_sc_cd": "A54", "ldc_sc_nm": "ëë¡", "shade": 0.9, "heat_score": -3.01, "heat_grade_norm": 0.889 }, "geometry": { "type": "Point", "coordinates": [ 127.0906788, 37.3252036 ] } },
{ "type": "Feature", "properties": { "osmid": 414694398, "y": 37.326356, "x": 127.0926264, "junction": null, "street_count": 4, "highway": null, "ref": null, "felt_temp": 36.884750366210938, "heat_grade": 8.0, "index_right": 4223.0, "uid": "ì©ì¸_12793", "sgg_cd": "41460", "sgg_nm": "ì©ì¸ì", "lclsf_cd": "I", "lclsf_nm": "ìê°íê±´ì¡°ì§", "mclsf_cd": "ID", "mclsf_nm": "êµíµìì¤ì§", "sclsf_cd": "ID2", "sclsf_nm": "ì¼ë°ëë¡", "dclsf_cd": "ID2_1", "dclsf_nm": "ê°ë¡ì ìë ì¼ë°ëë¡", "ldc_lc_cd": "A", "ldc_lc_nm": "ìê°íê±´ì¡°ì§ì­", "ldc_mc_cd": "A5", "ldc_mc_nm": "êµíµì§ì­", "ldc_sc_cd": "A54", "ldc_sc_nm": "ëë¡", "shade": 0.9, "heat_score": -3.31, "heat_grade_norm": 0.778 }, "geometry": { "type": "Point", "coordinates": [ 127.0926264, 37.326356 ] } },
{ "type": "Feature", "properties": { "osmid": 13539327784, "y": 37.3264439, "x": 127.0925359, "junction": "yes", "street_count": 3, "highway": null, "ref": null, "felt_temp": 36.930080413818359, "heat_grade": 8.0, "index_right": 4223.0, "uid": "ì©ì¸_12793", "sgg_cd": "41460", "sgg_nm": "ì©ì¸ì", "lclsf_cd": "I", "lclsf_nm": "ìê°íê±´ì¡°ì§", "mclsf_cd": "ID", "mclsf_nm": "êµíµìì¤ì§", "sclsf_cd": "ID2", "sclsf_nm": "ì¼ë°ëë¡", "dclsf_cd": "ID2_1", "dclsf_nm": "ê°ë¡ì ìë ì¼ë°ëë¡", "ldc_lc_cd": "A", "ldc_lc_nm": "ìê°íê±´ì¡°ì§ì­", "ldc_mc_cd": "A5", "ldc_mc_nm": "êµíµì§ì­", "ldc_sc_cd": "A54", "ldc_sc_nm": "ëë¡", "shade": 0.9, "heat_score": -3.29, "heat_grade_norm": 0.778 }, "geometry": { "type": "Point", "coordinates": [ 127.092535900000016, 37.3264439 ] } },
{ "type": "Feature", "properties": { "osmid": 13116724457, "y": 37.3265064, "x": 127.0927481, "junction": null, "street_count": 3, "highway": "crossing", "ref": null, "felt_temp": 36.833282470703125, "heat_grade": 8.0, "index_right": 4223.0, "uid": "ì©ì¸_12793", "sgg_cd": "41460", "sgg_nm": "ì©ì¸ì", "lclsf_cd": "I", "lclsf_nm": "ìê°íê±´ì¡°ì§", "mclsf_cd": "ID", "mclsf_nm": "êµíµìì¤ì§", "sclsf_cd": "ID2", "sclsf_nm": "ì¼ë°ëë¡", "dclsf_cd": "ID2_1", "dclsf_nm": "ê°ë¡ì ìë ì¼ë°ëë¡", "ldc_lc_cd": "A", "ldc_lc_nm": "ìê°íê±´ì¡°ì§ì­", "ldc_mc_cd": "A5", "ldc_mc_nm": "êµíµì§ì­", "ldc_sc_cd": "A54", "ldc_sc_nm": "ëë¡", "shade": 0.9, "heat_score": -3.34, "heat_grade_norm": 0.778 }, "geometry": { "type": "Point", "coordinates": [ 127.0927481, 37.3265064 ] } },
{ "type": "Feature", "properties": { "osmid": 842899414, "y": 37.3279681, "x": 127.0944496, "junction": "yes", "street_count": 4, "highway": null, "ref": null, "felt_temp": 36.96966552734375, "heat_grade": 8.0, "index_right": 4223.0, "uid": "ì©ì¸_12793", "sgg_cd": "41460", "sgg_nm": "ì©ì¸ì", "lclsf_cd": "I", "lclsf_nm": "ìê°íê±´ì¡°ì§", "mclsf_cd": "ID", "mclsf_nm": "êµíµìì¤ì§", "sclsf_cd": "ID2", "sclsf_nm": "ì¼ë°ëë¡", "dclsf_cd": "ID2_1", "dclsf_nm": "ê°ë¡ì ìë ì¼ë°ëë¡", "ldc_lc_cd": "A", "ldc_lc_nm": "ìê°íê±´ì¡°ì§ì­", "ldc_mc_cd": "A5", "ldc_mc_nm": "êµíµì§ì­", "ldc_sc_cd": "A54", "ldc_sc_nm": "ëë¡", "shade": 0.9, "heat_score": -3.26, "heat_grade_norm": 0.778 }, "geometry": { "type": "Point", "coordinates": [ 127.0944496, 37.3279681 ] } },
{ "type": "Feature", "properties": { "osmid": 3641671895, "y": 37.3262125, "x": 127.0965318, "junction": null, "street_count": 3, "highway": null, "ref": null, "felt_temp": 36.731788635253906, "heat_grade": 6.0, "index_right": 4223.0, "uid": "ì©ì¸_12793", "sgg_cd": "41460", "sgg_nm": "ì©ì¸ì", "lclsf_cd": "I", "lclsf_nm": "ìê°íê±´ì¡°ì§", "mclsf_cd": "ID", "mclsf_nm": "êµíµìì¤ì§", "sclsf_cd": "ID2", "sclsf_nm": "ì¼ë°ëë¡", "dclsf_cd": "ID2_1", "dclsf_nm": "ê°ë¡ì ìë ì¼ë°ëë¡", "ldc_lc_cd": "A", "ldc_lc_nm": "ìê°íê±´ì¡°ì§ì­", "ldc_mc_cd": "A5", "ldc_mc_nm": "êµíµì§ì­", "ldc_sc_cd": "A54", "ldc_sc_nm": "ëë¡", "shade": 0.9, "heat_score": -3.85, "heat_grade_norm": 0.556 }, "geometry": { "type": "Point", "coordinates": [ 127.0965318, 37.3262125 ] } },
{ "type": "Feature", "properties": { "osmid": 842899402, "y": 37.3260464, "x": 127.0966785, "junction": "yes", "street_count": 3, "highway": null, "ref": null, "felt_temp": 36.698375701904297, "heat_grade": 5.0, "index_right": 4223.0, "uid": "ì©ì¸_12793", "sgg_cd": "41460", "sgg_nm": "ì©ì¸ì", "lclsf_cd": "I", "lclsf_nm": "ìê°íê±´ì¡°ì§", "mclsf_cd": "ID", "mclsf_nm": "êµíµìì¤ì§", "sclsf_cd": "ID2", "sclsf_nm": "ì¼ë°ëë¡", "dclsf_cd": "ID2_1", "dclsf_nm": "ê°ë¡ì ìë ì¼ë°ëë¡", "ldc_lc_cd": "A", "ldc_lc_nm": "ìê°íê±´ì¡°ì§ì­", "ldc_mc_cd": "A5", "ldc_mc_nm": "êµíµì§ì­", "ldc_sc_cd": "A54", "ldc_sc_nm": "ëë¡", "shade": 0.9, "heat_score": -4.09, "heat_grade_norm": 0.444 }, "geometry": { "type": "Point", "coordinates": [ 127.0966785, 37.3260464 ] } },
{ "type": "Feature", "properties": { "osmid": 3638088181, "y": 37.325803, "x": 127.0962394, "junction": null, "street_count": 3, "highway": null, "ref": null, "felt_temp": 36.311954498291016, "heat_grade": 1.0, "index_right": 4223.0, "uid": "ì©ì¸_12793", "sgg_cd": "41460", "sgg_nm": "ì©ì¸ì", "lclsf_cd": "I", "lclsf_nm": "ìê°íê±´ì¡°ì§", "mclsf_cd": "ID", "mclsf_nm": "êµíµìì¤ì§", "sclsf_cd": "ID2", "sclsf_nm": "ì¼ë°ëë¡", "dclsf_cd": "ID2_1", "dclsf_nm": "ê°ë¡ì ìë ì¼ë°ëë¡", "ldc_lc_cd": "A", "ldc_lc_nm": "ìê°íê±´ì¡°ì§ì­", "ldc_mc_cd": "A5", "ldc_mc_nm": "êµíµì§ì­", "ldc_sc_cd": "A54", "ldc_sc_nm": "ëë¡", "shade": 0.9, "heat_score": -5.21, "heat_grade_norm": 0.0 }, "geometry": { "type": "Point", "coordinates": [ 127.096239400000016, 37.325803 ] } }
]
}
