{
"type": "FeatureCollection",
"name": "dong_boundary_sujigu",
"crs": { "type": "name", "properties": { "name": "urn:ogc:def:crs:EPSG::5186" } },
"features": [
{ "type": "Feature", "properties": { "emd7": null, "emd8": "31193510", "emdcd": "4146551000", "emdnm": "풍덕천1동", "sggcd": "41465", "sggnm": "용인시수지구", "sidocd": "41", "sidonm": "경기도", "area": 1631963.2063192797 }, "geometry": { "type": "Polygon", "coordinates": [ [ [ 209108.18810094051878, 525996.000525556271896 ], [ 208436.993965709640179, 525994.820871229050681 ], [ 208218.495442715036916, 525588.256223146570846 ], [ 207563.275266642071074, 525970.317422061576508 ], [ 207213.641340213536751, 525945.707889266544953 ], [ 207524.583921761310194, 525790.916227156994864 ], [ 207414.907896691700444, 525592.402544750715606 ], [ 207507.433352526189992, 525262.86532701482065 ], [ 207687.794327909185085, 525101.755183737492189 ], [ 208427.330372322554467, 524937.976447079097852 ], [ 208653.140383670513984, 524636.425481250626035 ], [ 209267.917060387495439, 524935.916164612048306 ], [ 209127.652634353842586, 525000.830645171459764 ], [ 209108.18810094051878, 525996.000525556271896 ] ] ] } },
{ "type": "Feature", "properties": { "emd7": null, "emd8": "31193520", "emdcd": "4146552000", "emdnm": "풍덕천2동", "sggcd": "41465", "sggnm": "용인시수지구", "sidocd": "41", "sidonm": "경기도", "area": 1826098.1250370021 }, "geometry": { "type": "Polygon", "coordinates": [ [ [ 208653.140383670513984, 524636.425481250626035 ], [ 208427.330372322554467, 524937.976447079097852 ], [ 207687.794327909185085, 525101.755183737492189 ], [ 207507.433352526189992, 525262.86532701482065 ], [ 207414.907896691700444, 525592.402544750715606 ], [ 207524.583921761310194, 525790.916227156994864 ], [ 207213.641340213536751, 525945.707889266544953 ], [ 207106.568584587075748, 525834.100278559373692 ], [ 207153.003449856856605, 525353.025433035334572 ], [ 207381.038583902554819, 525174.286623331950977 ], [ 207566.667548728553811, 524714.835586839471944 ], [ 207360.152022334863432, 524299.821742995409295 ], [ 207199.595356334582902, 523974.099524284654763 ], [ 207290.080650625342969, 523835.898044508881867 ], [ 207705.561461710458389, 523846.345528029487468 ], [ 208158.207826293742983, 523957.618306988733821 ], [ 208326.090627428347943, 523769.253855708171614 ], [ 208858.574190457729856, 523825.438001760514453 ], [ 208895.026463390880963, 524416.241792219574563 ], [ 208653.140383670513984, 524636.425481250626035 ] ] ] } },
{ "type": "Feature", "properties": { "emd7": null, "emd8": "31193530", "emdcd": "4146553000", "emdnm": "신봉동", "sggcd": "41465", "sggnm": "용인시수지구", "sidocd": "41", "sidonm": "경기도", "area": 6529863.8959959112 }, "geometry": { "type": "Polygon", "coordinates": [ [ [ 207106.568584587075748, 525834.100278559373692 ], [ 206110.620044928422431, 526221.357063271105289 ], [ 205901.411049234389793, 526493.358025001944043 ], [ 205157.209210911038099, 526877.447377244825475 ], [ 204675.488229879905703, 526989.442702462314628 ], [ 203927.732626755343517, 527005.61741853505373 ], [ 203667.260544864431722, 526910.076527629862539 ], [ 203340.342763205670053, 527058.409273974364623 ], [ 203185.927570455562091, 527267.920396281057037 ], [ 202963.141552650486119, 527269.360046064364724 ], [ 202841.581065148784546, 527011.59349623718299 ], [ 202794.5419856342196, 526414.38195479195565 ], [ 203064.220204418554204, 526140.458058684482239 ], [ 203185.781167935638223, 525748.196893790154718 ], [ 203391.328107300010743, 525471.050279878545552 ], [ 204854.129210471262923, 525452.280680068070069 ], [ 205583.01631172944326, 525019.965209284913726 ], [ 205952.796637509745779, 524947.392295410740189 ], [ 206997.35730150991003, 524506.241575204301625 ], [ 207360.152022334863432, 524299.821742995409295 ], [ 207566.667548728553811, 524714.835586839471944 ], [ 207381.038583902554819, 525174.286623331950977 ], [ 207153.003449856856605, 525353.025433035334572 ], [ 207106.568584587075748, 525834.100278559373692 ] ] ] } },
{ "type": "Feature", "properties": { "emd7": null, "emd8": "31193610", "emdcd": "4146555500", "emdnm": "죽전3동", "sggcd": "41465", "sggnm": "용인시수지구", "sidocd": "41", "sidonm": "경기도", "area": 2251181.852610657 }, "geometry": { "type": "Polygon", "coordinates": [ [ [ 209856.413828944292618, 525290.176180827082135 ], [ 209820.50543842263869, 525002.011424303171225 ], [ 210024.646153418783797, 524632.802593325381167 ], [ 211040.3283468199661, 524675.441510467673652 ], [ 211264.403299552184762, 524359.124301818548702 ], [ 211155.426952023641206, 524004.287149022042286 ], [ 211933.207746144937119, 524517.850369953550398 ], [ 211751.903824607841671, 524797.879075305652805 ], [ 212165.128482362779323, 525022.781538963783532 ], [ 212381.078988872672198, 525001.788866877206601 ], [ 212626.688512596534565, 525177.158805177547038 ], [ 212525.085303448024206, 525543.394165239180438 ], [ 211655.674884322477737, 525309.495675681042485 ], [ 211368.625885128596565, 525583.254118319484405 ], [ 210728.114246767741861, 525676.21161480108276 ], [ 210271.134351928136311, 525549.918597582378425 ], [ 209856.413828944292618, 525290.176180827082135 ] ] ] } },
{ "type": "Feature", "properties": { "emd7": null, "emd8": "31193550", "emdcd": "4146555000", "emdnm": "죽전2동", "sggcd": "41465", "sggnm": "용인시수지구", "sidocd": "41", "sidonm": "경기도", "area": 1191946.4280327663 }, "geometry": { "type": "Polygon", "coordinates": [ [ [ 209991.639049844117835, 526273.910560853779316 ], [ 209655.747898456989788, 526309.371812662691809 ], [ 209100.654352372221183, 526747.010996499331668 ], [ 209108.18810094051878, 525996.000525556271896 ], [ 209127.652634353842586, 525000.830645171459764 ], [ 209267.917060387495439, 524935.916164612048306 ], [ 209820.50543842263869, 525002.011424303171225 ], [ 209856.413828944292618, 525290.176180827082135 ], [ 210028.187253093055915, 525783.282290821545757 ], [ 209991.639049844117835, 526273.910560853779316 ] ] ] } },
{ "type": "Feature", "properties": { "emd7": null, "emd8": "31193560", "emdcd": "4146556000", "emdnm": "동천동", "sggcd": "41465", "sggnm": "용인시수지구", "sidocd": "41", "sidonm": "경기도", "area": 16499041.233430183 }, "geometry": { "type": "Polygon", "coordinates": [ [ [ 206604.162442025146447, 528210.400507438927889 ], [ 206279.889988773298683, 528710.490024622529745 ], [ 205587.400771324959351, 529010.818431467167102 ], [ 204690.48879504884826, 529092.477714855340309 ], [ 204704.681511306291213, 529328.771182253141887 ], [ 204198.958472835831344, 529687.360366509528831 ], [ 204105.020871206681477, 529881.064418119844049 ], [ 202475.0236595334718, 530314.106229207711294 ], [ 202384.478565222700126, 529926.472752098692581 ], [ 202125.799517792416736, 529433.409772691433318 ], [ 201616.553641545760911, 529005.421174005721696 ], [ 201429.1611140507448, 528593.635208380641416 ], [ 201494.687092457344988, 528272.110073719988577 ], [ 201666.36521478681243, 528029.927076193969697 ], [ 202222.491121939820005, 527694.79863164247945 ], [ 202549.923505292332266, 527587.680501489317976 ], [ 202963.141552650486119, 527269.360046064364724 ], [ 203185.927570455562091, 527267.920396281057037 ], [ 203340.342763205670053, 527058.409273974364623 ], [ 203667.260544864431722, 526910.076527629862539 ], [ 203927.732626755343517, 527005.61741853505373 ], [ 204675.488229879905703, 526989.442702462314628 ], [ 205157.209210911038099, 526877.447377244825475 ], [ 205901.411049234389793, 526493.358025001944043 ], [ 206110.620044928422431, 526221.357063271105289 ], [ 207106.568584587075748, 525834.100278559373692 ], [ 207213.641340213536751, 525945.707889266544953 ], [ 207563.275266642071074, 525970.317422061576508 ], [ 208218.495442715036916, 525588.256223146570846 ], [ 208436.993965709640179, 525994.820871229050681 ], [ 209108.18810094051878, 525996.000525556271896 ], [ 209100.654352372221183, 526747.010996499331668 ], [ 209060.4517605129804, 527019.032015503384173 ], [ 208594.416488892195048, 527108.101511668646708 ], [ 208192.275505099678412, 527541.521436927956529 ], [ 207873.903766487783287, 527682.267710989108309 ], [ 207707.022719561733538, 527965.997558026807383 ], [ 207403.022219899983611, 528084.935991963255219 ], [ 206919.927437265461776, 527759.499863137025386 ], [ 206604.162442025146447, 528210.400507438927889 ] ] ] } },
{ "type": "Feature", "properties": { "emd7": null, "emd8": "31193630", "emdcd": "4146558500", "emdnm": "상현3동", "sggcd": "41465", "sggnm": "용인시수지구", "sidocd": "41", "sidonm": "경기도", "area": 2575423.2743873098 }, "geometry": { "type": "Polygon", "coordinates": [ [ [ 206397.636141607305035, 523455.517358596727718 ], [ 205373.598477885243483, 523523.26524533086922 ], [ 205158.100021716061747, 522856.737214113934897 ], [ 205390.883033285383135, 522763.366360685788095 ], [ 205327.633204769139411, 522248.392847561219241 ], [ 205484.52784667693777, 521905.116664060973562 ], [ 207035.354557368089445, 521563.658249209518544 ], [ 207075.425813241308788, 521794.413852965924889 ], [ 207074.197655170282815, 522026.671560248651076 ], [ 207257.765710812585894, 522450.879350792558398 ], [ 207054.436803641670849, 522510.020689802593552 ], [ 206805.157580451690592, 522799.462648032233119 ], [ 206517.910018112626858, 522785.900107640249189 ], [ 206326.879644819215173, 523122.102712739491835 ], [ 206397.636141607305035, 523455.517358596727718 ] ] ] } },
{ "type": "Feature", "properties": { "emd7": null, "emd8": "31193580", "emdcd": "4146558000", "emdnm": "상현2동", "sggcd": "41465", "sggnm": "용인시수지구", "sidocd": "41", "sidonm": "경기도", "area": 1572106.1365045747 }, "geometry": { "type": "Polygon", "coordinates": [ [ [ 208326.090627428347943, 523769.253855708171614 ], [ 208158.207826293742983, 523957.618306988733821 ], [ 207705.561461710458389, 523846.345528029487468 ], [ 207373.437690351594938, 523490.951591641525738 ], [ 207516.273323895497015, 523367.282518487423658 ], [ 207257.765710812585894, 522450.879350792558398 ], [ 207074.197655170282815, 522026.671560248651076 ], [ 207075.425813241308788, 521794.413852965924889 ], [ 207588.985386284941342, 522103.163960606674664 ], [ 207969.282558322156547, 522134.81182708585402 ], [ 208247.851208006642992, 522468.07395457738312 ], [ 208270.252004574198509, 523109.041304756479803 ], [ 208126.687191539123887, 523299.608235392370261 ], [ 208326.090627428347943, 523769.253855708171614 ] ] ] } },
{ "type": "Feature", "properties": { "emd7": null, "emd8": "31193590", "emdcd": "4146559000", "emdnm": "성복동", "sggcd": "41465", "sggnm": "용인시수지구", "sidocd": "41", "sidonm": "경기도", "area": 5028947.3044981509 }, "geometry": { "type": "Polygon", "coordinates": [ [ [ 207360.152022334863432, 524299.821742995409295 ], [ 206997.35730150991003, 524506.241575204301625 ], [ 205952.796637509745779, 524947.392295410740189 ], [ 205583.01631172944326, 525019.965209284913726 ], [ 204854.129210471262923, 525452.280680068070069 ], [ 203391.328107300010743, 525471.050279878545552 ], [ 203302.10964470912586, 525233.860020758002065 ], [ 203538.153744547918905, 524675.888907676329836 ], [ 203604.821063583542127, 524531.059575623599812 ], [ 204345.712581878527999, 524075.048008641577326 ], [ 205110.575638197973603, 524036.006317908817437 ], [ 205151.401549676113063, 523792.196802057267632 ], [ 205373.598477885243483, 523523.26524533086922 ], [ 206397.636141607305035, 523455.517358596727718 ], [ 206852.929977051768219, 523595.115772406628821 ], [ 206940.940428940259153, 523446.146943968138658 ], [ 207373.437690351594938, 523490.951591641525738 ], [ 207705.561461710458389, 523846.345528029487468 ], [ 207290.080650625342969, 523835.898044508881867 ], [ 207199.595356334582902, 523974.099524284654763 ], [ 207360.152022334863432, 524299.821742995409295 ] ] ] } },
{ "type": "Feature", "properties": { "emd7": null, "emd8": "31193600", "emdcd": "4146554000", "emdnm": "죽전1동", "sggcd": "41465", "sggnm": "용인시수지구", "sidocd": "41", "sidonm": "경기도", "area": 2305159.1531849736 }, "geometry": { "type": "Polygon", "coordinates": [ [ [ 212525.085303448024206, 525543.394165239180438 ], [ 212571.228584052005317, 526346.837474953033961 ], [ 212365.789817290584324, 526626.738473200355656 ], [ 212082.01897830152302, 526715.272750688251108 ], [ 211561.90471817960497, 526490.318192396662198 ], [ 210925.794157145399367, 526421.287949572433718 ], [ 210697.920000357611571, 526132.590424505178817 ], [ 210358.181723007117398, 526021.998718374874443 ], [ 209991.639049844117835, 526273.910560853779316 ], [ 210028.187253093055915, 525783.282290821545757 ], [ 209856.413828944292618, 525290.176180827082135 ], [ 210271.134351928136311, 525549.918597582378425 ], [ 210728.114246767741861, 525676.21161480108276 ], [ 211368.625885128596565, 525583.254118319484405 ], [ 211655.674884322477737, 525309.495675681042485 ], [ 212525.085303448024206, 525543.394165239180438 ] ] ] } },
{ "type": "Feature", "properties": { "emd7": null, "emd8": "31193620", "emdcd": "4146557000", "emdnm": "상현1동", "sggcd": "41465", "sggnm": "용인시수지구", "sidocd": "41", "sidonm": "경기도", "area": 868379.63657203352 }, "geometry": { "type": "Polygon", "coordinates": [ [ [ 207257.765710812585894, 522450.879350792558398 ], [ 207516.273323895497015, 523367.282518487423658 ], [ 207373.437690351594938, 523490.951591641525738 ], [ 206940.940428940259153, 523446.146943968138658 ], [ 206852.929977051768219, 523595.115772406628821 ], [ 206397.636141607305035, 523455.517358596727718 ], [ 206326.879644819215173, 523122.102712739491835 ], [ 206517.910018112626858, 522785.900107640249189 ], [ 206805.157580451690592, 522799.462648032233119 ], [ 207054.436803641670849, 522510.020689802593552 ], [ 207257.765710812585894, 522450.879350792558398 ] ] ] } }
]
}
