{
"type": "FeatureCollection",
"name": "sujigu_boundary",
"crs": { "type": "name", "properties": { "name": "urn:ogc:def:crs:OGC:1.3:CRS84" } },
"features": [
{ "type": "Feature", "properties": { "code": "31193", "name": "용인시수지구", "name_eng": "Yonginsisujigu", "base_year": "2013" }, "geometry": { "type": "MultiPolygon", "coordinates": [ [ [ [ 127.030045395693961, 37.369323121398111 ], [ 127.072991516407967, 37.354854261749423 ], [ 127.11899182435063, 37.330590440225457 ], [ 127.138456529961857, 37.336816804055495 ], [ 127.143971353627506, 37.33349026702227 ], [ 127.139366540683142, 37.321564168361974 ], [ 127.103927500309126, 37.319463776202767 ], [ 127.091991133572421, 37.295585212583866 ], [ 127.062694001421022, 37.293755190822594 ], [ 127.06304327683587, 37.306108137739791 ], [ 127.042021530591285, 37.318511731862884 ], [ 127.035540380789456, 37.341941908872045 ], [ 127.020909674992978, 37.348741503905366 ], [ 127.030045395693961, 37.369323121398111 ] ] ] ] } }
]
}
