{
"type": "FeatureCollection",
"name": "001_edges",
"crs": { "type": "name", "properties": { "name": "urn:ogc:def:crs:EPSG::5186" } },
"features": [
{ "type": "Feature", "properties": { "route_id": "001", "heat_score": 20.93, "heat_grade": "q1", "length": 190.90014206390975 }, "geometry": { "type": "LineString", "coordinates": [ [ 210811.25603465421591, 526210.374421533546411 ], [ 210824.489586100971792, 526215.197136191651225 ], [ 210991.101711646973854, 526209.765113901696168 ], [ 210990.131772619992262, 526199.298031203332357 ] ] } },
{ "type": "Feature", "properties": { "route_id": "001", "heat_score": 15.91, "heat_grade": "q1", "length": 104.7388337798772 }, "geometry": { "type": "LineString", "coordinates": [ [ 210990.131772619992262, 526199.298031203332357 ], [ 210969.942995347257238, 526179.904812792316079 ], [ 210939.701150016859174, 526149.577658525668085 ], [ 210932.439211929944577, 526152.586942604044452 ], [ 210922.523220712610055, 526152.107866788981482 ], [ 210918.881433397618821, 526144.92244005354587 ], [ 210922.072630557318917, 526137.468465655576438 ] ] } },
{ "type": "Feature", "properties": { "route_id": "001", "heat_score": 25.78, "heat_grade": "q1", "length": 112.9003989285802 }, "geometry": { "type": "LineString", "coordinates": [ [ 210922.072630557318917, 526137.468465655576438 ], [ 210912.025040035689017, 526149.552639738074504 ], [ 210865.152436293283245, 526150.5460295638768 ], [ 210817.958733352686977, 526132.572071458329447 ] ] } },
{ "type": "Feature", "properties": { "route_id": "001", "heat_score": 3.62, "heat_grade": "q1", "length": 86.50829623155235 }, "geometry": { "type": "LineString", "coordinates": [ [ 210811.25603465421591, 526210.374421533546411 ], [ 210801.267539071472129, 526183.714226696989499 ], [ 210798.278109723090893, 526158.505863564787433 ], [ 210817.958733352686977, 526132.572071458329447 ] ] } }
]
}
