{
"type": "FeatureCollection",
"name": "003_edges",
"crs": { "type": "name", "properties": { "name": "urn:ogc:def:crs:EPSG::5186" } },
"features": [
{ "type": "Feature", "properties": { "route_id": "003", "heat_score": 34.18, "heat_grade": "q1", "length": 31.301967761921567 }, "geometry": { "type": "LineString", "coordinates": [ [ 209670.073685108480277, 525166.616382725769654 ], [ 209666.950531739246799, 525169.520556928124279 ], [ 209662.082511331595015, 525171.423863466014154 ], [ 209656.011318889679387, 525171.416861445410177 ], [ 209650.961308914062101, 525169.735182752949186 ], [ 209647.330856440094067, 525166.778826699825004 ], [ 209644.012640616565477, 525162.058186865528114 ] ] } },
{ "type": "Feature", "properties": { "route_id": "003", "heat_score": 56.08, "heat_grade": "q2", "length": 21.698191437619531 }, "geometry": { "type": "LineString", "coordinates": [ [ 209671.853499737073435, 525145.03205834957771 ], [ 209670.073685108480277, 525166.616382725769654 ] ] } },
{ "type": "Feature", "properties": { "route_id": "003", "heat_score": 67.68, "heat_grade": "q4", "length": 83.302931191762951 }, "geometry": { "type": "LineString", "coordinates": [ [ 209671.853499737073435, 525145.03205834957771 ], [ 209676.010719763435191, 525175.34657915099524 ], [ 209681.074083590414375, 525188.470734881004319 ], [ 209684.849372413358651, 525196.454846777487546 ], [ 209699.496649325039471, 525222.286668564658612 ] ] } },
{ "type": "Feature", "properties": { "route_id": "003", "heat_score": 68.51, "heat_grade": "q4", "length": 38.350901024998507 }, "geometry": { "type": "LineString", "coordinates": [ [ 209699.496649325039471, 525222.286668564658612 ], [ 209680.14068663760554, 525236.880862283986062 ], [ 209668.848265610198723, 525245.391386398347095 ] ] } },
{ "type": "Feature", "properties": { "route_id": "003", "heat_score": 54.42, "heat_grade": "q2", "length": 33.706612336275327 }, "geometry": { "type": "LineString", "coordinates": [ [ 209669.365705145406537, 525211.752742792363279 ], [ 209669.068861339503201, 525230.886036119074561 ], [ 209668.848265610198723, 525245.391386398347095 ] ] } },
{ "type": "Feature", "properties": { "route_id": "003", "heat_score": 33.53, "heat_grade": "q1", "length": 27.511242832264482 }, "geometry": { "type": "LineString", "coordinates": [ [ 209669.365705145406537, 525211.752742792363279 ], [ 209643.434390998154413, 525202.411288917413913 ] ] } },
{ "type": "Feature", "properties": { "route_id": "003", "heat_score": 61.06, "heat_grade": "q3", "length": 40.231043009389019 }, "geometry": { "type": "LineString", "coordinates": [ [ 209643.434390998154413, 525202.411288917413913 ], [ 209635.841897011501715, 525199.69454116106499 ], [ 209605.454044087207876, 525188.916385899530724 ] ] } },
{ "type": "Feature", "properties": { "route_id": "003", "heat_score": 43.17, "heat_grade": "q1", "length": 56.63058611255228 }, "geometry": { "type": "LineString", "coordinates": [ [ 209605.454044087207876, 525188.916385899530724 ], [ 209624.689193204627372, 525179.171880836016499 ], [ 209630.685117691726191, 525175.261039871140383 ], [ 209635.875569655880099, 525170.428109578322619 ], [ 209640.164333219901891, 525163.563138157478534 ], [ 209644.140065496612806, 525151.4593658184167 ] ] } },
{ "type": "Feature", "properties": { "route_id": "003", "heat_score": 28.02, "heat_grade": "q1", "length": 10.619752754682569 }, "geometry": { "type": "LineString", "coordinates": [ [ 209644.012640616565477, 525162.058186865528114 ], [ 209644.061735681694699, 525157.907443432370201 ], [ 209644.140065496612806, 525151.4593658184167 ] ] } }
]
}
