{
"type": "FeatureCollection",
"name": "011_edges",
"crs": { "type": "name", "properties": { "name": "urn:ogc:def:crs:EPSG::5186" } },
"features": [
{ "type": "Feature", "properties": { "route_id": "011", "heat_score": 38.48, "heat_grade": "q1", "length": 50.886389134647736 }, "geometry": { "type": "LineString", "coordinates": [ [ 205958.015350577159552, 525357.974014549981803 ], [ 205964.15334632867598, 525363.538675403804518 ], [ 205970.503867988911225, 525369.347656846046448 ], [ 205986.960279582272051, 525384.386621530167758 ], [ 205995.764387266914127, 525392.12849622243084 ] ] } },
{ "type": "Feature", "properties": { "route_id": "011", "heat_score": 46.29, "heat_grade": "q1", "length": 34.780862994865167 }, "geometry": { "type": "LineString", "coordinates": [ [ 206020.296677295380505, 525367.463283319259062 ], [ 206000.473937560775084, 525387.392858043196611 ], [ 205995.764387266914127, 525392.12849622243084 ] ] } },
{ "type": "Feature", "properties": { "route_id": "011", "heat_score": 63.04, "heat_grade": "q3", "length": 163.46962726509594 }, "geometry": { "type": "LineString", "coordinates": [ [ 206020.296677295380505, 525367.463283319259062 ], [ 206049.108475298737176, 525393.820518290856853 ], [ 206051.278661567514064, 525395.48684429761488 ], [ 206052.199880613945425, 525396.197806815849617 ], [ 206056.240471466619056, 525397.377157022361644 ], [ 206059.803489475365495, 525397.146668367553502 ], [ 206063.367713029554579, 525395.251423967769369 ], [ 206086.607316149427788, 525369.076088324771263 ], [ 206102.866245682787849, 525350.775582566740923 ], [ 206103.816812254313845, 525347.702022175886668 ], [ 206103.818535236729076, 525345.338067038566805 ], [ 206102.667389977141283, 525343.92773297673557 ], [ 206098.594100526388502, 525338.941590049304068 ], [ 206089.330590279801982, 525329.234859337448142 ], [ 206081.253315990266856, 525321.415726040606387 ], [ 206073.175511514069512, 525314.306896988768131 ] ] } },
{ "type": "Feature", "properties": { "route_id": "011", "heat_score": 49.56, "heat_grade": "q2", "length": 49.564559980089228 }, "geometry": { "type": "LineString", "coordinates": [ [ 206040.161261790897697, 525277.35869092901703 ], [ 206046.334201211226173, 525283.633733205264434 ], [ 206067.711824057681952, 525307.788183904951438 ], [ 206073.175511514069512, 525314.306896988768131 ] ] } },
{ "type": "Feature", "properties": { "route_id": "011", "heat_score": 34.84, "heat_grade": "q1", "length": 115.0815055177319 }, "geometry": { "type": "LineString", "coordinates": [ [ 206040.161261790897697, 525277.35869092901703 ], [ 206030.16591591265751, 525286.818410734878853 ], [ 205998.76979564546491, 525316.617225524270907 ], [ 205966.343592687684577, 525349.522973222192377 ], [ 205958.015350577159552, 525357.974014549981803 ] ] } }
]
}
