{
"type": "FeatureCollection",
"name": "012_edges",
"crs": { "type": "name", "properties": { "name": "urn:ogc:def:crs:EPSG::5186" } },
"features": [
{ "type": "Feature", "properties": { "route_id": "012", "heat_score": 35.4, "heat_grade": "q1", "length": 138.39673571032586 }, "geometry": { "type": "LineString", "coordinates": [ [ 207307.538357283890946, 524461.361263809725642 ], [ 207318.719007541396422, 524477.774423542199656 ], [ 207328.212449543003459, 524497.671012590639293 ], [ 207332.432420891680522, 524506.864160743774846 ], [ 207343.871430137049174, 524531.767839644337073 ], [ 207355.635365439695306, 524560.045727224322036 ], [ 207356.679078909481177, 524562.554877019138075 ], [ 207364.741535682493122, 524586.712030839873478 ] ] } },
{ "type": "Feature", "properties": { "route_id": "012", "heat_score": 53.92, "heat_grade": "q2", "length": 114.63615914743707 }, "geometry": { "type": "LineString", "coordinates": [ [ 207474.159260412299773, 524551.860154829453677 ], [ 207454.778546646382893, 524557.070220398367383 ], [ 207402.671208976738853, 524574.415167135419324 ], [ 207364.741535682493122, 524586.712030839873478 ] ] } },
{ "type": "Feature", "properties": { "route_id": "012", "heat_score": 54.22, "heat_grade": "q2", "length": 106.44981575507713 }, "geometry": { "type": "LineString", "coordinates": [ [ 207474.159260412299773, 524551.860154829453677 ], [ 207431.478858803515323, 524463.76766274869442 ], [ 207427.354862259031506, 524456.394683786085807 ] ] } },
{ "type": "Feature", "properties": { "route_id": "012", "heat_score": 54.3, "heat_grade": "q2", "length": 73.153227853748291 }, "geometry": { "type": "LineString", "coordinates": [ [ 207427.354862259031506, 524456.394683786085807 ], [ 207408.976106558286119, 524440.951666767592542 ], [ 207401.587698299437761, 524436.394801561720669 ], [ 207395.614653834723867, 524435.05772112950217 ], [ 207387.87683396670036, 524434.706843764404766 ], [ 207361.160889468010282, 524435.093964835861698 ] ] } },
{ "type": "Feature", "properties": { "route_id": "012", "heat_score": 35.27, "heat_grade": "q1", "length": 59.619732686719118 }, "geometry": { "type": "LineString", "coordinates": [ [ 207361.160889468010282, 524435.093964835861698 ], [ 207307.538357283890946, 524461.361263809725642 ] ] } }
]
}
