{
"type": "FeatureCollection",
"name": "015_edges",
"crs": { "type": "name", "properties": { "name": "urn:ogc:def:crs:EPSG::5186" } },
"features": [
{ "type": "Feature", "properties": { "route_id": "015", "heat_score": 45.21, "heat_grade": "q1", "length": 44.980705328956965 }, "geometry": { "type": "LineString", "coordinates": [ [ 209215.09314063747297, 525024.965144213289022 ], [ 209216.935690334241372, 525017.819807531312108 ], [ 209231.846163440059172, 524983.364626129856333 ] ] } },
{ "type": "Feature", "properties": { "route_id": "015", "heat_score": 47.7, "heat_grade": "q1", "length": 79.596934058388939 }, "geometry": { "type": "LineString", "coordinates": [ [ 209142.877045296976576, 524991.191284093074501 ], [ 209215.09314063747297, 525024.965144213289022 ] ] } },
{ "type": "Feature", "properties": { "route_id": "015", "heat_score": 75.89, "heat_grade": "q5", "length": 17.522609444498283 }, "geometry": { "type": "LineString", "coordinates": [ [ 209142.877045296976576, 524991.191284093074501 ], [ 209143.912711866811151, 525008.650183608056977 ] ] } },
{ "type": "Feature", "properties": { "route_id": "015", "heat_score": 48.87, "heat_grade": "q2", "length": 74.703267025492281 }, "geometry": { "type": "LineString", "coordinates": [ [ 209211.237452845176449, 525041.253341919160448 ], [ 209205.363767312548589, 525038.87182823359035 ], [ 209171.019599852530519, 525021.997891013277695 ], [ 209143.912711866811151, 525008.650183608056977 ] ] } },
{ "type": "Feature", "properties": { "route_id": "015", "heat_score": 50.93, "heat_grade": "q2", "length": 29.851232532975018 }, "geometry": { "type": "LineString", "coordinates": [ [ 209238.700332769221859, 525053.08118146925699 ], [ 209211.237452845176449, 525041.253341919160448 ] ] } },
{ "type": "Feature", "properties": { "route_id": "015", "heat_score": 63.38, "heat_grade": "q3", "length": 14.818372387505509 }, "geometry": { "type": "LineString", "coordinates": [ [ 209244.042341749271145, 525039.280676114722155 ], [ 209238.700332769221859, 525053.08118146925699 ] ] } },
{ "type": "Feature", "properties": { "route_id": "015", "heat_score": 67.49, "heat_grade": "q4", "length": 44.955834308953023 }, "geometry": { "type": "LineString", "coordinates": [ [ 209259.059058544837171, 524996.979096369235776 ], [ 209252.638993887405377, 525015.805971753317863 ], [ 209247.704687800433021, 525029.584724592743441 ], [ 209244.042341749271145, 525039.280676114722155 ] ] } },
{ "type": "Feature", "properties": { "route_id": "015", "heat_score": 39.77, "heat_grade": "q1", "length": 46.473172830083065 }, "geometry": { "type": "LineString", "coordinates": [ [ 209259.059058544837171, 524996.979096369235776 ], [ 209246.676114166621119, 525005.899621250340715 ], [ 209234.175482051505242, 525001.002537435153499 ], [ 209231.846163440059172, 524983.364626129856333 ] ] } }
]
}
