{
"type": "FeatureCollection",
"name": "016_edges",
"crs": { "type": "name", "properties": { "name": "urn:ogc:def:crs:EPSG::5186" } },
"features": [
{ "type": "Feature", "properties": { "route_id": "016", "heat_score": 6.78, "heat_grade": "q1", "length": 271.38959130682633 }, "geometry": { "type": "LineString", "coordinates": [ [ 211082.322214293206343, 526233.36962316359859 ], [ 211206.008226926467614, 526233.534262385452166 ], [ 211266.721337309136288, 526233.615746603929438 ], [ 211294.922362458572024, 526231.911293352721259 ], [ 211314.761005151114659, 526214.65783964318689 ], [ 211335.329044550686376, 526188.915128727210686 ] ] } },
{ "type": "Feature", "properties": { "route_id": "016", "heat_score": 32.73, "heat_grade": "q1", "length": 187.82040793877459 }, "geometry": { "type": "LineString", "coordinates": [ [ 211337.798063990543596, 526001.699239777284674 ], [ 211337.675837321439758, 526006.882035276270472 ], [ 211338.3450377494446, 526042.79742190183606 ], [ 211339.937670254119439, 526142.829630081425421 ], [ 211335.329044550686376, 526188.915128727210686 ] ] } },
{ "type": "Feature", "properties": { "route_id": "016", "heat_score": 41.23, "heat_grade": "q1", "length": 96.128199078636769 }, "geometry": { "type": "LineString", "coordinates": [ [ 211337.798063990543596, 526001.699239777284674 ], [ 211338.025470890745055, 525905.753735146019608 ] ] } },
{ "type": "Feature", "properties": { "route_id": "016", "heat_score": 51.97, "heat_grade": "q2", "length": 85.442016233640715 }, "geometry": { "type": "LineString", "coordinates": [ [ 211338.025470890745055, 525905.753735146019608 ], [ 211334.764295361062977, 525820.535688077565283 ] ] } },
{ "type": "Feature", "properties": { "route_id": "016", "heat_score": 60.9, "heat_grade": "q3", "length": 327.60990111701977 }, "geometry": { "type": "LineString", "coordinates": [ [ 211008.645909671555273, 525840.965592179913074 ], [ 211110.355895135202445, 525843.508289033663459 ], [ 211218.404823106451659, 525837.637015725835226 ], [ 211296.249506906635361, 525819.684553740895353 ], [ 211334.764295361062977, 525820.535688077565283 ] ] } },
{ "type": "Feature", "properties": { "route_id": "016", "heat_score": 67.34, "heat_grade": "q4", "length": 83.880502302054055 }, "geometry": { "type": "LineString", "coordinates": [ [ 210924.569296578731155, 525840.47812842798885 ], [ 211008.645909671555273, 525840.965592179913074 ] ] } },
{ "type": "Feature", "properties": { "route_id": "016", "heat_score": 62.74, "heat_grade": "q3", "length": 36.439246782464522 }, "geometry": { "type": "LineString", "coordinates": [ [ 210924.569296578731155, 525840.47812842798885 ], [ 210924.30914937457419, 525876.847288854653016 ] ] } },
{ "type": "Feature", "properties": { "route_id": "016", "heat_score": 25.5, "heat_grade": "q1", "length": 87.790869909424245 }, "geometry": { "type": "LineString", "coordinates": [ [ 210924.30914937457419, 525876.847288854653016 ], [ 210926.27747887710575, 525964.449640383129008 ] ] } },
{ "type": "Feature", "properties": { "route_id": "016", "heat_score": 7.1, "heat_grade": "q1", "length": 156.98669410131237 }, "geometry": { "type": "LineString", "coordinates": [ [ 210938.697975188784767, 526117.013589797890745 ], [ 210928.361217245925218, 526106.179134046076797 ], [ 210926.27747887710575, 525964.449640383129008 ] ] } },
{ "type": "Feature", "properties": { "route_id": "016", "heat_score": 5.04, "heat_grade": "q1", "length": 192.00109791507126 }, "geometry": { "type": "LineString", "coordinates": [ [ 211082.322214293206343, 526233.36962316359859 ], [ 211054.008335459831869, 526233.332191409426741 ], [ 210938.697975188784767, 526117.013589797890745 ] ] } }
]
}
