{
"type": "FeatureCollection",
"name": "017_edges",
"crs": { "type": "name", "properties": { "name": "urn:ogc:def:crs:EPSG::5186" } },
"features": [
{ "type": "Feature", "properties": { "route_id": "017", "heat_score": 30.84, "heat_grade": "q1", "length": 40.190039297974636 }, "geometry": { "type": "LineString", "coordinates": [ [ 208230.74335428053746, 527324.506624269881286 ], [ 208264.445788411743706, 527346.481427853927016 ] ] } },
{ "type": "Feature", "properties": { "route_id": "017", "heat_score": 47.07, "heat_grade": "q1", "length": 136.12645867428634 }, "geometry": { "type": "LineString", "coordinates": [ [ 208230.74335428053746, 527324.506624269881286 ], [ 208118.561144351580879, 527247.163103454979137 ] ] } },
{ "type": "Feature", "properties": { "route_id": "017", "heat_score": 52.28, "heat_grade": "q2", "length": 41.242480823596694 }, "geometry": { "type": "LineString", "coordinates": [ [ 208107.920918668067316, 527208.852124737109989 ], [ 208107.679644305258989, 527220.094595122849569 ], [ 208107.948536513431463, 527226.07690654671751 ], [ 208109.032897232187679, 527231.782547475304455 ], [ 208111.482345937110949, 527236.956787112518214 ], [ 208118.561144351580879, 527247.163103454979137 ] ] } },
{ "type": "Feature", "properties": { "route_id": "017", "heat_score": 40.79, "heat_grade": "q1", "length": 28.254126152970684 }, "geometry": { "type": "LineString", "coordinates": [ [ 208107.920918668067316, 527208.852124737109989 ], [ 208109.331618316209642, 527206.977857735822909 ], [ 208123.733752891945187, 527185.460881420993246 ] ] } },
{ "type": "Feature", "properties": { "route_id": "017", "heat_score": 45.07, "heat_grade": "q1", "length": 576.1889617385151 }, "geometry": { "type": "LineString", "coordinates": [ [ 208123.733752891945187, 527185.460881420993246 ], [ 208195.851436011318583, 527087.365635434747674 ], [ 208208.930044788634405, 527069.576582561130635 ], [ 208210.365501972060883, 527060.577169959433377 ], [ 208210.373394993890543, 527052.530821548425592 ], [ 208210.19168915800401, 527048.069077592226677 ], [ 208209.90603436875972, 527041.176677282317542 ], [ 208208.975544138636906, 527023.185222790925764 ], [ 208202.389513882662868, 526953.125532076344825 ], [ 208200.980025441676844, 526935.61084364913404 ], [ 208200.529856926470529, 526915.73313232162036 ], [ 208201.015735673921881, 526899.163667718879879 ], [ 208204.367038687982131, 526879.289682730683126 ], [ 208209.610488262173021, 526863.679348117206246 ], [ 208215.319901447888697, 526851.842936815344729 ], [ 208222.462525948212715, 526842.382998925400898 ], [ 208234.359001313423505, 526828.677048120065592 ], [ 208246.252727521641646, 526817.801208375371061 ], [ 208260.050737690151436, 526807.870630110031925 ], [ 208304.765615150419762, 526780.457387649221346 ], [ 208390.745541499753017, 526738.08058595599141 ] ] } },
{ "type": "Feature", "properties": { "route_id": "017", "heat_score": 41.6, "heat_grade": "q1", "length": 394.8309548728497 }, "geometry": { "type": "LineString", "coordinates": [ [ 208390.745541499753017, 526738.08058595599141 ], [ 208395.492711624567164, 526749.450125487637706 ], [ 208398.336578381800791, 526758.919928669347428 ], [ 208400.220560348767322, 526771.229964671540074 ], [ 208407.30594349335297, 526819.037966803298332 ], [ 208409.66746057436103, 526832.291851415997371 ], [ 208412.508427338325419, 526844.602853177231736 ], [ 208416.538703904720023, 526855.017222184222192 ], [ 208422.474129953247029, 526865.444608534220606 ], [ 208431.733392429043306, 526874.998571668984368 ], [ 208436.239081363513833, 526879.653349611209705 ], [ 208452.866633754310897, 526893.398870451375842 ], [ 208463.074777801317396, 526902.165839278837666 ], [ 208472.812773198122159, 526911.409576903795823 ], [ 208482.309099041507579, 526923.017044804058969 ], [ 208524.557932749041356, 526985.299914768664166 ], [ 208546.69676594104385, 527016.386976253124885 ], [ 208584.345640620274935, 527070.152972439071164 ] ] } },
{ "type": "Feature", "properties": { "route_id": "017", "heat_score": 12.23, "heat_grade": "q1", "length": 127.73280631463822 }, "geometry": { "type": "LineString", "coordinates": [ [ 208493.908129791554529, 527159.05896989593748 ], [ 208547.909523754467955, 527095.66425367584452 ], [ 208556.422475205734372, 527089.435637793969363 ], [ 208564.908833531109849, 527083.229200229165144 ], [ 208571.417318195482949, 527078.851985494140536 ], [ 208584.345640620274935, 527070.152972439071164 ] ] } },
{ "type": "Feature", "properties": { "route_id": "017", "heat_score": 15.31, "heat_grade": "q1", "length": 296.87540118360619 }, "geometry": { "type": "LineString", "coordinates": [ [ 208264.445788411743706, 527346.481427853927016 ], [ 208266.299833653494716, 527344.307967161294073 ], [ 208276.102279836253729, 527332.875176428118721 ], [ 208283.810401901660953, 527324.681064771371894 ], [ 208295.890831733006053, 527312.529154747142456 ], [ 208307.198380177462241, 527302.418605623417534 ], [ 208425.647969881480094, 527216.046978432452306 ], [ 208443.543663164164172, 527201.770241173566319 ], [ 208453.617126195022138, 527194.377760017407127 ], [ 208463.514645636430942, 527185.742089454783127 ], [ 208472.10951654962264, 527177.216096190852113 ], [ 208493.908129791554529, 527159.05896989593748 ] ] } }
]
}
