{
"type": "FeatureCollection",
"name": "018_edges",
"crs": { "type": "name", "properties": { "name": "urn:ogc:def:crs:EPSG::5186" } },
"features": [
{ "type": "Feature", "properties": { "route_id": "018", "heat_score": 19.99, "heat_grade": "q1", "length": 271.11222233442714 }, "geometry": { "type": "LineString", "coordinates": [ [ 208658.603804265789222, 527041.995072883088142 ], [ 208662.184591108059976, 527032.55401947000064 ], [ 208668.015264502493665, 527023.925482315244153 ], [ 208675.033222395810299, 527015.409164007171057 ], [ 208682.529694491386181, 527006.893348024226725 ], [ 208687.382389075297397, 527001.437959145056084 ], [ 208690.620487539708847, 526997.789939465234056 ], [ 208698.71179414211656, 526988.209307154407725 ], [ 208706.156463829887798, 526978.428238515392877 ], [ 208713.122151976480382, 526969.123910143855028 ], [ 208722.359192294534296, 526957.058447087416425 ], [ 208732.286134094145382, 526946.236737389815971 ], [ 208751.196839320647996, 526928.388027812237851 ], [ 208758.647848363674711, 526921.126354844192974 ], [ 208772.891627747536404, 526909.032893388415687 ], [ 208787.497791497095022, 526897.861005717073567 ], [ 208797.54509554975084, 526890.701979439123534 ], [ 208806.814869626163272, 526881.411250211764127 ], [ 208815.173451316979481, 526870.698973723105155 ], [ 208825.742956343485275, 526855.771636557532474 ], [ 208830.747375000675675, 526849.461913101724349 ], [ 208838.243415603967151, 526841.645437925122678 ] ] } },
{ "type": "Feature", "properties": { "route_id": "018", "heat_score": 68.36, "heat_grade": "q4", "length": 128.656996642515 }, "geometry": { "type": "LineString", "coordinates": [ [ 208945.299353000562405, 526772.849066940834746 ], [ 208884.325808894500369, 526804.803071814007126 ], [ 208867.223155788436998, 526813.430606450769119 ], [ 208853.36253166757524, 526823.238037058385089 ], [ 208838.243415603967151, 526841.645437925122678 ] ] } },
{ "type": "Feature", "properties": { "route_id": "018", "heat_score": 61.02, "heat_grade": "q3", "length": 188.52254856894083 }, "geometry": { "type": "LineString", "coordinates": [ [ 208945.299353000562405, 526772.849066940834746 ], [ 208801.22632957668975, 526651.09097023459617 ] ] } },
{ "type": "Feature", "properties": { "route_id": "018", "heat_score": 67.16, "heat_grade": "q4", "length": 137.42655948836074 }, "geometry": { "type": "LineString", "coordinates": [ [ 208801.22632957668975, 526651.09097023459617 ], [ 208792.036792925267946, 526651.247789671644568 ], [ 208663.481966920633567, 526652.312384532066062 ] ] } },
{ "type": "Feature", "properties": { "route_id": "018", "heat_score": 68.44, "heat_grade": "q4", "length": 36.003915033382739 }, "geometry": { "type": "LineString", "coordinates": [ [ 208627.62417682557134, 526656.370666373171844 ], [ 208663.481966920633567, 526652.312384532066062 ] ] } },
{ "type": "Feature", "properties": { "route_id": "018", "heat_score": 59.64, "heat_grade": "q3", "length": 11.652974526598179 }, "geometry": { "type": "LineString", "coordinates": [ [ 208616.023093299561879, 526657.723822901956737 ], [ 208627.62417682557134, 526656.370666373171844 ] ] } },
{ "type": "Feature", "properties": { "route_id": "018", "heat_score": 52.83, "heat_grade": "q2", "length": 135.52295223500232 }, "geometry": { "type": "LineString", "coordinates": [ [ 208616.023093299561879, 526657.723822901956737 ], [ 208600.579725478950422, 526664.200515583273955 ], [ 208581.533711414958816, 526675.468058880069293 ], [ 208569.056320254865568, 526684.555978921009228 ], [ 208562.23625654031639, 526690.03161831246689 ], [ 208555.894730817351956, 526695.496653965325095 ], [ 208548.592642312898533, 526704.423419690341689 ], [ 208543.835179013432935, 526711.998781749163754 ], [ 208536.091608663613442, 526728.083587428904139 ], [ 208524.309151872526854, 526751.023109042085707 ] ] } },
{ "type": "Feature", "properties": { "route_id": "018", "heat_score": 65.31, "heat_grade": "q4", "length": 109.26630965261704 }, "geometry": { "type": "LineString", "coordinates": [ [ 208421.803490062127821, 526712.91836823313497 ], [ 208426.887431628012564, 526715.420628578751348 ], [ 208517.950136542523978, 526747.620519781252369 ], [ 208524.309151872526854, 526751.023109042085707 ] ] } },
{ "type": "Feature", "properties": { "route_id": "018", "heat_score": 61.3, "heat_grade": "q3", "length": 39.946024647816017 }, "geometry": { "type": "LineString", "coordinates": [ [ 208421.803490062127821, 526712.91836823313497 ], [ 208416.792703067185357, 526716.975349121028557 ], [ 208400.456809354363941, 526730.077268647728488 ], [ 208390.745541499753017, 526738.08058595599141 ] ] } },
{ "type": "Feature", "properties": { "route_id": "018", "heat_score": 41.6, "heat_grade": "q1", "length": 394.8309548728497 }, "geometry": { "type": "LineString", "coordinates": [ [ 208390.745541499753017, 526738.08058595599141 ], [ 208395.492711624567164, 526749.450125487637706 ], [ 208398.336578381800791, 526758.919928669347428 ], [ 208400.220560348767322, 526771.229964671540074 ], [ 208407.30594349335297, 526819.037966803298332 ], [ 208409.66746057436103, 526832.291851415997371 ], [ 208412.508427338325419, 526844.602853177231736 ], [ 208416.538703904720023, 526855.017222184222192 ], [ 208422.474129953247029, 526865.444608534220606 ], [ 208431.733392429043306, 526874.998571668984368 ], [ 208436.239081363513833, 526879.653349611209705 ], [ 208452.866633754310897, 526893.398870451375842 ], [ 208463.074777801317396, 526902.165839278837666 ], [ 208472.812773198122159, 526911.409576903795823 ], [ 208482.309099041507579, 526923.017044804058969 ], [ 208524.557932749041356, 526985.299914768664166 ], [ 208546.69676594104385, 527016.386976253124885 ], [ 208584.345640620274935, 527070.152972439071164 ] ] } },
{ "type": "Feature", "properties": { "route_id": "018", "heat_score": 17.67, "heat_grade": "q1", "length": 80.158870284548058 }, "geometry": { "type": "LineString", "coordinates": [ [ 208658.603804265789222, 527041.995072883088142 ], [ 208642.775120684440481, 527044.697826976538636 ], [ 208624.481366841355339, 527049.051735690329224 ], [ 208609.614887529547559, 527055.329236407531425 ], [ 208596.306186096830061, 527063.350815840647556 ], [ 208584.345640620274935, 527070.152972439071164 ] ] } }
]
}
