{
"type": "FeatureCollection",
"name": "019_edges",
"crs": { "type": "name", "properties": { "name": "urn:ogc:def:crs:EPSG::5186" } },
"features": [
{ "type": "Feature", "properties": { "route_id": "019", "heat_score": 19.78, "heat_grade": "q1", "length": 15.510042957178003 }, "geometry": { "type": "LineString", "coordinates": [ [ 208081.681327716476517, 527505.021563883987255 ], [ 208068.45348620126606, 527513.155047293868847 ] ] } },
{ "type": "Feature", "properties": { "route_id": "019", "heat_score": 34.73, "heat_grade": "q1", "length": 44.15923673315887 }, "geometry": { "type": "LineString", "coordinates": [ [ 208081.681327716476517, 527505.021563883987255 ], [ 208058.086042290495243, 527467.730286238831468 ] ] } },
{ "type": "Feature", "properties": { "route_id": "019", "heat_score": 48.73, "heat_grade": "q2", "length": 155.39129171437745 }, "geometry": { "type": "LineString", "coordinates": [ [ 208058.086042290495243, 527467.730286238831468 ], [ 207928.780709095735801, 527554.196722867898643 ] ] } },
{ "type": "Feature", "properties": { "route_id": "019", "heat_score": 53.65, "heat_grade": "q2", "length": 112.87306028012063 }, "geometry": { "type": "LineString", "coordinates": [ [ 207842.236962011083961, 527481.631335379322991 ], [ 207928.780709095735801, 527554.196722867898643 ] ] } },
{ "type": "Feature", "properties": { "route_id": "019", "heat_score": 63.71, "heat_grade": "q3", "length": 57.12821230386178 }, "geometry": { "type": "LineString", "coordinates": [ [ 207842.236962011083961, 527481.631335379322991 ], [ 207816.821298967872281, 527532.726919142645784 ] ] } },
{ "type": "Feature", "properties": { "route_id": "019", "heat_score": 72.87, "heat_grade": "q5", "length": 189.92771607368354 }, "geometry": { "type": "LineString", "coordinates": [ [ 207816.821298967872281, 527532.726919142645784 ], [ 207726.84974091994809, 527476.707284849253483 ], [ 207719.725252031261334, 527467.699885006179102 ], [ 207707.275041260785656, 527439.953439792385325 ], [ 207699.325602999568218, 527422.244131640996784 ], [ 207690.308106226235395, 527409.694618381094187 ], [ 207684.135685996239772, 527405.904385310946964 ] ] } },
{ "type": "Feature", "properties": { "route_id": "019", "heat_score": 70.33, "heat_grade": "q4", "length": 68.800104117866852 }, "geometry": { "type": "LineString", "coordinates": [ [ 207633.594654369197087, 527424.936327311093919 ], [ 207638.721656971611083, 527428.581289370311424 ], [ 207653.211640159512172, 527435.22028851043433 ], [ 207660.574844125134405, 527435.227025328204036 ], [ 207667.470172179426299, 527433.335508956573904 ], [ 207684.135685996239772, 527405.904385310946964 ] ] } },
{ "type": "Feature", "properties": { "route_id": "019", "heat_score": 70.47, "heat_grade": "q4", "length": 80.003787605194887 }, "geometry": { "type": "LineString", "coordinates": [ [ 207633.594654369197087, 527424.936327311093919 ], [ 207594.119308713066857, 527494.443156959139742 ] ] } },
{ "type": "Feature", "properties": { "route_id": "019", "heat_score": 68.26, "heat_grade": "q4", "length": 281.24372911756882 }, "geometry": { "type": "LineString", "coordinates": [ [ 207594.119308713066857, 527494.443156959139742 ], [ 207595.875797037704615, 527501.902894463040866 ], [ 207603.705585261865053, 527514.92846080486197 ], [ 207638.23682850546902, 527542.32863134809304 ], [ 207644.95711261453107, 527547.662013613968156 ], [ 207681.636994264408713, 527569.981247848132625 ], [ 207705.899865659710485, 527615.085375768016092 ], [ 207735.983144683792489, 527632.11592689412646 ], [ 207744.787862842960749, 527654.043471444630995 ], [ 207764.001713314733934, 527658.811404327512719 ], [ 207790.18704855456599, 527655.828065144247375 ], [ 207797.515340827812906, 527655.058000269345939 ] ] } },
{ "type": "Feature", "properties": { "route_id": "019", "heat_score": 56.82, "heat_grade": "q2", "length": 65.009800477419361 }, "geometry": { "type": "LineString", "coordinates": [ [ 207797.515340827812906, 527655.058000269345939 ], [ 207818.419150347152026, 527652.857818333664909 ], [ 207837.202470598043874, 527653.70777095167432 ], [ 207860.789135882194387, 527662.930493622552603 ] ] } },
{ "type": "Feature", "properties": { "route_id": "019", "heat_score": 27.06, "heat_grade": "q1", "length": 127.79451011007767 }, "geometry": { "type": "LineString", "coordinates": [ [ 207955.8084597561392, 527578.883085641078651 ], [ 207950.187495233665686, 527582.46253669494763 ], [ 207942.775019490276463, 527587.827138236025348 ], [ 207935.362111242342507, 527593.657880028593354 ], [ 207922.831766671442892, 527604.71114265662618 ], [ 207888.724162255122792, 527636.731188410194591 ], [ 207882.649093473301036, 527642.740813305834308 ], [ 207876.563846303033642, 527650.159933823510073 ], [ 207873.333220862929011, 527655.928077877033502 ], [ 207860.789135882194387, 527662.930493622552603 ] ] } },
{ "type": "Feature", "properties": { "route_id": "019", "heat_score": 5.52, "heat_grade": "q1", "length": 130.2640215841601 }, "geometry": { "type": "LineString", "coordinates": [ [ 207955.8084597561392, 527578.883085641078651 ], [ 207961.269834386213915, 527575.414470844087191 ], [ 207972.821799474710133, 527568.366867107222788 ], [ 208006.138373463763855, 527548.787748912582174 ], [ 208068.45348620126606, 527513.155047293868847 ] ] } }
]
}
