{
"type": "FeatureCollection",
"name": "020_edges",
"crs": { "type": "name", "properties": { "name": "urn:ogc:def:crs:EPSG::5186" } },
"features": [
{ "type": "Feature", "properties": { "route_id": "020", "heat_score": 45.92, "heat_grade": "q1", "length": 36.589533661590558 }, "geometry": { "type": "LineString", "coordinates": [ [ 207928.780709095735801, 527554.196722867898643 ], [ 207955.8084597561392, 527578.883085641078651 ] ] } },
{ "type": "Feature", "properties": { "route_id": "020", "heat_score": 48.73, "heat_grade": "q2", "length": 155.39129171437745 }, "geometry": { "type": "LineString", "coordinates": [ [ 208058.086042290495243, 527467.730286238831468 ], [ 207928.780709095735801, 527554.196722867898643 ] ] } },
{ "type": "Feature", "properties": { "route_id": "020", "heat_score": 35.79, "heat_grade": "q1", "length": 224.85645567514456 }, "geometry": { "type": "LineString", "coordinates": [ [ 208058.086042290495243, 527467.730286238831468 ], [ 208163.619842242827872, 527391.264510164270177 ], [ 208230.74335428053746, 527324.506624269881286 ] ] } },
{ "type": "Feature", "properties": { "route_id": "020", "heat_score": 47.07, "heat_grade": "q1", "length": 136.12645867428634 }, "geometry": { "type": "LineString", "coordinates": [ [ 208230.74335428053746, 527324.506624269881286 ], [ 208118.561144351580879, 527247.163103454979137 ] ] } },
{ "type": "Feature", "properties": { "route_id": "020", "heat_score": 52.28, "heat_grade": "q2", "length": 41.242480823596694 }, "geometry": { "type": "LineString", "coordinates": [ [ 208107.920918668067316, 527208.852124737109989 ], [ 208107.679644305258989, 527220.094595122849569 ], [ 208107.948536513431463, 527226.07690654671751 ], [ 208109.032897232187679, 527231.782547475304455 ], [ 208111.482345937110949, 527236.956787112518214 ], [ 208118.561144351580879, 527247.163103454979137 ] ] } },
{ "type": "Feature", "properties": { "route_id": "020", "heat_score": 40.04, "heat_grade": "q1", "length": 25.714145594803135 }, "geometry": { "type": "LineString", "coordinates": [ [ 208107.920918668067316, 527208.852124737109989 ], [ 208092.421093226555968, 527229.358110723434947 ] ] } },
{ "type": "Feature", "properties": { "route_id": "020", "heat_score": 50.22, "heat_grade": "q2", "length": 416.41631698586514 }, "geometry": { "type": "LineString", "coordinates": [ [ 207842.236962011083961, 527481.631335379322991 ], [ 207815.85299394276808, 527459.50968275917694 ], [ 207810.162673289130908, 527451.935242651030421 ], [ 207813.023755983245792, 527443.414320891490206 ], [ 207866.759795183461392, 527381.50214212865103 ], [ 207896.768224931583973, 527346.936608456657268 ], [ 207924.836696678394219, 527321.403464908711612 ], [ 207947.188644196547102, 527306.752541261725128 ], [ 207963.358383350452641, 527298.721552755916491 ], [ 207980.00392816864769, 527293.532246095011942 ], [ 207994.742161218746332, 527290.705114968935959 ], [ 208010.906081296649063, 527288.833838902763091 ], [ 208028.019488910096698, 527285.53180787153542 ], [ 208042.761389400664484, 527278.920201685745269 ], [ 208056.547711351304315, 527270.887103095650673 ], [ 208067.491549556842074, 527260.964554489240982 ], [ 208078.917563569761114, 527247.246824326226488 ], [ 208092.421093226555968, 527229.358110723434947 ] ] } },
{ "type": "Feature", "properties": { "route_id": "020", "heat_score": 63.71, "heat_grade": "q3", "length": 57.12821230386178 }, "geometry": { "type": "LineString", "coordinates": [ [ 207842.236962011083961, 527481.631335379322991 ], [ 207816.821298967872281, 527532.726919142645784 ] ] } },
{ "type": "Feature", "properties": { "route_id": "020", "heat_score": 63.67, "heat_grade": "q3", "length": 141.3018428169371 }, "geometry": { "type": "LineString", "coordinates": [ [ 207797.515340827812906, 527655.058000269345939 ], [ 207788.721819944970775, 527640.288898055790924 ], [ 207787.541575462324545, 527632.707571494509466 ], [ 207793.022795389813837, 527617.330249473801814 ], [ 207793.504567873809719, 527613.779200435033999 ], [ 207780.914665089105256, 527603.357157335267402 ], [ 207780.680271824763622, 527598.151775717153214 ], [ 207796.386031606030883, 527573.794241306022741 ], [ 207816.821298967872281, 527532.726919142645784 ] ] } },
{ "type": "Feature", "properties": { "route_id": "020", "heat_score": 56.82, "heat_grade": "q2", "length": 65.009800477419361 }, "geometry": { "type": "LineString", "coordinates": [ [ 207797.515340827812906, 527655.058000269345939 ], [ 207818.419150347152026, 527652.857818333664909 ], [ 207837.202470598043874, 527653.70777095167432 ], [ 207860.789135882194387, 527662.930493622552603 ] ] } },
{ "type": "Feature", "properties": { "route_id": "020", "heat_score": 27.06, "heat_grade": "q1", "length": 127.79451011007767 }, "geometry": { "type": "LineString", "coordinates": [ [ 207955.8084597561392, 527578.883085641078651 ], [ 207950.187495233665686, 527582.46253669494763 ], [ 207942.775019490276463, 527587.827138236025348 ], [ 207935.362111242342507, 527593.657880028593354 ], [ 207922.831766671442892, 527604.71114265662618 ], [ 207888.724162255122792, 527636.731188410194591 ], [ 207882.649093473301036, 527642.740813305834308 ], [ 207876.563846303033642, 527650.159933823510073 ], [ 207873.333220862929011, 527655.928077877033502 ], [ 207860.789135882194387, 527662.930493622552603 ] ] } }
]
}
