{
"type": "FeatureCollection",
"name": "021_edges",
"crs": { "type": "name", "properties": { "name": "urn:ogc:def:crs:EPSG::5186" } },
"features": [
{ "type": "Feature", "properties": { "route_id": "021", "heat_score": 35.08, "heat_grade": "q1", "length": 7.1587930607012993 }, "geometry": { "type": "LineString", "coordinates": [ [ 210758.444102844048757, 525130.064930918859318 ], [ 210755.298312923347112, 525136.486864144098945 ] ] } },
{ "type": "Feature", "properties": { "route_id": "021", "heat_score": 42.98, "heat_grade": "q1", "length": 406.84924398104954 }, "geometry": { "type": "LineString", "coordinates": [ [ 210755.298312923347112, 525136.486864144098945 ], [ 210725.940056043415098, 525194.69361937395297 ], [ 210674.986760545551078, 525298.709327792748809 ], [ 210663.722120093210833, 525319.47118626977317 ], [ 210638.120940482825972, 525372.311418816563673 ], [ 210622.756847665237729, 525404.011153764324263 ], [ 210603.782019679725636, 525445.628318913397379 ], [ 210591.121598856261699, 525470.106476800516248 ], [ 210572.118876254739007, 525498.960515211569145 ] ] } },
{ "type": "Feature", "properties": { "route_id": "021", "heat_score": 44.94, "heat_grade": "q1", "length": 410.0623892734576 }, "geometry": { "type": "LineString", "coordinates": [ [ 210572.118876254739007, 525498.960515211569145 ], [ 210582.723762578971218, 525452.871135694440454 ], [ 210590.76303847876261, 525431.261606952641159 ], [ 210605.60088398316293, 525395.066292545292526 ], [ 210618.192118830309482, 525369.356148315127939 ], [ 210656.8104244202259, 525290.528852832969278 ], [ 210675.862150522472803, 525251.642120408010669 ], [ 210710.233926301269094, 525181.466422050143592 ], [ 210738.108722114004195, 525125.799244579742663 ] ] } },
{ "type": "Feature", "properties": { "route_id": "021", "heat_score": 28.03, "heat_grade": "q1", "length": 9.7232479253900035 }, "geometry": { "type": "LineString", "coordinates": [ [ 210738.108722114004195, 525125.799244579742663 ], [ 210741.18328476822353, 525119.621378478594124 ], [ 210742.436214981717058, 525117.103648724267259 ] ] } },
{ "type": "Feature", "properties": { "route_id": "021", "heat_score": 42.37, "heat_grade": "q1", "length": 224.68264577290597 }, "geometry": { "type": "LineString", "coordinates": [ [ 210742.436214981717058, 525117.103648724267259 ], [ 210800.50715927692363, 525000.478669599280693 ], [ 210836.879074404307175, 524913.64739643863868 ] ] } },
{ "type": "Feature", "properties": { "route_id": "021", "heat_score": 37.94, "heat_grade": "q1", "length": 24.711463379113844 }, "geometry": { "type": "LineString", "coordinates": [ [ 210858.916593282920076, 524924.81872909120284 ], [ 210851.273545504838694, 524920.180791984079406 ], [ 210836.879074404307175, 524913.64739643863868 ] ] } },
{ "type": "Feature", "properties": { "route_id": "021", "heat_score": 22.37, "heat_grade": "q1", "length": 228.76687818238412 }, "geometry": { "type": "LineString", "coordinates": [ [ 210858.916593282920076, 524924.81872909120284 ], [ 210758.444102844048757, 525130.064930918859318 ] ] } }
]
}
