{
"type": "FeatureCollection",
"name": "022_edges",
"crs": { "type": "name", "properties": { "name": "urn:ogc:def:crs:EPSG::5186" } },
"features": [
{ "type": "Feature", "properties": { "route_id": "022", "heat_score": 38.61, "heat_grade": "q1", "length": 161.6297406593182 }, "geometry": { "type": "LineString", "coordinates": [ [ 210451.499096714891493, 525774.371456585358828 ], [ 210446.18132264574524, 525746.208156388485804 ], [ 210447.911383567610756, 525737.597949524526484 ], [ 210452.64577284938423, 525721.932904954301193 ], [ 210465.262569591432111, 525689.186162327183411 ], [ 210494.016236136871157, 525622.631701545789838 ] ] } },
{ "type": "Feature", "properties": { "route_id": "022", "heat_score": 71.08, "heat_grade": "q5", "length": 37.025423060242957 }, "geometry": { "type": "LineString", "coordinates": [ [ 210450.752880167070543, 525811.294934752047993 ], [ 210450.494590940594207, 525791.017817343003117 ], [ 210451.499096714891493, 525774.371456585358828 ] ] } },
{ "type": "Feature", "properties": { "route_id": "022", "heat_score": 70.59, "heat_grade": "q4", "length": 166.16401727805038 }, "geometry": { "type": "LineString", "coordinates": [ [ 210450.752880167070543, 525811.294934752047993 ], [ 210428.959833607194014, 525811.634010510635562 ], [ 210340.237902201799443, 525812.056700329645537 ], [ 210319.562315998336999, 525811.753733077668585 ], [ 210311.063090108538745, 525811.909738720860332 ], [ 210284.209443467203528, 525812.398338690050878 ] ] } },
{ "type": "Feature", "properties": { "route_id": "022", "heat_score": 59.2, "heat_grade": "q3", "length": 81.618161687753073 }, "geometry": { "type": "LineString", "coordinates": [ [ 210202.40147136937594, 525811.776634810259566 ], [ 210284.209443467203528, 525812.398338690050878 ] ] } },
{ "type": "Feature", "properties": { "route_id": "022", "heat_score": 73.85, "heat_grade": "q5", "length": 20.496007882738983 }, "geometry": { "type": "LineString", "coordinates": [ [ 210202.089622731349664, 525791.321887263911776 ], [ 210202.40147136937594, 525811.776634810259566 ] ] } },
{ "type": "Feature", "properties": { "route_id": "022", "heat_score": 52.76, "heat_grade": "q2", "length": 157.5053332498868 }, "geometry": { "type": "LineString", "coordinates": [ [ 210202.089622731349664, 525791.321887263911776 ], [ 210130.668026672239648, 525790.83562869601883 ], [ 210130.054731601267122, 525755.686228272505105 ], [ 210181.192344549752306, 525754.638409325038083 ] ] } },
{ "type": "Feature", "properties": { "route_id": "022", "heat_score": 56.41, "heat_grade": "q2", "length": 24.855421315344653 }, "geometry": { "type": "LineString", "coordinates": [ [ 210181.192344549752306, 525754.638409325038083 ], [ 210194.69690205185907, 525763.411484361742623 ], [ 210202.233352800947614, 525767.915518823312595 ] ] } },
{ "type": "Feature", "properties": { "route_id": "022", "heat_score": 59.97, "heat_grade": "q3", "length": 15.162382822638634 }, "geometry": { "type": "LineString", "coordinates": [ [ 210216.808432951482246, 525763.627107542357408 ], [ 210202.233352800947614, 525767.915518823312595 ] ] } },
{ "type": "Feature", "properties": { "route_id": "022", "heat_score": 47.85, "heat_grade": "q1", "length": 58.249896419147149 }, "geometry": { "type": "LineString", "coordinates": [ [ 210231.148165268823504, 525719.861396910040639 ], [ 210217.012855457433034, 525719.566677458933555 ], [ 210216.808432951482246, 525763.627107542357408 ] ] } },
{ "type": "Feature", "properties": { "route_id": "022", "heat_score": 59.67, "heat_grade": "q3", "length": 43.94429708840341 }, "geometry": { "type": "LineString", "coordinates": [ [ 210231.094573766866233, 525763.722239856957458 ], [ 210231.148165268823504, 525719.861396910040639 ] ] } },
{ "type": "Feature", "properties": { "route_id": "022", "heat_score": 68.56, "heat_grade": "q4", "length": 37.135570807126868 }, "geometry": { "type": "LineString", "coordinates": [ [ 210231.094573766866233, 525763.722239856957458 ], [ 210260.987288573931437, 525763.969687644625083 ], [ 210268.31649001504411, 525764.000869083101861 ] ] } },
{ "type": "Feature", "properties": { "route_id": "022", "heat_score": 43.51, "heat_grade": "q1", "length": 254.92787913553769 }, "geometry": { "type": "LineString", "coordinates": [ [ 210268.31649001504411, 525764.000869083101861 ], [ 210211.4985568356351, 525590.252417470677756 ], [ 210197.052002725220518, 525546.973230719333515 ], [ 210204.086401940468932, 525534.529389688046649 ], [ 210208.823438319697743, 525523.680923901731148 ] ] } },
{ "type": "Feature", "properties": { "route_id": "022", "heat_score": 46.69, "heat_grade": "q1", "length": 140.42382488338941 }, "geometry": { "type": "LineString", "coordinates": [ [ 210339.724666910071392, 525574.57233941112645 ], [ 210272.104560897278134, 525551.382238593418151 ], [ 210247.654189178399974, 525542.728821208118461 ], [ 210225.191688930499367, 525531.880418496439233 ], [ 210208.823438319697743, 525523.680923901731148 ] ] } },
{ "type": "Feature", "properties": { "route_id": "022", "heat_score": 43.36, "heat_grade": "q1", "length": 142.60687366537377 }, "geometry": { "type": "LineString", "coordinates": [ [ 210476.147342895012116, 525617.071222197962925 ], [ 210339.724666910071392, 525574.57233941112645 ] ] } },
{ "type": "Feature", "properties": { "route_id": "022", "heat_score": 28.92, "heat_grade": "q1", "length": 18.677085184133787 }, "geometry": { "type": "LineString", "coordinates": [ [ 210476.147342895012116, 525617.071222197962925 ], [ 210494.016236136871157, 525622.631701545789838 ] ] } }
]
}
