{
"type": "FeatureCollection",
"name": "023_edges",
"crs": { "type": "name", "properties": { "name": "urn:ogc:def:crs:EPSG::5186" } },
"features": [
{ "type": "Feature", "properties": { "route_id": "023", "heat_score": 43.82, "heat_grade": "q1", "length": 43.721906920075696 }, "geometry": { "type": "LineString", "coordinates": [ [ 210767.131257206754526, 525880.383860115893185 ], [ 210767.187373242195463, 525836.744974720641039 ] ] } },
{ "type": "Feature", "properties": { "route_id": "023", "heat_score": 56.45, "heat_grade": "q2", "length": 157.05668154185003 }, "geometry": { "type": "LineString", "coordinates": [ [ 210767.187373242195463, 525836.744974720641039 ], [ 210924.569296578731155, 525840.47812842798885 ] ] } },
{ "type": "Feature", "properties": { "route_id": "023", "heat_score": 67.34, "heat_grade": "q4", "length": 83.880502302054055 }, "geometry": { "type": "LineString", "coordinates": [ [ 210924.569296578731155, 525840.47812842798885 ], [ 211008.645909671555273, 525840.965592179913074 ] ] } },
{ "type": "Feature", "properties": { "route_id": "023", "heat_score": 59.34, "heat_grade": "q3", "length": 46.849593304331876 }, "geometry": { "type": "LineString", "coordinates": [ [ 211008.645909671555273, 525840.965592179913074 ], [ 211008.166777583537623, 525794.207348992000334 ] ] } },
{ "type": "Feature", "properties": { "route_id": "023", "heat_score": 42.07, "heat_grade": "q1", "length": 86.774685165662859 }, "geometry": { "type": "LineString", "coordinates": [ [ 210924.267476815904956, 525779.725025659310631 ], [ 210950.481785398995271, 525780.303089324617758 ], [ 210983.050041288079228, 525794.707090133335441 ], [ 210999.401719602843514, 525794.306814508745447 ], [ 211008.166777583537623, 525794.207348992000334 ] ] } },
{ "type": "Feature", "properties": { "route_id": "023", "heat_score": 56.76, "heat_grade": "q2", "length": 96.397785040379958 }, "geometry": { "type": "LineString", "coordinates": [ [ 210924.267476815904956, 525779.725025659310631 ], [ 210924.750375492061721, 525762.822774736443534 ], [ 210924.623543555266224, 525710.593486774014309 ], [ 210916.778578212397406, 525684.668467214680277 ] ] } },
{ "type": "Feature", "properties": { "route_id": "023", "heat_score": 58.37, "heat_grade": "q2", "length": 49.826212813718193 }, "geometry": { "type": "LineString", "coordinates": [ [ 210916.778578212397406, 525684.668467214680277 ], [ 210908.050735599856125, 525635.702008004300296 ] ] } },
{ "type": "Feature", "properties": { "route_id": "023", "heat_score": 52.74, "heat_grade": "q2", "length": 246.34395145126314 }, "geometry": { "type": "LineString", "coordinates": [ [ 210666.630148191499757, 525666.588627659832127 ], [ 210675.108493553503649, 525669.029983457527123 ], [ 210694.263926209881902, 525673.249624151620083 ], [ 210715.929663123795763, 525675.730070655001327 ], [ 210721.788160492433235, 525675.44901132537052 ], [ 210735.9602321832499, 525674.767969791544601 ], [ 210756.249872155545745, 525672.20807868510019 ], [ 210908.050735599856125, 525635.702008004300296 ] ] } },
{ "type": "Feature", "properties": { "route_id": "023", "heat_score": 48.3, "heat_grade": "q1", "length": 127.95416137239326 }, "geometry": { "type": "LineString", "coordinates": [ [ 210657.924580761347897, 525793.920695902896114 ], [ 210660.040194046159741, 525740.195984488585964 ], [ 210661.68628210213501, 525707.224705238011666 ], [ 210666.630148191499757, 525666.588627659832127 ] ] } },
{ "type": "Feature", "properties": { "route_id": "023", "heat_score": 70.72, "heat_grade": "q4", "length": 40.551490891650715 }, "geometry": { "type": "LineString", "coordinates": [ [ 210657.924580761347897, 525793.920695902896114 ], [ 210657.274345541431103, 525810.423205345403403 ], [ 210659.007541419588961, 525834.320290997158736 ] ] } },
{ "type": "Feature", "properties": { "route_id": "023", "heat_score": 54.39, "heat_grade": "q2", "length": 90.390464767665392 }, "geometry": { "type": "LineString", "coordinates": [ [ 210571.09379685431486, 525812.500347331864759 ], [ 210659.007541419588961, 525834.320290997158736 ] ] } },
{ "type": "Feature", "properties": { "route_id": "023", "heat_score": 68.18, "heat_grade": "q4", "length": 45.964662247354504 }, "geometry": { "type": "LineString", "coordinates": [ [ 210571.09379685431486, 525812.500347331864759 ], [ 210549.002306289185071, 525852.759718126617372 ] ] } },
{ "type": "Feature", "properties": { "route_id": "023", "heat_score": 65.61, "heat_grade": "q4", "length": 44.765832677424193 }, "geometry": { "type": "LineString", "coordinates": [ [ 210549.002306289185071, 525852.759718126617372 ], [ 210548.00662416126579, 525897.429570761858486 ] ] } },
{ "type": "Feature", "properties": { "route_id": "023", "heat_score": 65.76, "heat_grade": "q4", "length": 40.051883827315159 }, "geometry": { "type": "LineString", "coordinates": [ [ 210548.00662416126579, 525897.429570761858486 ], [ 210507.860472433792893, 525897.367994046653621 ] ] } },
{ "type": "Feature", "properties": { "route_id": "023", "heat_score": 65.17, "heat_grade": "q4", "length": 50.569595581342675 }, "geometry": { "type": "LineString", "coordinates": [ [ 210507.860472433792893, 525897.367994046653621 ], [ 210496.869912608526647, 525905.478245984297246 ], [ 210497.452938436646946, 525942.325705672497861 ] ] } },
{ "type": "Feature", "properties": { "route_id": "023", "heat_score": 64.61, "heat_grade": "q3", "length": 45.465729502070815 }, "geometry": { "type": "LineString", "coordinates": [ [ 210497.452938436646946, 525942.325705672497861 ], [ 210500.214330289425561, 525987.621791587094776 ] ] } },
{ "type": "Feature", "properties": { "route_id": "023", "heat_score": 59.43, "heat_grade": "q3", "length": 103.10645669865328 }, "geometry": { "type": "LineString", "coordinates": [ [ 210603.557891640462913, 525986.542304359842092 ], [ 210500.214330289425561, 525987.621791587094776 ] ] } },
{ "type": "Feature", "properties": { "route_id": "023", "heat_score": 49.5, "heat_grade": "q2", "length": 45.400251299407302 }, "geometry": { "type": "LineString", "coordinates": [ [ 210604.59011199066299, 525941.23988800344523 ], [ 210603.557891640462913, 525986.542304359842092 ] ] } },
{ "type": "Feature", "properties": { "route_id": "023", "heat_score": 48.95, "heat_grade": "q2", "length": 43.809959047334559 }, "geometry": { "type": "LineString", "coordinates": [ [ 210605.5937452368089, 525897.524511621217243 ], [ 210604.59011199066299, 525941.23988800344523 ] ] } },
{ "type": "Feature", "properties": { "route_id": "023", "heat_score": 39.96, "heat_grade": "q1", "length": 71.443933006441426 }, "geometry": { "type": "LineString", "coordinates": [ [ 210657.232390497229062, 525878.201151906396262 ], [ 210606.053751984873088, 525877.192803240031935 ], [ 210605.5937452368089, 525897.524511621217243 ] ] } },
{ "type": "Feature", "properties": { "route_id": "023", "heat_score": 23.18, "heat_grade": "q1", "length": 109.66246195395419 }, "geometry": { "type": "LineString", "coordinates": [ [ 210657.232390497229062, 525878.201151906396262 ], [ 210767.131257206754526, 525880.383860115893185 ] ] } }
]
}
