{
"type": "FeatureCollection",
"name": "024_edges",
"crs": { "type": "name", "properties": { "name": "urn:ogc:def:crs:EPSG::5186" } },
"features": [
{ "type": "Feature", "properties": { "route_id": "024", "heat_score": 43.89, "heat_grade": "q1", "length": 271.44846172742228 }, "geometry": { "type": "LineString", "coordinates": [ [ 208555.611656429537106, 525220.618238102528267 ], [ 208503.175094367878046, 525293.40358618774917 ], [ 208469.930088972032536, 525337.363929667044431 ], [ 208458.633567375771236, 525351.292095157783478 ], [ 208453.452491423697211, 525356.403223408851773 ], [ 208452.55659239218221, 525357.145911531173624 ], [ 208447.491748381551588, 525361.258305315626785 ], [ 208436.821989753196249, 525368.938736671116203 ], [ 208387.331832855328685, 525404.326198211521842 ], [ 208370.87150488680345, 525415.2749427780509 ] ] } },
{ "type": "Feature", "properties": { "route_id": "024", "heat_score": 59.41, "heat_grade": "q3", "length": 221.49055210020782 }, "geometry": { "type": "LineString", "coordinates": [ [ 208220.23029909102479, 525252.900506496778689 ], [ 208256.982751096977154, 525291.192819291260093 ], [ 208359.662873713561567, 525403.577136457432061 ], [ 208370.87150488680345, 525415.2749427780509 ] ] } },
{ "type": "Feature", "properties": { "route_id": "024", "heat_score": 70.55, "heat_grade": "q4", "length": 19.886698502899126 }, "geometry": { "type": "LineString", "coordinates": [ [ 208209.460432338906685, 525236.197961381985806 ], [ 208220.23029909102479, 525252.900506496778689 ] ] } },
{ "type": "Feature", "properties": { "route_id": "024", "heat_score": 51.83, "heat_grade": "q2", "length": 12.631967915442782 }, "geometry": { "type": "LineString", "coordinates": [ [ 208201.429878955765162, 525245.945579357095994 ], [ 208209.460432338906685, 525236.197961381985806 ] ] } },
{ "type": "Feature", "properties": { "route_id": "024", "heat_score": 55.84, "heat_grade": "q2", "length": 214.18998183543093 }, "geometry": { "type": "LineString", "coordinates": [ [ 208201.429878955765162, 525245.945579357095994 ], [ 208190.225935207679868, 525238.043658513575792 ], [ 208144.748029095178936, 525203.549901006626897 ], [ 208036.108383487444371, 525126.18906160176266 ], [ 208027.622991500800708, 525120.487450491636992 ] ] } },
{ "type": "Feature", "properties": { "route_id": "024", "heat_score": 50.12, "heat_grade": "q2", "length": 15.496281366366416 }, "geometry": { "type": "LineString", "coordinates": [ [ 208027.622991500800708, 525120.487450491636992 ], [ 208036.967705846996978, 525108.132807592628524 ] ] } },
{ "type": "Feature", "properties": { "route_id": "024", "heat_score": 45.45, "heat_grade": "q1", "length": 240.47944439230815 }, "geometry": { "type": "LineString", "coordinates": [ [ 208036.967705846996978, 525108.132807592628524 ], [ 208042.788146460487042, 525101.645837671938352 ], [ 208058.672352229943499, 525081.69510569027625 ], [ 208090.410222753154812, 525036.943708413164131 ], [ 208106.412174179160502, 525014.629225563607179 ], [ 208126.763994033215567, 524985.315911220852286 ], [ 208139.401902073412202, 524968.203372522373684 ], [ 208169.445899347745581, 524925.337359932484105 ], [ 208175.585594650125131, 524918.906286836601794 ], [ 208178.94036183328717, 524914.370322291506454 ] ] } },
{ "type": "Feature", "properties": { "route_id": "024", "heat_score": 48.03, "heat_grade": "q1", "length": 214.25223794078593 }, "geometry": { "type": "LineString", "coordinates": [ [ 208351.320413472043583, 525041.727948122192174 ], [ 208337.593076388089685, 525031.059818469104357 ], [ 208271.843074212840293, 524979.964236390427686 ], [ 208260.541420632158406, 524971.984440254396759 ], [ 208193.156138826772803, 524924.461550666950643 ], [ 208184.413297700113617, 524919.081384078948759 ], [ 208178.94036183328717, 524914.370322291506454 ] ] } },
{ "type": "Feature", "properties": { "route_id": "024", "heat_score": 47.93, "heat_grade": "q1", "length": 46.673894918836879 }, "geometry": { "type": "LineString", "coordinates": [ [ 208389.706838682381203, 525068.358052408206277 ], [ 208369.264813902875176, 525054.176055716234259 ], [ 208367.387117828970077, 525052.875668088439852 ], [ 208351.320413472043583, 525041.727948122192174 ] ] } },
{ "type": "Feature", "properties": { "route_id": "024", "heat_score": 55.28, "heat_grade": "q2", "length": 51.82358245302585 }, "geometry": { "type": "LineString", "coordinates": [ [ 208421.026456936437171, 525027.09237910201773 ], [ 208392.191815577301895, 525065.075418828986585 ], [ 208389.706838682381203, 525068.358052408206277 ] ] } },
{ "type": "Feature", "properties": { "route_id": "024", "heat_score": 70.5, "heat_grade": "q4", "length": 87.642163167863856 }, "geometry": { "type": "LineString", "coordinates": [ [ 208491.444846459489781, 525079.392497421707958 ], [ 208421.026456936437171, 525027.09237910201773 ] ] } },
{ "type": "Feature", "properties": { "route_id": "024", "heat_score": 69.94, "heat_grade": "q4", "length": 87.75015895790051 }, "geometry": { "type": "LineString", "coordinates": [ [ 208560.956925879581831, 525133.057390023139305 ], [ 208491.444846459489781, 525079.392497421707958 ] ] } },
{ "type": "Feature", "properties": { "route_id": "024", "heat_score": 57.05, "heat_grade": "q2", "length": 52.419619657670573 }, "geometry": { "type": "LineString", "coordinates": [ [ 208529.742531156458426, 525175.143935674335808 ], [ 208532.96423907080316, 525170.807746447972022 ], [ 208560.956925879581831, 525133.057390023139305 ] ] } },
{ "type": "Feature", "properties": { "route_id": "024", "heat_score": 33.22, "heat_grade": "q1", "length": 47.328450578435948 }, "geometry": { "type": "LineString", "coordinates": [ [ 208529.742531156458426, 525175.143935674335808 ], [ 208568.632538868667325, 525202.197120509110391 ] ] } },
{ "type": "Feature", "properties": { "route_id": "024", "heat_score": 34.34, "heat_grade": "q1", "length": 22.569631562029649 }, "geometry": { "type": "LineString", "coordinates": [ [ 208555.611656429537106, 525220.618238102528267 ], [ 208560.067393970442936, 525214.252313966746442 ], [ 208568.632538868667325, 525202.197120509110391 ] ] } }
]
}
