{
"type": "FeatureCollection",
"name": "025_edges",
"crs": { "type": "name", "properties": { "name": "urn:ogc:def:crs:EPSG::5186" } },
"features": [
{ "type": "Feature", "properties": { "route_id": "025", "heat_score": 37.35, "heat_grade": "q1", "length": 214.17820091917025 }, "geometry": { "type": "LineString", "coordinates": [ [ 208696.208032603026368, 525030.470031386706978 ], [ 208687.426105655351421, 525046.09854890871793 ], [ 208584.111122660775436, 525181.259207280236296 ], [ 208575.679936468077358, 525192.282371356035583 ], [ 208568.632538868667325, 525202.197120509110391 ] ] } },
{ "type": "Feature", "properties": { "route_id": "025", "heat_score": 40.42, "heat_grade": "q1", "length": 65.647050522055054 }, "geometry": { "type": "LineString", "coordinates": [ [ 208749.338056918786606, 525069.125566339702345 ], [ 208739.038144726539031, 525061.501316889072768 ], [ 208696.208032603026368, 525030.470031386706978 ] ] } },
{ "type": "Feature", "properties": { "route_id": "025", "heat_score": 66.74, "heat_grade": "q4", "length": 51.852777064167036 }, "geometry": { "type": "LineString", "coordinates": [ [ 208780.455792050430318, 525027.672348620486446 ], [ 208749.338056918786606, 525069.125566339702345 ] ] } },
{ "type": "Feature", "properties": { "route_id": "025", "heat_score": 73.37, "heat_grade": "q5", "length": 115.16947858481565 }, "geometry": { "type": "LineString", "coordinates": [ [ 208688.652009188255761, 524957.978610345860943 ], [ 208780.455792050430318, 525027.672348620486446 ] ] } },
{ "type": "Feature", "properties": { "route_id": "025", "heat_score": 76.49, "heat_grade": "q5", "length": 47.741302481374461 }, "geometry": { "type": "LineString", "coordinates": [ [ 208716.12448768565082, 524918.963024995988235 ], [ 208688.652009188255761, 524957.978610345860943 ] ] } },
{ "type": "Feature", "properties": { "route_id": "025", "heat_score": 77.37, "heat_grade": "q5", "length": 40.532364141679054 }, "geometry": { "type": "LineString", "coordinates": [ [ 208683.789867142069852, 524894.468592334771529 ], [ 208716.12448768565082, 524918.963024995988235 ] ] } },
{ "type": "Feature", "properties": { "route_id": "025", "heat_score": 72.13, "heat_grade": "q5", "length": 64.084531393742068 }, "geometry": { "type": "LineString", "coordinates": [ [ 208683.789867142069852, 524894.468592334771529 ], [ 208712.547905957791954, 524855.27675724576693 ], [ 208727.38983043335611, 524850.863952581188641 ] ] } },
{ "type": "Feature", "properties": { "route_id": "025", "heat_score": 70.37, "heat_grade": "q4", "length": 23.650616086099138 }, "geometry": { "type": "LineString", "coordinates": [ [ 208741.059595608123345, 524831.578112769522704 ], [ 208727.38983043335611, 524850.863952581188641 ] ] } },
{ "type": "Feature", "properties": { "route_id": "025", "heat_score": 74.93, "heat_grade": "q5", "length": 62.646434601559235 }, "geometry": { "type": "LineString", "coordinates": [ [ 208775.451302979199681, 524779.262986653018743 ], [ 208741.059595608123345, 524831.578112769522704 ] ] } },
{ "type": "Feature", "properties": { "route_id": "025", "heat_score": 78.11, "heat_grade": "q5", "length": 53.29308102346657 }, "geometry": { "type": "LineString", "coordinates": [ [ 208775.451302979199681, 524779.262986653018743 ], [ 208732.185739901324268, 524748.064602279686369 ] ] } },
{ "type": "Feature", "properties": { "route_id": "025", "heat_score": 78.75, "heat_grade": "q5", "length": 135.94679713953289 }, "geometry": { "type": "LineString", "coordinates": [ [ 208732.185739901324268, 524748.064602279686369 ], [ 208710.381308906013146, 524731.205649635056034 ], [ 208650.0329786297807, 524676.383684365311638 ], [ 208629.726989291229984, 524658.705211680731736 ] ] } },
{ "type": "Feature", "properties": { "route_id": "025", "heat_score": 70.17, "heat_grade": "q4", "length": 93.366003789928186 }, "geometry": { "type": "LineString", "coordinates": [ [ 208629.726989291229984, 524658.705211680731736 ], [ 208619.404227013816126, 524672.68964435334783 ], [ 208574.305777342990041, 524733.795453006983735 ] ] } },
{ "type": "Feature", "properties": { "route_id": "025", "heat_score": 50.7, "heat_grade": "q2", "length": 61.977501018516406 }, "geometry": { "type": "LineString", "coordinates": [ [ 208537.400522135460051, 524783.556207496556453 ], [ 208574.305777342990041, 524733.795453006983735 ] ] } },
{ "type": "Feature", "properties": { "route_id": "025", "heat_score": 60.13, "heat_grade": "q3", "length": 51.14529241100368 }, "geometry": { "type": "LineString", "coordinates": [ [ 208537.400522135460051, 524783.556207496556453 ], [ 208554.281236331531545, 524796.347671640105546 ], [ 208578.202886040613521, 524814.46250484441407 ] ] } },
{ "type": "Feature", "properties": { "route_id": "025", "heat_score": 62.03, "heat_grade": "q3", "length": 49.444299071026343 }, "geometry": { "type": "LineString", "coordinates": [ [ 208549.648028836440062, 524854.798138558981009 ], [ 208578.202886040613521, 524814.46250484441407 ] ] } },
{ "type": "Feature", "properties": { "route_id": "025", "heat_score": 70.11, "heat_grade": "q4", "length": 87.920446223381091 }, "geometry": { "type": "LineString", "coordinates": [ [ 208549.648028836440062, 524854.798138558981009 ], [ 208619.409825139853638, 524908.419355103978887 ] ] } },
{ "type": "Feature", "properties": { "route_id": "025", "heat_score": 71.68, "heat_grade": "q5", "length": 53.309820148995314 }, "geometry": { "type": "LineString", "coordinates": [ [ 208619.409825139853638, 524908.419355103978887 ], [ 208594.389657381747384, 524941.955168283195235 ], [ 208589.66789649965358, 524948.276405608514324 ], [ 208587.537782760802656, 524951.126507025561295 ] ] } },
{ "type": "Feature", "properties": { "route_id": "025", "heat_score": 67.27, "heat_grade": "q4", "length": 60.329724318827829 }, "geometry": { "type": "LineString", "coordinates": [ [ 208550.13955293991603, 524998.445068514673039 ], [ 208580.970434855291387, 524959.432468688697554 ], [ 208586.171061895554885, 524952.8564543556422 ], [ 208587.537782760802656, 524951.126507025561295 ] ] } },
{ "type": "Feature", "properties": { "route_id": "025", "heat_score": 75.65, "heat_grade": "q5", "length": 88.807228396214853 }, "geometry": { "type": "LineString", "coordinates": [ [ 208550.13955293991603, 524998.445068514673039 ], [ 208622.161833473277511, 525050.537053260719404 ] ] } },
{ "type": "Feature", "properties": { "route_id": "025", "heat_score": 76.72, "heat_grade": "q5", "length": 51.221371184950492 }, "geometry": { "type": "LineString", "coordinates": [ [ 208591.656865968514467, 525091.658534978982061 ], [ 208622.161833473277511, 525050.537053260719404 ] ] } },
{ "type": "Feature", "properties": { "route_id": "025", "heat_score": 69.85, "heat_grade": "q4", "length": 51.560472312136937 }, "geometry": { "type": "LineString", "coordinates": [ [ 208560.956925879581831, 525133.057390023139305 ], [ 208591.656865968514467, 525091.658534978982061 ] ] } },
{ "type": "Feature", "properties": { "route_id": "025", "heat_score": 57.05, "heat_grade": "q2", "length": 52.419619657670573 }, "geometry": { "type": "LineString", "coordinates": [ [ 208529.742531156458426, 525175.143935674335808 ], [ 208532.96423907080316, 525170.807746447972022 ], [ 208560.956925879581831, 525133.057390023139305 ] ] } },
{ "type": "Feature", "properties": { "route_id": "025", "heat_score": 33.22, "heat_grade": "q1", "length": 47.328450578435948 }, "geometry": { "type": "LineString", "coordinates": [ [ 208529.742531156458426, 525175.143935674335808 ], [ 208568.632538868667325, 525202.197120509110391 ] ] } }
]
}
