{
"type": "FeatureCollection",
"name": "026_edges",
"crs": { "type": "name", "properties": { "name": "urn:ogc:def:crs:EPSG::5186" } },
"features": [
{ "type": "Feature", "properties": { "route_id": "026", "heat_score": 43.26, "heat_grade": "q1", "length": 375.24158901071712 }, "geometry": { "type": "LineString", "coordinates": [ [ 206117.683479816565523, 525619.689265834516846 ], [ 206104.215647324832389, 525627.337327531073242 ], [ 206083.998167334357277, 525642.227753997314721 ], [ 206063.776813160424354, 525662.567537154187448 ], [ 206050.878546416264726, 525679.372270978288725 ], [ 206043.787491273775231, 525693.09586132352706 ], [ 206020.847693465155317, 525735.142244363436475 ], [ 206016.421374741825275, 525740.64386587543413 ], [ 205992.621627225424163, 525783.477696893038228 ], [ 205974.287755648751045, 525817.314698031870648 ], [ 205951.438231436390197, 525858.007338068331592 ], [ 205925.263914175331593, 525888.520460274070501 ], [ 205899.453233923151856, 525918.900740809971467 ] ] } },
{ "type": "Feature", "properties": { "route_id": "026", "heat_score": 54.2, "heat_grade": "q2", "length": 23.246573445769901 }, "geometry": { "type": "LineString", "coordinates": [ [ 206138.898665820859605, 525610.093585015973076 ], [ 206117.683479816565523, 525619.689265834516846 ] ] } },
{ "type": "Feature", "properties": { "route_id": "026", "heat_score": 61.9, "heat_grade": "q3", "length": 45.339301192539381 }, "geometry": { "type": "LineString", "coordinates": [ [ 206138.898665820859605, 525610.093585015973076 ], [ 206153.198899354028981, 525603.45614441332873 ], [ 206180.070669485809049, 525590.934751137509011 ] ] } },
{ "type": "Feature", "properties": { "route_id": "026", "heat_score": 37.4, "heat_grade": "q1", "length": 33.597891349508927 }, "geometry": { "type": "LineString", "coordinates": [ [ 206166.214329227601411, 525560.370666280854493 ], [ 206168.974942436179845, 525566.521207965561189 ], [ 206180.070669485809049, 525590.934751137509011 ] ] } },
{ "type": "Feature", "properties": { "route_id": "026", "heat_score": 65.14, "heat_grade": "q4", "length": 29.420901858614833 }, "geometry": { "type": "LineString", "coordinates": [ [ 206139.466672596754506, 525572.736817112541758 ], [ 206166.214329227601411, 525560.370666280854493 ] ] } },
{ "type": "Feature", "properties": { "route_id": "026", "heat_score": 74.57, "heat_grade": "q5", "length": 97.144119916809231 }, "geometry": { "type": "LineString", "coordinates": [ [ 206076.567802940902766, 525500.551403152290732 ], [ 206126.200704219489126, 525546.612588621210307 ], [ 206131.424126501544379, 525554.185513800592162 ], [ 206135.22030536798411, 525562.234627338009886 ], [ 206139.466672596754506, 525572.736817112541758 ] ] } },
{ "type": "Feature", "properties": { "route_id": "026", "heat_score": 55.0, "heat_grade": "q2", "length": 28.424568708481477 }, "geometry": { "type": "LineString", "coordinates": [ [ 206095.912524441897403, 525479.722687779692933 ], [ 206076.567802940902766, 525500.551403152290732 ] ] } },
{ "type": "Feature", "properties": { "route_id": "026", "heat_score": 57.35, "heat_grade": "q2", "length": 45.552223803204377 }, "geometry": { "type": "LineString", "coordinates": [ [ 206095.912524441897403, 525479.722687779692933 ], [ 206061.449241509544663, 525449.898497667280026 ] ] } },
{ "type": "Feature", "properties": { "route_id": "026", "heat_score": 63.45, "heat_grade": "q3", "length": 75.158391591689863 }, "geometry": { "type": "LineString", "coordinates": [ [ 206011.148452723748051, 525505.74262761848513 ], [ 206061.449241509544663, 525449.898497667280026 ] ] } },
{ "type": "Feature", "properties": { "route_id": "026", "heat_score": 60.3, "heat_grade": "q3", "length": 364.70245915060991 }, "geometry": { "type": "LineString", "coordinates": [ [ 206011.148452723748051, 525505.74262761848513 ], [ 205968.281100062973564, 525553.346254029776901 ], [ 205941.663688695902238, 525582.382911014952697 ], [ 205779.045134407526348, 525759.821171560324728 ], [ 205765.652112096839119, 525775.438476321287453 ] ] } },
{ "type": "Feature", "properties": { "route_id": "026", "heat_score": 43.19, "heat_grade": "q1", "length": 114.5779430218866 }, "geometry": { "type": "LineString", "coordinates": [ [ 205844.726729626971064, 525858.34281042276416 ], [ 205779.962503087270306, 525791.762980583007447 ], [ 205765.652112096839119, 525775.438476321287453 ] ] } },
{ "type": "Feature", "properties": { "route_id": "026", "heat_score": 33.86, "heat_grade": "q1", "length": 81.62188122266042 }, "geometry": { "type": "LineString", "coordinates": [ [ 205844.726729626971064, 525858.34281042276416 ], [ 205899.453233923151856, 525918.900740809971467 ] ] } }
]
}
