{
"type": "FeatureCollection",
"name": "027_edges",
"crs": { "type": "name", "properties": { "name": "urn:ogc:def:crs:EPSG::5186" } },
"features": [
{ "type": "Feature", "properties": { "route_id": "027", "heat_score": 40.09, "heat_grade": "q1", "length": 171.40670498924317 }, "geometry": { "type": "LineString", "coordinates": [ [ 208491.958848752547055, 526495.105149562470615 ], [ 208534.698638473520987, 526495.104220353532583 ], [ 208537.906556284346152, 526495.10749146528542 ], [ 208555.647605120466324, 526495.103407371789217 ], [ 208569.223666515026707, 526495.106194840045646 ], [ 208663.768936630804092, 526494.903851100127213 ] ] } },
{ "type": "Feature", "properties": { "route_id": "027", "heat_score": 44.19, "heat_grade": "q1", "length": 126.90696414359653 }, "geometry": { "type": "LineString", "coordinates": [ [ 208663.699875559279462, 526621.56999548652675 ], [ 208663.768936630804092, 526494.903851100127213 ] ] } },
{ "type": "Feature", "properties": { "route_id": "027", "heat_score": 66.05, "heat_grade": "q4", "length": 30.801597707106612 }, "geometry": { "type": "LineString", "coordinates": [ [ 208663.699875559279462, 526621.56999548652675 ], [ 208663.481966920633567, 526652.312384532066062 ] ] } },
{ "type": "Feature", "properties": { "route_id": "027", "heat_score": 68.44, "heat_grade": "q4", "length": 36.003915033382739 }, "geometry": { "type": "LineString", "coordinates": [ [ 208627.62417682557134, 526656.370666373171844 ], [ 208663.481966920633567, 526652.312384532066062 ] ] } },
{ "type": "Feature", "properties": { "route_id": "027", "heat_score": 59.64, "heat_grade": "q3", "length": 11.652974526598179 }, "geometry": { "type": "LineString", "coordinates": [ [ 208616.023093299561879, 526657.723822901956737 ], [ 208627.62417682557134, 526656.370666373171844 ] ] } },
{ "type": "Feature", "properties": { "route_id": "027", "heat_score": 52.83, "heat_grade": "q2", "length": 135.52295223500232 }, "geometry": { "type": "LineString", "coordinates": [ [ 208616.023093299561879, 526657.723822901956737 ], [ 208600.579725478950422, 526664.200515583273955 ], [ 208581.533711414958816, 526675.468058880069293 ], [ 208569.056320254865568, 526684.555978921009228 ], [ 208562.23625654031639, 526690.03161831246689 ], [ 208555.894730817351956, 526695.496653965325095 ], [ 208548.592642312898533, 526704.423419690341689 ], [ 208543.835179013432935, 526711.998781749163754 ], [ 208536.091608663613442, 526728.083587428904139 ], [ 208524.309151872526854, 526751.023109042085707 ] ] } },
{ "type": "Feature", "properties": { "route_id": "027", "heat_score": 65.31, "heat_grade": "q4", "length": 109.26630965261704 }, "geometry": { "type": "LineString", "coordinates": [ [ 208421.803490062127821, 526712.91836823313497 ], [ 208426.887431628012564, 526715.420628578751348 ], [ 208517.950136542523978, 526747.620519781252369 ], [ 208524.309151872526854, 526751.023109042085707 ] ] } },
{ "type": "Feature", "properties": { "route_id": "027", "heat_score": 71.38, "heat_grade": "q5", "length": 129.13257290860739 }, "geometry": { "type": "LineString", "coordinates": [ [ 208421.803490062127821, 526712.91836823313497 ], [ 208394.12187352636829, 526684.922553189098835 ], [ 208392.218386369291693, 526683.200390057405457 ], [ 208331.916831543872831, 526620.189937266986817 ] ] } },
{ "type": "Feature", "properties": { "route_id": "027", "heat_score": 44.46, "heat_grade": "q1", "length": 129.19975622510512 }, "geometry": { "type": "LineString", "coordinates": [ [ 208331.916831543872831, 526620.189937266986817 ], [ 208305.133398271980695, 526597.322783762472682 ], [ 208292.534065281797666, 526586.567027788143605 ], [ 208284.379032127966639, 526580.033085566246882 ], [ 208277.649304937687702, 526574.910059270448983 ], [ 208266.364787327096565, 526569.715948966681026 ], [ 208254.006396249431418, 526566.152261918177828 ], [ 208238.324913327378454, 526562.574223746429197 ], [ 208221.224637297331356, 526559.93818669510074 ] ] } },
{ "type": "Feature", "properties": { "route_id": "027", "heat_score": 59.36, "heat_grade": "q3", "length": 24.288077622458847 }, "geometry": { "type": "LineString", "coordinates": [ [ 208220.184220655821264, 526536.541708904551342 ], [ 208222.843791490566218, 526544.457489776192233 ], [ 208223.696116199484095, 526551.838772150804289 ], [ 208221.224637297331356, 526559.93818669510074 ] ] } },
{ "type": "Feature", "properties": { "route_id": "027", "heat_score": 69.86, "heat_grade": "q4", "length": 37.440149725053857 }, "geometry": { "type": "LineString", "coordinates": [ [ 208187.965791403112235, 526552.203290705103427 ], [ 208198.53889692798839, 526550.959518268355168 ], [ 208204.246686513652094, 526550.021745088044554 ], [ 208211.384449017583393, 526545.766952658304945 ], [ 208220.184220655821264, 526536.541708904551342 ] ] } },
{ "type": "Feature", "properties": { "route_id": "027", "heat_score": 49.29, "heat_grade": "q2", "length": 111.25555426799998 }, "geometry": { "type": "LineString", "coordinates": [ [ 208187.965791403112235, 526552.203290705103427 ], [ 208151.380467286711792, 526538.771801293478347 ], [ 208085.701192300533876, 526508.143076017731801 ] ] } },
{ "type": "Feature", "properties": { "route_id": "027", "heat_score": 42.51, "heat_grade": "q1", "length": 87.33013079968498 }, "geometry": { "type": "LineString", "coordinates": [ [ 208089.090637374669313, 526421.156998610473238 ], [ 208089.039419831708074, 526474.162962618982419 ], [ 208088.076584277790971, 526489.311364850844257 ], [ 208085.701192300533876, 526508.143076017731801 ] ] } },
{ "type": "Feature", "properties": { "route_id": "027", "heat_score": 82.0, "heat_grade": "q5", "length": 60.951067913663955 }, "geometry": { "type": "LineString", "coordinates": [ [ 208150.182942641928094, 526421.682385526713915 ], [ 208089.090637374669313, 526421.156998610473238 ] ] } },
{ "type": "Feature", "properties": { "route_id": "027", "heat_score": 78.07, "heat_grade": "q5", "length": 50.978864058544637 }, "geometry": { "type": "LineString", "coordinates": [ [ 208150.182942641928094, 526421.682385526713915 ], [ 208201.280125556018902, 526421.266153971315362 ] ] } },
{ "type": "Feature", "properties": { "route_id": "027", "heat_score": 55.38, "heat_grade": "q2", "length": 74.707472427686412 }, "geometry": { "type": "LineString", "coordinates": [ [ 208201.280125556018902, 526421.266153971315362 ], [ 208200.322647279739613, 526430.732161086285487 ], [ 208196.500584558059927, 526451.549038618686609 ], [ 208196.481111954490189, 526471.437374119646847 ], [ 208200.498857434547972, 526495.103124368586577 ] ] } },
{ "type": "Feature", "properties": { "route_id": "027", "heat_score": 43.73, "heat_grade": "q1", "length": 162.72456071149361 }, "geometry": { "type": "LineString", "coordinates": [ [ 208363.606569596886402, 526495.098015221301466 ], [ 208303.019395108014578, 526495.104294113698415 ], [ 208249.264565656369086, 526495.106642967322841 ], [ 208200.498857434547972, 526495.103124368586577 ] ] } },
{ "type": "Feature", "properties": { "route_id": "027", "heat_score": 33.57, "heat_grade": "q1", "length": 128.05076654938193 }, "geometry": { "type": "LineString", "coordinates": [ [ 208491.958848752547055, 526495.105149562470615 ], [ 208363.606569596886402, 526495.098015221301466 ] ] } }
]
}
