{
"type": "FeatureCollection",
"name": "028_edges",
"crs": { "type": "name", "properties": { "name": "urn:ogc:def:crs:EPSG::5186" } },
"features": [
{ "type": "Feature", "properties": { "route_id": "028", "heat_score": 39.82, "heat_grade": "q1", "length": 26.7389793848292 }, "geometry": { "type": "LineString", "coordinates": [ [ 210257.770958515204256, 525097.706426986726001 ], [ 210283.977291844203137, 525092.111677528358996 ] ] } },
{ "type": "Feature", "properties": { "route_id": "028", "heat_score": 43.75, "heat_grade": "q1", "length": 13.694347871754083 }, "geometry": { "type": "LineString", "coordinates": [ [ 210257.770958515204256, 525097.706426986726001 ], [ 210254.673620891437167, 525101.054349965997972 ], [ 210250.470269394892966, 525102.869341543060727 ], [ 210245.896949406043859, 525102.819351874059066 ] ] } },
{ "type": "Feature", "properties": { "route_id": "028", "heat_score": 51.93, "heat_grade": "q2", "length": 133.6292396113239 }, "geometry": { "type": "LineString", "coordinates": [ [ 210150.869751323771197, 525180.447912561474368 ], [ 210187.588008208665997, 525159.738492830307223 ], [ 210208.867724590323633, 525123.827793140197173 ], [ 210243.779202520439867, 525116.867332411697134 ], [ 210245.896949406043859, 525102.819351874059066 ] ] } },
{ "type": "Feature", "properties": { "route_id": "028", "heat_score": 78.09, "heat_grade": "q5", "length": 148.55844944072103 }, "geometry": { "type": "LineString", "coordinates": [ [ 210007.15668328240281, 525208.919923171633855 ], [ 210084.500388622487662, 525182.753888272447512 ], [ 210105.237261139438488, 525177.629227059776895 ], [ 210107.905842594336718, 525176.966543516842648 ], [ 210150.869751323771197, 525180.447912561474368 ] ] } },
{ "type": "Feature", "properties": { "route_id": "028", "heat_score": 75.92, "heat_grade": "q5", "length": 73.182869088438451 }, "geometry": { "type": "LineString", "coordinates": [ [ 209936.036991022439906, 525226.182040143990889 ], [ 209968.700638174719643, 525215.832755863317288 ], [ 210007.15668328240281, 525208.919923171633855 ] ] } },
{ "type": "Feature", "properties": { "route_id": "028", "heat_score": 65.99, "heat_grade": "q4", "length": 91.322859226537417 }, "geometry": { "type": "LineString", "coordinates": [ [ 209898.070605705055641, 525306.345208359067328 ], [ 209901.722534516826272, 525291.011537897516973 ], [ 209913.345812220708467, 525250.22757523029577 ], [ 209936.036991022439906, 525226.182040143990889 ] ] } },
{ "type": "Feature", "properties": { "route_id": "028", "heat_score": 57.12, "heat_grade": "q2", "length": 114.36302680913275 }, "geometry": { "type": "LineString", "coordinates": [ [ 209898.070605705055641, 525306.345208359067328 ], [ 209933.833519495092332, 525327.907349961576983 ], [ 209938.713639358291402, 525330.721035266062245 ], [ 209944.532654923357768, 525334.013069487991743 ], [ 209953.956259241851512, 525339.495776200899854 ], [ 209995.029341942630708, 525367.146418039570563 ] ] } },
{ "type": "Feature", "properties": { "route_id": "028", "heat_score": 58.43, "heat_grade": "q3", "length": 61.605548574661952 }, "geometry": { "type": "LineString", "coordinates": [ [ 209995.029341942630708, 525367.146418039570563 ], [ 210000.533611692982959, 525359.361912049469538 ], [ 210006.433710295386845, 525354.097219589282759 ], [ 210048.990070954343537, 525341.962133198743686 ] ] } },
{ "type": "Feature", "properties": { "route_id": "028", "heat_score": 76.56, "heat_grade": "q5", "length": 79.712229005006662 }, "geometry": { "type": "LineString", "coordinates": [ [ 210127.780269530165242, 525350.014601207221858 ], [ 210112.835502151050605, 525344.291962969815359 ], [ 210048.990070954343537, 525341.962133198743686 ] ] } },
{ "type": "Feature", "properties": { "route_id": "028", "heat_score": 79.47, "heat_grade": "q5", "length": 8.249879945207752 }, "geometry": { "type": "LineString", "coordinates": [ [ 210135.496253447257914, 525352.97611080063507 ], [ 210127.780269530165242, 525350.014601207221858 ] ] } },
{ "type": "Feature", "properties": { "route_id": "028", "heat_score": 78.21, "heat_grade": "q5", "length": 36.93234366863279 }, "geometry": { "type": "LineString", "coordinates": [ [ 210159.365373276581522, 525381.050693306722678 ], [ 210153.977555924328044, 525373.08660499274265 ], [ 210135.496253447257914, 525352.97611080063507 ] ] } },
{ "type": "Feature", "properties": { "route_id": "028", "heat_score": 73.04, "heat_grade": "q5", "length": 71.724054913354934 }, "geometry": { "type": "LineString", "coordinates": [ [ 210159.365373276581522, 525381.050693306722678 ], [ 210183.580870444013271, 525313.646219988586381 ] ] } },
{ "type": "Feature", "properties": { "route_id": "028", "heat_score": 74.47, "heat_grade": "q5", "length": 113.2523425188292 }, "geometry": { "type": "LineString", "coordinates": [ [ 210183.580870444013271, 525313.646219988586381 ], [ 210190.778136764012743, 525298.60554400109686 ], [ 210207.450682502763811, 525253.854903103783727 ], [ 210221.847723497368861, 525207.370169997564517 ] ] } },
{ "type": "Feature", "properties": { "route_id": "028", "heat_score": 68.73, "heat_grade": "q4", "length": 226.38978485898855 }, "geometry": { "type": "LineString", "coordinates": [ [ 210441.234021582786227, 525221.846763725974597 ], [ 210418.684359450562624, 525230.697400718228891 ], [ 210368.285380249726586, 525241.022956168977544 ], [ 210341.85614448931301, 525240.845998435397632 ], [ 210282.995267182297539, 525227.810588628752157 ], [ 210221.847723497368861, 525207.370169997564517 ] ] } },
{ "type": "Feature", "properties": { "route_id": "028", "heat_score": 64.67, "heat_grade": "q3", "length": 18.556755091255837 }, "geometry": { "type": "LineString", "coordinates": [ [ 210459.104309009155259, 525226.985424810322002 ], [ 210441.234021582786227, 525221.846763725974597 ] ] } },
{ "type": "Feature", "properties": { "route_id": "028", "heat_score": 67.23, "heat_grade": "q4", "length": 81.005683478955888 }, "geometry": { "type": "LineString", "coordinates": [ [ 210459.104309009155259, 525226.985424810322002 ], [ 210489.769089867389994, 525171.36530149995815 ], [ 210503.555711642722599, 525160.672625243547373 ] ] } },
{ "type": "Feature", "properties": { "route_id": "028", "heat_score": 39.32, "heat_grade": "q1", "length": 142.27267643117676 }, "geometry": { "type": "LineString", "coordinates": [ [ 210407.031320296111517, 525072.31985974649433 ], [ 210419.874869307386689, 525071.669925012160093 ], [ 210442.631151634996058, 525075.160967605188489 ], [ 210450.772128660872113, 525078.58942856581416 ], [ 210472.002443600271363, 525111.611484577762894 ], [ 210503.555711642722599, 525160.672625243547373 ] ] } },
{ "type": "Feature", "properties": { "route_id": "028", "heat_score": 34.23, "heat_grade": "q1", "length": 124.85916112533722 }, "geometry": { "type": "LineString", "coordinates": [ [ 210407.031320296111517, 525072.31985974649433 ], [ 210337.668796585610835, 525078.948488081805408 ], [ 210317.407616573094856, 525086.126363781397231 ], [ 210283.977291844203137, 525092.111677528358996 ] ] } }
]
}
