{
"type": "FeatureCollection",
"name": "029_edges",
"crs": { "type": "name", "properties": { "name": "urn:ogc:def:crs:EPSG::5186" } },
"features": [
{ "type": "Feature", "properties": { "route_id": "029", "heat_score": 49.7, "heat_grade": "q2", "length": 104.93927250892878 }, "geometry": { "type": "LineString", "coordinates": [ [ 207234.333940372744109, 524058.981752030667849 ], [ 207216.547730751364725, 524023.107586083817296 ], [ 207199.543429854908027, 523984.903475038008764 ], [ 207190.351465724874288, 523963.86417643429013 ] ] } },
{ "type": "Feature", "properties": { "route_id": "029", "heat_score": 61.08, "heat_grade": "q3", "length": 88.288139043189588 }, "geometry": { "type": "LineString", "coordinates": [ [ 207190.351465724874288, 523963.86417643429013 ], [ 207180.074047918315046, 523968.128233637718949 ], [ 207122.026252571464283, 523993.882390845566988 ], [ 207109.407603438798105, 523999.476348909956869 ] ] } },
{ "type": "Feature", "properties": { "route_id": "029", "heat_score": 58.44, "heat_grade": "q3", "length": 53.477805303133167 }, "geometry": { "type": "LineString", "coordinates": [ [ 207086.011007869034074, 523951.467191940115299 ], [ 207089.134664221404819, 523957.917985035222955 ], [ 207092.249451425945153, 523964.368771862820722 ], [ 207098.770207862457028, 523978.835465591168031 ], [ 207103.513668929081177, 523988.051130247302353 ], [ 207109.407603438798105, 523999.476348909956869 ] ] } },
{ "type": "Feature", "properties": { "route_id": "029", "heat_score": 52.92, "heat_grade": "q2", "length": 204.7205012718656 }, "geometry": { "type": "LineString", "coordinates": [ [ 207086.011007869034074, 523951.467191940115299 ], [ 207077.613420722977025, 523955.078161154873669 ], [ 207025.97775376070058, 523977.253629657439888 ], [ 206951.704986422904767, 524007.656689353403635 ], [ 206929.475964032899356, 524015.218458863440901 ], [ 206919.563763416517759, 524017.563120169390459 ], [ 206904.341670535912272, 524020.147579752258025 ], [ 206894.093133916758234, 524021.892682221136056 ] ] } },
{ "type": "Feature", "properties": { "route_id": "029", "heat_score": 69.03, "heat_grade": "q4", "length": 321.43921271221416 }, "geometry": { "type": "LineString", "coordinates": [ [ 207104.287560092838248, 523796.69377670326503 ], [ 207094.151478545041755, 523811.823356329172384 ], [ 207091.559807146899402, 523815.650097851525061 ], [ 207078.185315193375573, 523834.239646357484162 ], [ 207073.356993690569652, 523841.405111985339317 ], [ 207057.55296999757411, 523860.891610775201116 ], [ 207056.470835739775794, 523861.689781560446136 ], [ 207051.030230562086217, 523869.653826869849581 ], [ 207042.164639848779188, 523881.577112549450248 ], [ 207026.505470637988765, 523897.634397756017279 ], [ 206999.261117364454549, 523923.692751687718555 ], [ 206986.788706103892764, 523934.603133048687596 ], [ 206973.688833941152552, 523943.260042597481515 ], [ 206953.582678342034342, 523956.106337096425705 ], [ 206941.973138525849208, 523963.488221340230666 ], [ 206931.908086104464019, 523968.363168751180638 ], [ 206921.915784618468024, 523971.029613569029607 ], [ 206915.664927547361003, 523972.855681958957575 ], [ 206910.939422161667608, 523973.850635647773743 ], [ 206904.90001433523139, 523977.252854435995687 ], [ 206901.792055724567035, 523983.864919685292989 ], [ 206894.386078528885264, 524010.605884558463003 ], [ 206894.239601563691394, 524016.254832542908844 ], [ 206894.093133916758234, 524021.892682221136056 ] ] } },
{ "type": "Feature", "properties": { "route_id": "029", "heat_score": 78.56, "heat_grade": "q5", "length": 9.9103586157520827 }, "geometry": { "type": "LineString", "coordinates": [ [ 207104.287560092838248, 523796.69377670326503 ], [ 207109.763966034195619, 523788.441239570383914 ] ] } },
{ "type": "Feature", "properties": { "route_id": "029", "heat_score": 72.76, "heat_grade": "q5", "length": 59.326186158478549 }, "geometry": { "type": "LineString", "coordinates": [ [ 207109.763966034195619, 523788.441239570383914 ], [ 207121.269489009544486, 523799.604865649482235 ], [ 207129.655219217704143, 523810.133245765289757 ], [ 207131.036606196576031, 523811.865766076836735 ], [ 207135.702908084931551, 523818.073724189365748 ], [ 207141.050102875800803, 523826.23557732795598 ], [ 207146.796084014698863, 523834.5198561581783 ] ] } },
{ "type": "Feature", "properties": { "route_id": "029", "heat_score": 77.35, "heat_grade": "q5", "length": 37.258050742887846 }, "geometry": { "type": "LineString", "coordinates": [ [ 207146.796084014698863, 523834.5198561581783 ], [ 207164.142288338305661, 523867.452419156674296 ] ] } },
{ "type": "Feature", "properties": { "route_id": "029", "heat_score": 55.64, "heat_grade": "q2", "length": 263.54092914717592 }, "geometry": { "type": "LineString", "coordinates": [ [ 207418.054668387863785, 523818.008192008535843 ], [ 207387.963958109088708, 523813.209308522171341 ], [ 207351.693883215921232, 523809.292978162760846 ], [ 207334.11456647166051, 523810.453998691576999 ], [ 207315.478394020639826, 523813.88929796993034 ], [ 207278.760199532815022, 523825.776962916250341 ], [ 207227.462817406078102, 523844.744054904906079 ], [ 207175.252707478066441, 523863.621892349328846 ], [ 207164.142288338305661, 523867.452419156674296 ] ] } },
{ "type": "Feature", "properties": { "route_id": "029", "heat_score": 40.0, "heat_grade": "q1", "length": 57.118146643416132 }, "geometry": { "type": "LineString", "coordinates": [ [ 207418.054668387863785, 523818.008192008535843 ], [ 207416.68300504446961, 523825.387390313029755 ], [ 207416.890469748032046, 523841.369219557382166 ], [ 207417.131524610187626, 523859.459768364904448 ], [ 207419.688737325166585, 523874.677891733765136 ] ] } },
{ "type": "Feature", "properties": { "route_id": "029", "heat_score": 46.12, "heat_grade": "q1", "length": 96.902252047319251 }, "geometry": { "type": "LineString", "coordinates": [ [ 207402.296625493559986, 523965.091997610288672 ], [ 207426.618751565867569, 523916.902216129237786 ], [ 207419.688737325166585, 523874.677891733765136 ] ] } },
{ "type": "Feature", "properties": { "route_id": "029", "heat_score": 41.14, "heat_grade": "q1", "length": 323.39735550589432 }, "geometry": { "type": "LineString", "coordinates": [ [ 207402.296625493559986, 523965.091997610288672 ], [ 207298.984480146784335, 523912.306313630775549 ], [ 207275.318083751073573, 523900.343888172355946 ], [ 207228.208641528413864, 523935.817884507239796 ], [ 207225.829318167612655, 523940.077604759135284 ], [ 207223.918180941982428, 523946.224451638991013 ], [ 207225.337990175787127, 523954.749221319158096 ], [ 207275.862481318152277, 524018.608556352963205 ], [ 207276.810138866043417, 524019.552740641345736 ], [ 207290.493507500679698, 524033.271120784163941 ] ] } },
{ "type": "Feature", "properties": { "route_id": "029", "heat_score": 47.46, "heat_grade": "q1", "length": 50.837344709926064 }, "geometry": { "type": "LineString", "coordinates": [ [ 207244.265751940110931, 524054.506593152880669 ], [ 207257.098352216096828, 524047.525727021798957 ], [ 207290.493507500679698, 524033.271120784163941 ] ] } },
{ "type": "Feature", "properties": { "route_id": "029", "heat_score": 28.43, "heat_grade": "q1", "length": 10.875769449256902 }, "geometry": { "type": "LineString", "coordinates": [ [ 207234.333940372744109, 524058.981752030667849 ], [ 207244.265751940110931, 524054.506593152880669 ] ] } }
]
}
