{
"type": "FeatureCollection",
"name": "030_edges",
"crs": { "type": "name", "properties": { "name": "urn:ogc:def:crs:EPSG::5186" } },
"features": [
{ "type": "Feature", "properties": { "route_id": "030", "heat_score": 37.67, "heat_grade": "q1", "length": 74.725283976282313 }, "geometry": { "type": "LineString", "coordinates": [ [ 207197.317452015879098, 524966.175503283273429 ], [ 207270.991792437620461, 524952.732404570910148 ] ] } },
{ "type": "Feature", "properties": { "route_id": "030", "heat_score": 37.17, "heat_grade": "q1", "length": 252.70377555499033 }, "geometry": { "type": "LineString", "coordinates": [ [ 207084.868765761872055, 524798.915802528033964 ], [ 207122.407948084932286, 524962.781951774377376 ], [ 207126.430868176423246, 524974.383184323669411 ], [ 207132.13719059608411, 524976.285865134559572 ], [ 207139.262842060154071, 524976.769166464917362 ], [ 207197.317452015879098, 524966.175503283273429 ] ] } },
{ "type": "Feature", "properties": { "route_id": "030", "heat_score": 62.48, "heat_grade": "q3", "length": 37.296636479381647 }, "geometry": { "type": "LineString", "coordinates": [ [ 207055.391579505085247, 524816.814805384143256 ], [ 207059.189325242565246, 524811.834832382039167 ], [ 207062.287453604396433, 524806.155073246802203 ], [ 207065.853551028703805, 524802.606599074555561 ], [ 207071.324289375043008, 524800.247260872623883 ], [ 207084.868765761872055, 524798.915802528033964 ] ] } },
{ "type": "Feature", "properties": { "route_id": "030", "heat_score": 73.52, "heat_grade": "q5", "length": 33.121909656217369 }, "geometry": { "type": "LineString", "coordinates": [ [ 207055.391579505085247, 524816.814805384143256 ], [ 207024.184033608762547, 524805.534818556508981 ] ] } },
{ "type": "Feature", "properties": { "route_id": "030", "heat_score": 77.36, "heat_grade": "q5", "length": 37.462336263793702 }, "geometry": { "type": "LineString", "coordinates": [ [ 207024.184033608762547, 524805.534818556508981 ], [ 207032.408078587381169, 524785.88648817432113 ], [ 207034.309248542442219, 524780.660747648449615 ], [ 207031.623317949939519, 524770.459081399603747 ] ] } },
{ "type": "Feature", "properties": { "route_id": "030", "heat_score": 59.33, "heat_grade": "q3", "length": 45.036097237574651 }, "geometry": { "type": "LineString", "coordinates": [ [ 207031.623317949939519, 524770.459081399603747 ], [ 207048.507077723857947, 524761.317108904011548 ], [ 207053.446542928519193, 524758.346901198499836 ], [ 207070.119425704033347, 524747.073905902099796 ] ] } },
{ "type": "Feature", "properties": { "route_id": "030", "heat_score": 58.38, "heat_grade": "q3", "length": 46.722340808798421 }, "geometry": { "type": "LineString", "coordinates": [ [ 207096.157783389644464, 524708.318187993136235 ], [ 207093.965547001629602, 524711.790123650571331 ], [ 207087.407336413045414, 524721.306981104891747 ], [ 207079.322739913885016, 524733.042229436687194 ], [ 207070.119425704033347, 524747.073905902099796 ] ] } },
{ "type": "Feature", "properties": { "route_id": "030", "heat_score": 41.06, "heat_grade": "q1", "length": 328.86656831242186 }, "geometry": { "type": "LineString", "coordinates": [ [ 207096.157783389644464, 524708.318187993136235 ], [ 207114.465305573423393, 524682.385708364541642 ], [ 207133.70913829782512, 524649.972614109632559 ], [ 207147.536215963511495, 524629.374713631230406 ], [ 207172.518230200919788, 524593.293045975500718 ], [ 207185.358209979429375, 524576.678681407007389 ], [ 207191.551289717288455, 524569.425657597603276 ], [ 207200.690103427361464, 524558.712476584943943 ], [ 207210.644774386921199, 524547.567171232192777 ], [ 207231.033278044138569, 524524.766484705847688 ], [ 207251.342291710374411, 524501.766008760780096 ], [ 207259.025731498433743, 524493.204717321437784 ], [ 207265.244382508157287, 524487.272477478603832 ], [ 207271.54236355330795, 524481.861934796790592 ], [ 207279.134185766481096, 524476.774373952997848 ], [ 207291.257037154573482, 524469.826235520420596 ], [ 207302.5101146287343, 524464.186964682070538 ], [ 207307.538357283890946, 524461.361263809725642 ] ] } },
{ "type": "Feature", "properties": { "route_id": "030", "heat_score": 35.4, "heat_grade": "q1", "length": 138.39673571032586 }, "geometry": { "type": "LineString", "coordinates": [ [ 207307.538357283890946, 524461.361263809725642 ], [ 207318.719007541396422, 524477.774423542199656 ], [ 207328.212449543003459, 524497.671012590639293 ], [ 207332.432420891680522, 524506.864160743774846 ], [ 207343.871430137049174, 524531.767839644337073 ], [ 207355.635365439695306, 524560.045727224322036 ], [ 207356.679078909481177, 524562.554877019138075 ], [ 207364.741535682493122, 524586.712030839873478 ] ] } },
{ "type": "Feature", "properties": { "route_id": "030", "heat_score": 41.15, "heat_grade": "q1", "length": 89.1589817452099 }, "geometry": { "type": "LineString", "coordinates": [ [ 207377.028795775753679, 524674.788475329987705 ], [ 207376.088729543960653, 524665.320730143459514 ], [ 207371.841793346684426, 524626.483764646342024 ], [ 207368.060530142160133, 524602.341465430217795 ], [ 207364.741535682493122, 524586.712030839873478 ] ] } },
{ "type": "Feature", "properties": { "route_id": "030", "heat_score": 44.15, "heat_grade": "q1", "length": 341.78572426459607 }, "geometry": { "type": "LineString", "coordinates": [ [ 207281.505452285375213, 524858.904712166171521 ], [ 207279.398051044525346, 524856.505629876279272 ], [ 207263.720536042499589, 524844.183913975488394 ], [ 207249.940974184981314, 524830.443277538754046 ], [ 207236.639589352271287, 524817.169209289480932 ], [ 207227.143019624956651, 524801.068357501877472 ], [ 207220.978672090044711, 524785.436520983930677 ], [ 207218.615096741879825, 524771.70578714099247 ], [ 207216.24673285530298, 524753.236041888943873 ], [ 207212.467124851507833, 524726.71875737409573 ], [ 207211.053541219676845, 524711.102120550116524 ], [ 207221.515787582204212, 524707.315488259075209 ], [ 207241.498297070909757, 524702.604830276570283 ], [ 207267.650689000409329, 524696.94511033501476 ], [ 207285.718730679247528, 524692.2217985636089 ], [ 207305.222680246050004, 524687.510876302490942 ], [ 207321.392718531773426, 524684.206578891724348 ], [ 207348.493205965234665, 524679.025170294335112 ], [ 207377.028795775753679, 524674.788475329987705 ] ] } },
{ "type": "Feature", "properties": { "route_id": "030", "heat_score": 42.04, "heat_grade": "q1", "length": 91.214694386898685 }, "geometry": { "type": "LineString", "coordinates": [ [ 207281.505452285375213, 524858.904712166171521 ], [ 207292.697662860533455, 524871.66649055830203 ], [ 207301.248530787182972, 524884.459276483510621 ], [ 207307.413071539631346, 524899.613944676122628 ], [ 207314.532143915799679, 524917.843703449005261 ], [ 207320.930037268466549, 524939.757501749205403 ] ] } },
{ "type": "Feature", "properties": { "route_id": "030", "heat_score": 32.23, "heat_grade": "q1", "length": 51.489123545063038 }, "geometry": { "type": "LineString", "coordinates": [ [ 207320.930037268466549, 524939.757501749205403 ], [ 207270.991792437620461, 524952.732404570910148 ] ] } }
]
}
