{
"type": "FeatureCollection",
"name": "032_edges",
"crs": { "type": "name", "properties": { "name": "urn:ogc:def:crs:EPSG::5186" } },
"features": [
{ "type": "Feature", "properties": { "route_id": "032", "heat_score": 34.18, "heat_grade": "q1", "length": 31.301967761921567 }, "geometry": { "type": "LineString", "coordinates": [ [ 209670.073685108480277, 525166.616382725769654 ], [ 209666.950531739246799, 525169.520556928124279 ], [ 209662.082511331595015, 525171.423863466014154 ], [ 209656.011318889679387, 525171.416861445410177 ], [ 209650.961308914062101, 525169.735182752949186 ], [ 209647.330856440094067, 525166.778826699825004 ], [ 209644.012640616565477, 525162.058186865528114 ] ] } },
{ "type": "Feature", "properties": { "route_id": "032", "heat_score": 56.08, "heat_grade": "q2", "length": 21.698191437619531 }, "geometry": { "type": "LineString", "coordinates": [ [ 209671.853499737073435, 525145.03205834957771 ], [ 209670.073685108480277, 525166.616382725769654 ] ] } },
{ "type": "Feature", "properties": { "route_id": "032", "heat_score": 67.68, "heat_grade": "q4", "length": 83.302931191762951 }, "geometry": { "type": "LineString", "coordinates": [ [ 209671.853499737073435, 525145.03205834957771 ], [ 209676.010719763435191, 525175.34657915099524 ], [ 209681.074083590414375, 525188.470734881004319 ], [ 209684.849372413358651, 525196.454846777487546 ], [ 209699.496649325039471, 525222.286668564658612 ] ] } },
{ "type": "Feature", "properties": { "route_id": "032", "heat_score": 77.17, "heat_grade": "q5", "length": 82.955897975680685 }, "geometry": { "type": "LineString", "coordinates": [ [ 209772.397187491180375, 525258.330224918201566 ], [ 209762.301651741901878, 525258.851173756294884 ], [ 209752.449669286172139, 525255.721045519807376 ], [ 209699.496649325039471, 525222.286668564658612 ] ] } },
{ "type": "Feature", "properties": { "route_id": "032", "heat_score": 78.7, "heat_grade": "q5", "length": 59.113667685233509 }, "geometry": { "type": "LineString", "coordinates": [ [ 209813.392532012483571, 525217.025532469851896 ], [ 209801.639895135886036, 525232.405246565467678 ], [ 209795.266662243811879, 525240.610604159301147 ], [ 209789.143641780101461, 525247.07381068833638 ], [ 209782.470997101947432, 525253.64736367855221 ], [ 209772.397187491180375, 525258.330224918201566 ] ] } },
{ "type": "Feature", "properties": { "route_id": "032", "heat_score": 73.34, "heat_grade": "q5", "length": 58.740860980401621 }, "geometry": { "type": "LineString", "coordinates": [ [ 209813.392532012483571, 525217.025532469851896 ], [ 209810.086819025978912, 525231.993397727143019 ], [ 209804.654042718408164, 525246.925478905788623 ], [ 209802.436276026535779, 525256.223340184194967 ], [ 209804.349041207518894, 525265.193084835191257 ], [ 209809.232956152147381, 525272.40166429139208 ] ] } },
{ "type": "Feature", "properties": { "route_id": "032", "heat_score": 74.75, "heat_grade": "q5", "length": 19.602307284585571 }, "geometry": { "type": "LineString", "coordinates": [ [ 209809.232956152147381, 525272.40166429139208 ], [ 209790.885951962671243, 525265.399302325677127 ] ] } },
{ "type": "Feature", "properties": { "route_id": "032", "heat_score": 38.78, "heat_grade": "q1", "length": 195.97139019419933 }, "geometry": { "type": "LineString", "coordinates": [ [ 209790.885951962671243, 525265.399302325677127 ], [ 209795.146743101795437, 525282.518014706904069 ], [ 209806.440045512834331, 525356.579749357770197 ], [ 209823.443113244546112, 525443.766514208749868 ], [ 209827.486240440572146, 525457.422291618189774 ] ] } },
{ "type": "Feature", "properties": { "route_id": "032", "heat_score": 54.93, "heat_grade": "q2", "length": 161.40008582218266 }, "geometry": { "type": "LineString", "coordinates": [ [ 209665.764986569236498, 525459.498140550451353 ], [ 209703.115006169653498, 525457.477031752001494 ], [ 209750.060887417785125, 525457.631444608327001 ], [ 209802.599138226651121, 525457.814861835562624 ], [ 209827.486240440572146, 525457.422291618189774 ] ] } },
{ "type": "Feature", "properties": { "route_id": "032", "heat_score": 69.45, "heat_grade": "q4", "length": 171.97773340389193 }, "geometry": { "type": "LineString", "coordinates": [ [ 209665.764986569236498, 525459.498140550451353 ], [ 209666.368302332150051, 525512.68237575457897 ], [ 209665.870118254038971, 525568.051729147904553 ], [ 209662.482791056187125, 525631.053454653942026 ] ] } },
{ "type": "Feature", "properties": { "route_id": "032", "heat_score": 78.09, "heat_grade": "q5", "length": 179.21532321423791 }, "geometry": { "type": "LineString", "coordinates": [ [ 209662.482791056187125, 525631.053454653942026 ], [ 209662.537838695803657, 525683.193820816231892 ], [ 209662.652142293896759, 525699.342131579411216 ], [ 209663.109449278155807, 525809.927174627198838 ] ] } },
{ "type": "Feature", "properties": { "route_id": "032", "heat_score": 75.85, "heat_grade": "q5", "length": 171.19065119390493 }, "geometry": { "type": "LineString", "coordinates": [ [ 209663.109449278155807, 525809.927174627198838 ], [ 209662.349243957054568, 525823.588436176301911 ], [ 209659.713051064347383, 525980.749954186030664 ] ] } },
{ "type": "Feature", "properties": { "route_id": "032", "heat_score": 75.45, "heat_grade": "q5", "length": 41.510842588789281 }, "geometry": { "type": "LineString", "coordinates": [ [ 209659.713051064347383, 525980.749954186030664 ], [ 209701.320826878567459, 525981.008930343203247 ] ] } },
{ "type": "Feature", "properties": { "route_id": "032", "heat_score": 71.41, "heat_grade": "q5", "length": 199.40423465439574 }, "geometry": { "type": "LineString", "coordinates": [ [ 209701.320826878567459, 525981.008930343203247 ], [ 209698.578393697564024, 526045.676190179307014 ], [ 209698.748063939594431, 526052.213350759004243 ], [ 209701.462254168873187, 526057.810094461077824 ], [ 209706.69144023314584, 526064.996827273047529 ], [ 209709.41504938469734, 526070.105254512513056 ], [ 209713.386962099437369, 526076.291676721768454 ], [ 209716.857620013033738, 526086.761506020091474 ], [ 209766.682980166166089, 526092.09122562117409 ], [ 209773.364627253409708, 526107.592405862291344 ], [ 209794.512025307281874, 526113.0442420943873 ] ] } },
{ "type": "Feature", "properties": { "route_id": "032", "heat_score": 69.86, "heat_grade": "q4", "length": 17.704819815195624 }, "geometry": { "type": "LineString", "coordinates": [ [ 209790.831774461694295, 526130.331264303880744 ], [ 209794.512025307281874, 526113.0442420943873 ] ] } },
{ "type": "Feature", "properties": { "route_id": "032", "heat_score": 76.74, "heat_grade": "q5", "length": 35.237835800448458 }, "geometry": { "type": "LineString", "coordinates": [ [ 209766.281341873575002, 526155.307314592297189 ], [ 209775.396728422609158, 526143.24287933006417 ], [ 209790.831774461694295, 526130.331264303880744 ] ] } },
{ "type": "Feature", "properties": { "route_id": "032", "heat_score": 78.13, "heat_grade": "q5", "length": 25.21942806333794 }, "geometry": { "type": "LineString", "coordinates": [ [ 209766.281341873575002, 526155.307314592297189 ], [ 209741.006336905498756, 526155.744002878782339 ] ] } },
{ "type": "Feature", "properties": { "route_id": "032", "heat_score": 64.04, "heat_grade": "q3", "length": 59.214713545903749 }, "geometry": { "type": "LineString", "coordinates": [ [ 209741.006336905498756, 526155.744002878782339 ], [ 209681.677059216133785, 526154.032619720790535 ] ] } },
{ "type": "Feature", "properties": { "route_id": "032", "heat_score": 64.83, "heat_grade": "q3", "length": 63.369446790944693 }, "geometry": { "type": "LineString", "coordinates": [ [ 209620.14733973404509, 526146.90310317510739 ], [ 209634.512612343532965, 526154.677412017947063 ], [ 209681.677059216133785, 526154.032619720790535 ] ] } },
{ "type": "Feature", "properties": { "route_id": "032", "heat_score": 74.63, "heat_grade": "q5", "length": 27.347147169398429 }, "geometry": { "type": "LineString", "coordinates": [ [ 209647.401459634624189, 526143.982285897247493 ], [ 209620.14733973404509, 526146.90310317510739 ] ] } },
{ "type": "Feature", "properties": { "route_id": "032", "heat_score": 76.47, "heat_grade": "q5", "length": 163.06449781711913 }, "geometry": { "type": "LineString", "coordinates": [ [ 209647.401459634624189, 526143.982285897247493 ], [ 209646.069104597205296, 525992.787097136373632 ], [ 209645.967206456902204, 525981.233535284991376 ] ] } },
{ "type": "Feature", "properties": { "route_id": "032", "heat_score": 72.11, "heat_grade": "q5", "length": 170.98150923746215 }, "geometry": { "type": "LineString", "coordinates": [ [ 209645.967206456902204, 525981.233535284991376 ], [ 209647.947722708922811, 525823.727207505144179 ], [ 209647.236123088339809, 525810.608070780639537 ] ] } },
{ "type": "Feature", "properties": { "route_id": "032", "heat_score": 66.4, "heat_grade": "q4", "length": 161.25189942558507 }, "geometry": { "type": "LineString", "coordinates": [ [ 209647.236123088339809, 525810.608070780639537 ], [ 209647.55079445449519, 525699.025062104687095 ], [ 209647.276463387446711, 525683.287208242341876 ], [ 209647.90012180438498, 525649.670860354672186 ] ] } },
{ "type": "Feature", "properties": { "route_id": "032", "heat_score": 66.47, "heat_grade": "q4", "length": 17.379940119155574 }, "geometry": { "type": "LineString", "coordinates": [ [ 209647.90012180438498, 525649.670860354672186 ], [ 209649.001302954566199, 525632.358619227888994 ] ] } },
{ "type": "Feature", "properties": { "route_id": "032", "heat_score": 56.92, "heat_grade": "q2", "length": 381.03652993107153 }, "geometry": { "type": "LineString", "coordinates": [ [ 209649.001302954566199, 525632.358619227888994 ], [ 209644.873475197586231, 525568.948686824645847 ], [ 209643.271253991435515, 525513.410437502898276 ], [ 209640.674303514155326, 525451.97779731056653 ], [ 209640.550829284737119, 525420.657969502382912 ], [ 209641.951189835614059, 525343.647788331960328 ], [ 209642.575561906560324, 525309.409947994397953 ], [ 209642.804583359684329, 525287.546367675065994 ], [ 209642.854057629156159, 525252.275717404088937 ] ] } },
{ "type": "Feature", "properties": { "route_id": "032", "heat_score": 70.76, "heat_grade": "q4", "length": 74.935683668498811 }, "geometry": { "type": "LineString", "coordinates": [ [ 209642.854057629156159, 525252.275717404088937 ], [ 209637.170289981993847, 525231.426385397324339 ], [ 209632.457408473070245, 525221.776456724735908 ], [ 209605.454044087207876, 525188.916385899530724 ] ] } },
{ "type": "Feature", "properties": { "route_id": "032", "heat_score": 61.06, "heat_grade": "q3", "length": 40.231043009389019 }, "geometry": { "type": "LineString", "coordinates": [ [ 209643.434390998154413, 525202.411288917413913 ], [ 209635.841897011501715, 525199.69454116106499 ], [ 209605.454044087207876, 525188.916385899530724 ] ] } },
{ "type": "Feature", "properties": { "route_id": "032", "heat_score": 30.67, "heat_grade": "q1", "length": 40.434203280809413 }, "geometry": { "type": "LineString", "coordinates": [ [ 209643.434390998154413, 525202.411288917413913 ], [ 209643.737432938272832, 525185.542075623176061 ], [ 209644.012640616565477, 525162.058186865528114 ] ] } }
]
}
