{
"type": "FeatureCollection",
"name": "033_edges",
"crs": { "type": "name", "properties": { "name": "urn:ogc:def:crs:EPSG::5186" } },
"features": [
{ "type": "Feature", "properties": { "route_id": "033", "heat_score": 39.79, "heat_grade": "q1", "length": 683.07642429187786 }, "geometry": { "type": "LineString", "coordinates": [ [ 210758.444102844048757, 525130.064930918859318 ], [ 210761.489929229544941, 525132.466098467237316 ], [ 210766.936582736612763, 525135.702733280835673 ], [ 210772.392095131566748, 525138.939383061835542 ], [ 210774.641864003002411, 525140.074313936987892 ], [ 210825.686542448500404, 525165.91062547499314 ], [ 210909.949435910501052, 525205.496983680990525 ], [ 210988.098064244928537, 525236.807860273169354 ], [ 211036.365650715160882, 525250.51126590766944 ], [ 211084.078958728961879, 525261.006778272567317 ], [ 211097.378413226135308, 525263.932172603206709 ], [ 211150.342912644991884, 525271.072206780081615 ], [ 211200.932973946910352, 525277.521299161016941 ], [ 211261.74422565830173, 525282.275281673762947 ], [ 211332.698153209610609, 525284.424201378948055 ], [ 211394.458509263000451, 525282.01086239668075 ], [ 211414.445440982352011, 525281.305585301946849 ] ] } },
{ "type": "Feature", "properties": { "route_id": "033", "heat_score": 60.53, "heat_grade": "q3", "length": 819.85417426313211 }, "geometry": { "type": "LineString", "coordinates": [ [ 211414.445440982352011, 525281.305585301946849 ], [ 211501.900468786596321, 525278.239997699041851 ], [ 211536.192933974671178, 525277.033045560121536 ], [ 211641.429317659989465, 525278.799037532531656 ], [ 211683.142078030999983, 525282.530697764945216 ], [ 211726.77843252121238, 525285.998897460987791 ], [ 211824.784125972597394, 525305.447934657568112 ], [ 211893.032013927848311, 525321.859237788594328 ], [ 212015.865032741246978, 525357.649374523083679 ], [ 212106.761058216157835, 525383.339926772750914 ], [ 212174.715460012870608, 525405.735151601140387 ], [ 212217.859578901116038, 525417.984042340191081 ] ] } },
{ "type": "Feature", "properties": { "route_id": "033", "heat_score": 61.33, "heat_grade": "q3", "length": 580.46321053012218 }, "geometry": { "type": "LineString", "coordinates": [ [ 211659.026355377282016, 525263.152566809440032 ], [ 211727.304367653734516, 525271.183260303805582 ], [ 211818.407135886809556, 525289.823472889373079 ], [ 211885.661477310612099, 525306.965807936969213 ], [ 211957.633115626405925, 525328.565880926325917 ], [ 212117.952654343418544, 525378.728076379746199 ], [ 212197.364331559336279, 525408.842369394493289 ], [ 212217.859578901116038, 525417.984042340191081 ] ] } },
{ "type": "Feature", "properties": { "route_id": "033", "heat_score": 42.92, "heat_grade": "q1", "length": 56.512670055170787 }, "geometry": { "type": "LineString", "coordinates": [ [ 211653.532986770209391, 525319.269565405906178 ], [ 211655.564714354462922, 525305.010939335683361 ], [ 211655.869050238281488, 525302.858271894743666 ], [ 211659.026355377282016, 525263.152566809440032 ] ] } },
{ "type": "Feature", "properties": { "route_id": "033", "heat_score": 65.67, "heat_grade": "q4", "length": 48.757841571847138 }, "geometry": { "type": "LineString", "coordinates": [ [ 211605.632707613054663, 525322.921014032908715 ], [ 211616.069204102619551, 525319.4283868575003 ], [ 211621.61996855889447, 525317.571555501199327 ], [ 211632.831897393421968, 525317.331858669524081 ], [ 211653.532986770209391, 525319.269565405906178 ] ] } },
{ "type": "Feature", "properties": { "route_id": "033", "heat_score": 62.37, "heat_grade": "q3", "length": 17.118044318319278 }, "geometry": { "type": "LineString", "coordinates": [ [ 211605.632707613054663, 525322.921014032908715 ], [ 211601.516703800007235, 525306.334290685248561 ] ] } },
{ "type": "Feature", "properties": { "route_id": "033", "heat_score": 62.72, "heat_grade": "q3", "length": 205.79976571932329 }, "geometry": { "type": "LineString", "coordinates": [ [ 211601.516703800007235, 525306.334290685248561 ], [ 211395.466842452005949, 525296.540047490270808 ] ] } },
{ "type": "Feature", "properties": { "route_id": "033", "heat_score": 43.83, "heat_grade": "q1", "length": 670.95325412828743 }, "geometry": { "type": "LineString", "coordinates": [ [ 211395.466842452005949, 525296.540047490270808 ], [ 211331.20744398565148, 525298.805717759416439 ], [ 211268.30832018746878, 525297.943960851873271 ], [ 211227.744991688261507, 525296.191424164222553 ], [ 211174.211073925427627, 525290.859179563005455 ], [ 211137.011526806425536, 525285.515688435640186 ], [ 211096.990301143669058, 525275.906836210051551 ], [ 211038.963638749031816, 525263.100279499776661 ], [ 211003.14921903598588, 525255.694906814373098 ], [ 210940.412789740599692, 525231.795543515589088 ], [ 210871.372262267599581, 525202.705513019114733 ], [ 210813.984984462003922, 525174.552260765223764 ], [ 210771.142013049597153, 525146.129538631299511 ], [ 210755.298312923347112, 525136.486864144098945 ] ] } },
{ "type": "Feature", "properties": { "route_id": "033", "heat_score": 35.08, "heat_grade": "q1", "length": 7.1587930607012993 }, "geometry": { "type": "LineString", "coordinates": [ [ 210758.444102844048757, 525130.064930918859318 ], [ 210755.298312923347112, 525136.486864144098945 ] ] } }
]
}
