{
"type": "FeatureCollection",
"name": "034_edges",
"crs": { "type": "name", "properties": { "name": "urn:ogc:def:crs:EPSG::5186" } },
"features": [
{ "type": "Feature", "properties": { "route_id": "034", "heat_score": 43.82, "heat_grade": "q1", "length": 43.721906920075696 }, "geometry": { "type": "LineString", "coordinates": [ [ 210767.131257206754526, 525880.383860115893185 ], [ 210767.187373242195463, 525836.744974720641039 ] ] } },
{ "type": "Feature", "properties": { "route_id": "034", "heat_score": 56.45, "heat_grade": "q2", "length": 157.05668154185003 }, "geometry": { "type": "LineString", "coordinates": [ [ 210767.187373242195463, 525836.744974720641039 ], [ 210924.569296578731155, 525840.47812842798885 ] ] } },
{ "type": "Feature", "properties": { "route_id": "034", "heat_score": 67.34, "heat_grade": "q4", "length": 83.880502302054055 }, "geometry": { "type": "LineString", "coordinates": [ [ 210924.569296578731155, 525840.47812842798885 ], [ 211008.645909671555273, 525840.965592179913074 ] ] } },
{ "type": "Feature", "properties": { "route_id": "034", "heat_score": 60.9, "heat_grade": "q3", "length": 327.60990111701977 }, "geometry": { "type": "LineString", "coordinates": [ [ 211008.645909671555273, 525840.965592179913074 ], [ 211110.355895135202445, 525843.508289033663459 ], [ 211218.404823106451659, 525837.637015725835226 ], [ 211296.249506906635361, 525819.684553740895353 ], [ 211334.764295361062977, 525820.535688077565283 ] ] } },
{ "type": "Feature", "properties": { "route_id": "034", "heat_score": 51.97, "heat_grade": "q2", "length": 85.442016233640715 }, "geometry": { "type": "LineString", "coordinates": [ [ 211338.025470890745055, 525905.753735146019608 ], [ 211334.764295361062977, 525820.535688077565283 ] ] } },
{ "type": "Feature", "properties": { "route_id": "034", "heat_score": 41.23, "heat_grade": "q1", "length": 96.128199078636769 }, "geometry": { "type": "LineString", "coordinates": [ [ 211337.798063990543596, 526001.699239777284674 ], [ 211338.025470890745055, 525905.753735146019608 ] ] } },
{ "type": "Feature", "properties": { "route_id": "034", "heat_score": 32.73, "heat_grade": "q1", "length": 187.82040793877459 }, "geometry": { "type": "LineString", "coordinates": [ [ 211337.798063990543596, 526001.699239777284674 ], [ 211337.675837321439758, 526006.882035276270472 ], [ 211338.3450377494446, 526042.79742190183606 ], [ 211339.937670254119439, 526142.829630081425421 ], [ 211335.329044550686376, 526188.915128727210686 ] ] } },
{ "type": "Feature", "properties": { "route_id": "034", "heat_score": 14.08, "heat_grade": "q1", "length": 72.181582596524933 }, "geometry": { "type": "LineString", "coordinates": [ [ 211340.531182775448542, 526260.773353319615126 ], [ 211335.329044550686376, 526188.915128727210686 ] ] } },
{ "type": "Feature", "properties": { "route_id": "034", "heat_score": 46.83, "heat_grade": "q1", "length": 357.42956747193887 }, "geometry": { "type": "LineString", "coordinates": [ [ 211340.531182775448542, 526260.773353319615126 ], [ 211340.769539924309356, 526307.242770511657 ], [ 211079.152175860304851, 526311.809066313435324 ], [ 211081.096668984973803, 526262.11290999117773 ] ] } },
{ "type": "Feature", "properties": { "route_id": "034", "heat_score": 9.26, "heat_grade": "q1", "length": 28.823883677532475 }, "geometry": { "type": "LineString", "coordinates": [ [ 211081.096668984973803, 526262.11290999117773 ], [ 211082.322214293206343, 526233.36962316359859 ] ] } },
{ "type": "Feature", "properties": { "route_id": "034", "heat_score": 5.04, "heat_grade": "q1", "length": 192.00109791507126 }, "geometry": { "type": "LineString", "coordinates": [ [ 211082.322214293206343, 526233.36962316359859 ], [ 211054.008335459831869, 526233.332191409426741 ], [ 210938.697975188784767, 526117.013589797890745 ] ] } },
{ "type": "Feature", "properties": { "route_id": "034", "heat_score": 20.75, "heat_grade": "q1", "length": 34.191254125498737 }, "geometry": { "type": "LineString", "coordinates": [ [ 210922.072630557318917, 526137.468465655576438 ], [ 210932.929246684507234, 526137.005403591901995 ], [ 210940.498134793248028, 526129.690334935788997 ], [ 210938.697975188784767, 526117.013589797890745 ] ] } },
{ "type": "Feature", "properties": { "route_id": "034", "heat_score": 15.91, "heat_grade": "q1", "length": 104.7388337798772 }, "geometry": { "type": "LineString", "coordinates": [ [ 210990.131772619992262, 526199.298031203332357 ], [ 210969.942995347257238, 526179.904812792316079 ], [ 210939.701150016859174, 526149.577658525668085 ], [ 210932.439211929944577, 526152.586942604044452 ], [ 210922.523220712610055, 526152.107866788981482 ], [ 210918.881433397618821, 526144.92244005354587 ], [ 210922.072630557318917, 526137.468465655576438 ] ] } },
{ "type": "Feature", "properties": { "route_id": "034", "heat_score": 25.99, "heat_grade": "q1", "length": 92.64914191929374 }, "geometry": { "type": "LineString", "coordinates": [ [ 211032.366112973715644, 526274.700752230011858 ], [ 211033.458443505660398, 526246.046070121228695 ], [ 211019.29513742189738, 526227.315480343764648 ], [ 210990.131772619992262, 526199.298031203332357 ] ] } },
{ "type": "Feature", "properties": { "route_id": "034", "heat_score": 27.07, "heat_grade": "q1", "length": 204.00467208614225 }, "geometry": { "type": "LineString", "coordinates": [ [ 210835.701557233987842, 526275.598139100475237 ], [ 210853.481337999633979, 526287.108034658245742 ], [ 211028.306609401362948, 526281.998164567514323 ], [ 211032.366112973715644, 526274.700752230011858 ] ] } },
{ "type": "Feature", "properties": { "route_id": "034", "heat_score": 3.8, "heat_grade": "q1", "length": 69.750031595512482 }, "geometry": { "type": "LineString", "coordinates": [ [ 210835.701557233987842, 526275.598139100475237 ], [ 210811.25603465421591, 526210.374421533546411 ] ] } },
{ "type": "Feature", "properties": { "route_id": "034", "heat_score": 3.62, "heat_grade": "q1", "length": 86.50829623155235 }, "geometry": { "type": "LineString", "coordinates": [ [ 210811.25603465421591, 526210.374421533546411 ], [ 210801.267539071472129, 526183.714226696989499 ], [ 210798.278109723090893, 526158.505863564787433 ], [ 210817.958733352686977, 526132.572071458329447 ] ] } },
{ "type": "Feature", "properties": { "route_id": "034", "heat_score": 15.63, "heat_grade": "q1", "length": 121.4649756445171 }, "geometry": { "type": "LineString", "coordinates": [ [ 210817.958733352686977, 526132.572071458329447 ], [ 210808.526269717345713, 526121.350487770629115 ], [ 210773.061623788235011, 526072.094400521717034 ], [ 210768.680592027900275, 526026.307800033828244 ] ] } },
{ "type": "Feature", "properties": { "route_id": "034", "heat_score": 13.3, "heat_grade": "q1", "length": 64.559678333161543 }, "geometry": { "type": "LineString", "coordinates": [ [ 210768.680592027900275, 526026.307800033828244 ], [ 210766.739340122672729, 526005.9730070726946 ], [ 210786.552702500019222, 525966.632432327372953 ] ] } },
{ "type": "Feature", "properties": { "route_id": "034", "heat_score": 46.49, "heat_grade": "q1", "length": 139.41368437777194 }, "geometry": { "type": "LineString", "coordinates": [ [ 210786.552702500019222, 525966.632432327372953 ], [ 210926.27747887710575, 525964.449640383129008 ] ] } },
{ "type": "Feature", "properties": { "route_id": "034", "heat_score": 25.5, "heat_grade": "q1", "length": 87.790869909424245 }, "geometry": { "type": "LineString", "coordinates": [ [ 210924.30914937457419, 525876.847288854653016 ], [ 210926.27747887710575, 525964.449640383129008 ] ] } },
{ "type": "Feature", "properties": { "route_id": "034", "heat_score": 30.8, "heat_grade": "q1", "length": 156.84869159074901 }, "geometry": { "type": "LineString", "coordinates": [ [ 210767.131257206754526, 525880.383860115893185 ], [ 210924.30914937457419, 525876.847288854653016 ] ] } }
]
}
