{
"type": "FeatureCollection",
"name": "035_edges",
"crs": { "type": "name", "properties": { "name": "urn:ogc:def:crs:EPSG::5186" } },
"features": [
{ "type": "Feature", "properties": { "route_id": "035", "heat_score": 42.37, "heat_grade": "q1", "length": 224.68264577290597 }, "geometry": { "type": "LineString", "coordinates": [ [ 210742.436214981717058, 525117.103648724267259 ], [ 210800.50715927692363, 525000.478669599280693 ], [ 210836.879074404307175, 524913.64739643863868 ] ] } },
{ "type": "Feature", "properties": { "route_id": "035", "heat_score": 37.94, "heat_grade": "q1", "length": 24.711463379113844 }, "geometry": { "type": "LineString", "coordinates": [ [ 210858.916593282920076, 524924.81872909120284 ], [ 210851.273545504838694, 524920.180791984079406 ], [ 210836.879074404307175, 524913.64739643863868 ] ] } },
{ "type": "Feature", "properties": { "route_id": "035", "heat_score": 52.36, "heat_grade": "q2", "length": 181.75659580559238 }, "geometry": { "type": "LineString", "coordinates": [ [ 211023.557659427431645, 525002.101080222055316 ], [ 210957.384301163256168, 524975.244908793829381 ], [ 210858.916593282920076, 524924.81872909120284 ] ] } },
{ "type": "Feature", "properties": { "route_id": "035", "heat_score": 35.21, "heat_grade": "q1", "length": 420.19280400742002 }, "geometry": { "type": "LineString", "coordinates": [ [ 211097.651380975323264, 525412.418096572626382 ], [ 211079.716704714432126, 525382.850391899119131 ], [ 211049.063500552554615, 525172.029006218304858 ], [ 211037.336584214412142, 525085.412717911181971 ], [ 211023.557659427431645, 525002.101080222055316 ] ] } },
{ "type": "Feature", "properties": { "route_id": "035", "heat_score": 52.81, "heat_grade": "q2", "length": 253.84369903936658 }, "geometry": { "type": "LineString", "coordinates": [ [ 211304.148354450240731, 525555.264448323985562 ], [ 211291.334957789513282, 525540.619457227294333 ], [ 211271.221245255175745, 525517.463275671005249 ], [ 211248.941116838162998, 525497.134327403502539 ], [ 211230.734574595349841, 525485.778415422071703 ], [ 211189.587788651871961, 525463.692994085722603 ], [ 211138.002640008606249, 525439.940223989542574 ], [ 211125.729790901590604, 525431.677793427254073 ], [ 211097.651380975323264, 525412.418096572626382 ] ] } },
{ "type": "Feature", "properties": { "route_id": "035", "heat_score": 53.31, "heat_grade": "q2", "length": 113.84027254886718 }, "geometry": { "type": "LineString", "coordinates": [ [ 211359.252829201577697, 525584.050603595911525 ], [ 211361.870080266497098, 525575.475083016324788 ], [ 211361.164138961292338, 525560.147220593411475 ], [ 211351.626076316111721, 525541.888499489286914 ], [ 211336.133432418224402, 525529.293014182127081 ], [ 211327.875186445569852, 525527.972226541955024 ], [ 211314.665712724963669, 525530.97313535772264 ], [ 211309.675804315687856, 525537.69203081051819 ], [ 211308.307346196466824, 525546.924059516284615 ], [ 211304.148354450240731, 525555.264448323985562 ] ] } },
{ "type": "Feature", "properties": { "route_id": "035", "heat_score": 50.63, "heat_grade": "q2", "length": 201.08902559136519 }, "geometry": { "type": "LineString", "coordinates": [ [ 211359.252829201577697, 525584.050603595911525 ], [ 211352.150829864578554, 525586.282851602416486 ], [ 211345.465572815941414, 525588.371390908258036 ], [ 211304.912274255708326, 525599.936580588924699 ], [ 211259.68262412364129, 525609.275995075004175 ], [ 211239.429300709452946, 525610.957941531552933 ], [ 211216.686905695940368, 525611.659942360129207 ], [ 211175.643366991600487, 525612.259871436865069 ], [ 211161.089305315399542, 525613.505679040681571 ] ] } },
{ "type": "Feature", "properties": { "route_id": "035", "heat_score": 52.32, "heat_grade": "q2", "length": 255.58077717319779 }, "geometry": { "type": "LineString", "coordinates": [ [ 210908.050735599856125, 525635.702008004300296 ], [ 210960.173241703567328, 525620.887100613908842 ], [ 211013.326595199730946, 525610.835090649197809 ], [ 211029.4756862570066, 525609.757603161851875 ], [ 211101.07558178412728, 525610.606908199028112 ], [ 211161.089305315399542, 525613.505679040681571 ] ] } },
{ "type": "Feature", "properties": { "route_id": "035", "heat_score": 58.37, "heat_grade": "q2", "length": 49.826212813718193 }, "geometry": { "type": "LineString", "coordinates": [ [ 210916.778578212397406, 525684.668467214680277 ], [ 210908.050735599856125, 525635.702008004300296 ] ] } },
{ "type": "Feature", "properties": { "route_id": "035", "heat_score": 56.76, "heat_grade": "q2", "length": 96.397785040379958 }, "geometry": { "type": "LineString", "coordinates": [ [ 210924.267476815904956, 525779.725025659310631 ], [ 210924.750375492061721, 525762.822774736443534 ], [ 210924.623543555266224, 525710.593486774014309 ], [ 210916.778578212397406, 525684.668467214680277 ] ] } },
{ "type": "Feature", "properties": { "route_id": "035", "heat_score": 58.7, "heat_grade": "q3", "length": 60.869376159629773 }, "geometry": { "type": "LineString", "coordinates": [ [ 210924.569296578731155, 525840.47812842798885 ], [ 210924.267476815904956, 525779.725025659310631 ] ] } },
{ "type": "Feature", "properties": { "route_id": "035", "heat_score": 62.74, "heat_grade": "q3", "length": 36.439246782464522 }, "geometry": { "type": "LineString", "coordinates": [ [ 210924.569296578731155, 525840.47812842798885 ], [ 210924.30914937457419, 525876.847288854653016 ] ] } },
{ "type": "Feature", "properties": { "route_id": "035", "heat_score": 30.8, "heat_grade": "q1", "length": 156.84869159074901 }, "geometry": { "type": "LineString", "coordinates": [ [ 210767.131257206754526, 525880.383860115893185 ], [ 210924.30914937457419, 525876.847288854653016 ] ] } },
{ "type": "Feature", "properties": { "route_id": "035", "heat_score": 43.82, "heat_grade": "q1", "length": 43.721906920075696 }, "geometry": { "type": "LineString", "coordinates": [ [ 210767.131257206754526, 525880.383860115893185 ], [ 210767.187373242195463, 525836.744974720641039 ] ] } },
{ "type": "Feature", "properties": { "route_id": "035", "heat_score": 40.25, "heat_grade": "q1", "length": 108.07854582972138 }, "geometry": { "type": "LineString", "coordinates": [ [ 210767.187373242195463, 525836.744974720641039 ], [ 210670.809808380407048, 525836.210955055546947 ], [ 210659.007541419588961, 525834.320290997158736 ] ] } },
{ "type": "Feature", "properties": { "route_id": "035", "heat_score": 54.39, "heat_grade": "q2", "length": 90.390464767665392 }, "geometry": { "type": "LineString", "coordinates": [ [ 210571.09379685431486, 525812.500347331864759 ], [ 210659.007541419588961, 525834.320290997158736 ] ] } },
{ "type": "Feature", "properties": { "route_id": "035", "heat_score": 63.73, "heat_grade": "q3", "length": 120.32350627094509 }, "geometry": { "type": "LineString", "coordinates": [ [ 210571.09379685431486, 525812.500347331864759 ], [ 210564.626543260383187, 525810.683144090697169 ], [ 210473.370671387878247, 525810.524109269143082 ], [ 210450.752880167070543, 525811.294934752047993 ] ] } },
{ "type": "Feature", "properties": { "route_id": "035", "heat_score": 71.08, "heat_grade": "q5", "length": 37.025423060242957 }, "geometry": { "type": "LineString", "coordinates": [ [ 210450.752880167070543, 525811.294934752047993 ], [ 210450.494590940594207, 525791.017817343003117 ], [ 210451.499096714891493, 525774.371456585358828 ] ] } },
{ "type": "Feature", "properties": { "route_id": "035", "heat_score": 33.42, "heat_grade": "q1", "length": 301.77118400622066 }, "geometry": { "type": "LineString", "coordinates": [ [ 210572.118876254739007, 525498.960515211569145 ], [ 210536.799371767818229, 525577.670288032502867 ], [ 210526.94665160292061, 525596.802647797507234 ], [ 210484.702167428506073, 525678.844567168504 ], [ 210476.810310257656965, 525696.370174325187691 ], [ 210471.280680572526762, 525710.080890414887108 ], [ 210464.55763069173554, 525728.484745764406398 ], [ 210459.540788862708723, 525743.217164633912034 ], [ 210451.499096714891493, 525774.371456585358828 ] ] } },
{ "type": "Feature", "properties": { "route_id": "035", "heat_score": 44.94, "heat_grade": "q1", "length": 410.0623892734576 }, "geometry": { "type": "LineString", "coordinates": [ [ 210572.118876254739007, 525498.960515211569145 ], [ 210582.723762578971218, 525452.871135694440454 ], [ 210590.76303847876261, 525431.261606952641159 ], [ 210605.60088398316293, 525395.066292545292526 ], [ 210618.192118830309482, 525369.356148315127939 ], [ 210656.8104244202259, 525290.528852832969278 ], [ 210675.862150522472803, 525251.642120408010669 ], [ 210710.233926301269094, 525181.466422050143592 ], [ 210738.108722114004195, 525125.799244579742663 ] ] } },
{ "type": "Feature", "properties": { "route_id": "035", "heat_score": 28.03, "heat_grade": "q1", "length": 9.7232479253900035 }, "geometry": { "type": "LineString", "coordinates": [ [ 210738.108722114004195, 525125.799244579742663 ], [ 210741.18328476822353, 525119.621378478594124 ], [ 210742.436214981717058, 525117.103648724267259 ] ] } }
]
}
