{
"type": "FeatureCollection",
"name": "036_edges",
"crs": { "type": "name", "properties": { "name": "urn:ogc:def:crs:EPSG::5186" } },
"features": [
{ "type": "Feature", "properties": { "route_id": "036", "heat_score": 41.28, "heat_grade": "q1", "length": 169.60728686121215 }, "geometry": { "type": "LineString", "coordinates": [ [ 207458.297471213998506, 524387.789824297069572 ], [ 207539.208416789217154, 524346.853757783537731 ], [ 207560.056113818980521, 524337.327944162068889 ], [ 207582.899109578342177, 524326.849528137361631 ], [ 207610.328689121175557, 524312.124662669608369 ] ] } },
{ "type": "Feature", "properties": { "route_id": "036", "heat_score": 65.56, "heat_grade": "q4", "length": 153.15138675843878 }, "geometry": { "type": "LineString", "coordinates": [ [ 207523.543314291106071, 524201.6285645844182 ], [ 207551.11433567549102, 524207.335736427456141 ], [ 207565.380358339636587, 524213.030973540386185 ], [ 207574.882087153469911, 524223.449832399375737 ], [ 207610.328689121175557, 524312.124662669608369 ] ] } },
{ "type": "Feature", "properties": { "route_id": "036", "heat_score": 62.54, "heat_grade": "q3", "length": 186.37593422970733 }, "geometry": { "type": "LineString", "coordinates": [ [ 207632.139923871582141, 524120.808568837819621 ], [ 207554.419191972847329, 524100.805453868117183 ], [ 207539.502718738920521, 524138.027049026684836 ], [ 207539.973291871428955, 524147.01715273631271 ], [ 207523.543314291106071, 524201.6285645844182 ] ] } },
{ "type": "Feature", "properties": { "route_id": "036", "heat_score": 72.02, "heat_grade": "q5", "length": 27.891800994726189 }, "geometry": { "type": "LineString", "coordinates": [ [ 207632.139923871582141, 524120.808568837819621 ], [ 207659.489473532070406, 524126.582484633487184 ] ] } },
{ "type": "Feature", "properties": { "route_id": "036", "heat_score": 71.94, "heat_grade": "q5", "length": 42.159521009547028 }, "geometry": { "type": "LineString", "coordinates": [ [ 207680.796782006626017, 524090.243730235553812 ], [ 207659.489473532070406, 524126.582484633487184 ] ] } },
{ "type": "Feature", "properties": { "route_id": "036", "heat_score": 71.46, "heat_grade": "q5", "length": 53.183108609741922 }, "geometry": { "type": "LineString", "coordinates": [ [ 207664.497108790907077, 524040.053073224262334 ], [ 207669.621878337988164, 524048.392638478777371 ], [ 207680.796782006626017, 524090.243730235553812 ] ] } },
{ "type": "Feature", "properties": { "route_id": "036", "heat_score": 62.59, "heat_grade": "q3", "length": 17.856104332656969 }, "geometry": { "type": "LineString", "coordinates": [ [ 207664.497108790907077, 524040.053073224262334 ], [ 207670.017331846989691, 524023.099816990201361 ] ] } },
{ "type": "Feature", "properties": { "route_id": "036", "heat_score": 67.55, "heat_grade": "q4", "length": 57.484159537092914 }, "geometry": { "type": "LineString", "coordinates": [ [ 207670.017331846989691, 524023.099816990201361 ], [ 207694.778506843897048, 523971.293140241759829 ] ] } },
{ "type": "Feature", "properties": { "route_id": "036", "heat_score": 77.66, "heat_grade": "q5", "length": 27.8499572206476 }, "geometry": { "type": "LineString", "coordinates": [ [ 207722.110886173235485, 523976.945160209550522 ], [ 207694.778506843897048, 523971.293140241759829 ] ] } },
{ "type": "Feature", "properties": { "route_id": "036", "heat_score": 73.18, "heat_grade": "q5", "length": 22.420910137828507 }, "geometry": { "type": "LineString", "coordinates": [ [ 207722.110886173235485, 523976.945160209550522 ], [ 207703.915645726956427, 523963.810138423868921 ] ] } },
{ "type": "Feature", "properties": { "route_id": "036", "heat_score": 72.23, "heat_grade": "q5", "length": 30.286420182425367 }, "geometry": { "type": "LineString", "coordinates": [ [ 207703.915645726956427, 523963.810138423868921 ], [ 207710.447593814402353, 523964.970377443241887 ], [ 207716.005016144830734, 523965.530412130756304 ], [ 207722.024794321856461, 523964.559301818720996 ], [ 207723.496630857087439, 523964.172215608530678 ], [ 207733.657650883484166, 523961.473586821521167 ] ] } },
{ "type": "Feature", "properties": { "route_id": "036", "heat_score": 77.69, "heat_grade": "q5", "length": 25.839444516738379 }, "geometry": { "type": "LineString", "coordinates": [ [ 207755.069028706522658, 523947.576024463400245 ], [ 207743.159360424557235, 523952.814537308178842 ], [ 207733.657650883484166, 523961.473586821521167 ] ] } },
{ "type": "Feature", "properties": { "route_id": "036", "heat_score": 72.69, "heat_grade": "q5", "length": 36.250100582792243 }, "geometry": { "type": "LineString", "coordinates": [ [ 207790.904309007310076, 523941.593955062853638 ], [ 207755.069028706522658, 523947.576024463400245 ] ] } },
{ "type": "Feature", "properties": { "route_id": "036", "heat_score": 72.11, "heat_grade": "q5", "length": 83.667217848112969 }, "geometry": { "type": "LineString", "coordinates": [ [ 207790.904309007310076, 523941.593955062853638 ], [ 207874.194141807442065, 523931.838664736715145 ] ] } },
{ "type": "Feature", "properties": { "route_id": "036", "heat_score": 65.04, "heat_grade": "q4", "length": 80.030080056458942 }, "geometry": { "type": "LineString", "coordinates": [ [ 207867.088673568796366, 523852.312186947034206 ], [ 207871.570732849300839, 523893.624519151053391 ], [ 207873.26058916002512, 523925.378537174488883 ], [ 207874.194141807442065, 523931.838664736715145 ] ] } },
{ "type": "Feature", "properties": { "route_id": "036", "heat_score": 50.28, "heat_grade": "q2", "length": 460.54786157608163 }, "geometry": { "type": "LineString", "coordinates": [ [ 207714.394195236265659, 523423.640227038180456 ], [ 207733.832226149505004, 523464.999533091438934 ], [ 207747.796921971719712, 523529.37182499730261 ], [ 207750.886426872923039, 523543.613879406242631 ], [ 207763.06467999832239, 523593.567780380195472 ], [ 207769.829348625353305, 523621.29775936040096 ], [ 207775.518003585457336, 523643.078023960930295 ], [ 207789.269104318838799, 523679.082787850755267 ], [ 207791.64622824898106, 523687.109114926075563 ], [ 207796.860027629969409, 523704.660478180099744 ], [ 207804.913676322379615, 523737.807692159840371 ], [ 207815.343835621868493, 523770.013771026802715 ], [ 207831.493264358781744, 523790.871580294391606 ], [ 207858.088513126160251, 523826.877383310347795 ], [ 207867.088673568796366, 523852.312186947034206 ] ] } },
{ "type": "Feature", "properties": { "route_id": "036", "heat_score": 62.22, "heat_grade": "q3", "length": 127.2221264690959 }, "geometry": { "type": "LineString", "coordinates": [ [ 207714.394195236265659, 523423.640227038180456 ], [ 207713.606761739472859, 523421.963649956334848 ], [ 207712.00533993501449, 523418.566078155301511 ], [ 207646.471773269819096, 523316.223557246674318 ] ] } },
{ "type": "Feature", "properties": { "route_id": "036", "heat_score": 59.48, "heat_grade": "q3", "length": 129.48392877619429 }, "geometry": { "type": "LineString", "coordinates": [ [ 207522.907239496766124, 523350.161479369795416 ], [ 207540.396532257640501, 523351.631082991953008 ], [ 207553.225323166174348, 523350.344128517666832 ], [ 207627.804686262039468, 523323.054231316433288 ], [ 207646.471773269819096, 523316.223557246674318 ] ] } },
{ "type": "Feature", "properties": { "route_id": "036", "heat_score": 51.41, "heat_grade": "q2", "length": 122.61301148898255 }, "geometry": { "type": "LineString", "coordinates": [ [ 207436.008406843757257, 523434.875370653229766 ], [ 207452.695214243722148, 523421.450082964845933 ], [ 207492.545042800047668, 523389.400265897624195 ], [ 207510.476864436554024, 523371.803224609582685 ], [ 207516.993308455537772, 523361.143546024162788 ], [ 207522.907239496766124, 523350.161479369795416 ] ] } },
{ "type": "Feature", "properties": { "route_id": "036", "heat_score": 47.28, "heat_grade": "q1", "length": 73.068981976486782 }, "geometry": { "type": "LineString", "coordinates": [ [ 207383.988435885723447, 523486.048295474844053 ], [ 207398.990482166904258, 523472.90997315524146 ], [ 207426.477268256508978, 523446.431407760363072 ], [ 207436.008406843757257, 523434.875370653229766 ] ] } },
{ "type": "Feature", "properties": { "route_id": "036", "heat_score": 73.75, "heat_grade": "q5", "length": 155.46211058571441 }, "geometry": { "type": "LineString", "coordinates": [ [ 207272.454562762082787, 523594.315138472942635 ], [ 207284.351142935163807, 523583.981800111010671 ], [ 207316.895444837224204, 523551.403172639198601 ], [ 207356.698362223891309, 523510.906813441950362 ], [ 207370.742403127922444, 523498.355812286201399 ], [ 207383.988435885723447, 523486.048295474844053 ] ] } },
{ "type": "Feature", "properties": { "route_id": "036", "heat_score": 70.56, "heat_grade": "q4", "length": 133.55653813298443 }, "geometry": { "type": "LineString", "coordinates": [ [ 207272.454562762082787, 523594.315138472942635 ], [ 207245.337735167704523, 523624.645663882547524 ], [ 207179.806698149885051, 523690.480227687279694 ] ] } },
{ "type": "Feature", "properties": { "route_id": "036", "heat_score": 71.8, "heat_grade": "q5", "length": 57.518544897430246 }, "geometry": { "type": "LineString", "coordinates": [ [ 207144.67284092947375, 523735.997874051565304 ], [ 207179.806698149885051, 523690.480227687279694 ] ] } },
{ "type": "Feature", "properties": { "route_id": "036", "heat_score": 76.18, "heat_grade": "q5", "length": 100.47517413986247 }, "geometry": { "type": "LineString", "coordinates": [ [ 207144.67284092947375, 523735.997874051565304 ], [ 207139.504354119679192, 523767.723687597783282 ], [ 207137.829955265071476, 523776.95609911927022 ], [ 207137.115716607455397, 523782.915311744669452 ], [ 207137.163675802585203, 523789.052747513807844 ], [ 207137.760591390717309, 523795.945339690428227 ], [ 207138.410182377323508, 523803.437288494722452 ], [ 207146.796084014698863, 523834.5198561581783 ] ] } },
{ "type": "Feature", "properties": { "route_id": "036", "heat_score": 77.35, "heat_grade": "q5", "length": 37.258050742887846 }, "geometry": { "type": "LineString", "coordinates": [ [ 207146.796084014698863, 523834.5198561581783 ], [ 207164.142288338305661, 523867.452419156674296 ] ] } },
{ "type": "Feature", "properties": { "route_id": "036", "heat_score": 56.95, "heat_grade": "q2", "length": 99.237808277441317 }, "geometry": { "type": "LineString", "coordinates": [ [ 207164.142288338305661, 523867.452419156674296 ], [ 207165.451348040369339, 523870.816343119135126 ], [ 207166.972687651636079, 523874.724268766934983 ], [ 207182.956569079193287, 523914.547792914963793 ], [ 207196.320953384623863, 523949.130671079852618 ], [ 207200.903793246659916, 523959.478286081808619 ] ] } },
{ "type": "Feature", "properties": { "route_id": "036", "heat_score": 60.8, "heat_grade": "q3", "length": 11.407869974804932 }, "geometry": { "type": "LineString", "coordinates": [ [ 207190.351465724874288, 523963.86417643429013 ], [ 207200.903793246659916, 523959.478286081808619 ] ] } },
{ "type": "Feature", "properties": { "route_id": "036", "heat_score": 49.7, "heat_grade": "q2", "length": 104.93927250892878 }, "geometry": { "type": "LineString", "coordinates": [ [ 207234.333940372744109, 524058.981752030667849 ], [ 207216.547730751364725, 524023.107586083817296 ], [ 207199.543429854908027, 523984.903475038008764 ], [ 207190.351465724874288, 523963.86417643429013 ] ] } },
{ "type": "Feature", "properties": { "route_id": "036", "heat_score": 29.85, "heat_grade": "q1", "length": 366.91226932745428 }, "geometry": { "type": "LineString", "coordinates": [ [ 207392.676621910970425, 524389.485201173578389 ], [ 207388.721516482386505, 524381.490882323938422 ], [ 207383.908141532941954, 524371.753364185336977 ], [ 207381.962103795871371, 524367.190217411145568 ], [ 207376.937122305098455, 524356.1540073370561 ], [ 207357.258478872478008, 524316.6264924837742 ], [ 207339.676283942739246, 524281.81767140206648 ], [ 207320.556479703955119, 524241.425064723996911 ], [ 207296.764029647340067, 524192.105343422445003 ], [ 207261.699761073454283, 524118.115339191805106 ], [ 207234.333940372744109, 524058.981752030667849 ] ] } },
{ "type": "Feature", "properties": { "route_id": "036", "heat_score": 68.85, "heat_grade": "q4", "length": 24.346445792214688 }, "geometry": { "type": "LineString", "coordinates": [ [ 207403.072258702333784, 524411.469163231202401 ], [ 207399.498162891133688, 524403.652749687549658 ], [ 207392.676621910970425, 524389.485201173578389 ] ] } },
{ "type": "Feature", "properties": { "route_id": "036", "heat_score": 77.48, "heat_grade": "q5", "length": 12.368843478303724 }, "geometry": { "type": "LineString", "coordinates": [ [ 207403.072258702333784, 524411.469163231202401 ], [ 207414.448935800493928, 524406.562644858029671 ] ] } },
{ "type": "Feature", "properties": { "route_id": "036", "heat_score": 63.97, "heat_grade": "q3", "length": 26.878159477464941 }, "geometry": { "type": "LineString", "coordinates": [ [ 207439.250465587305371, 524396.096668999292888 ], [ 207427.856356700009201, 524400.636891859816387 ], [ 207414.448935800493928, 524406.562644858029671 ] ] } },
{ "type": "Feature", "properties": { "route_id": "036", "heat_score": 28.63, "heat_grade": "q1", "length": 20.745024550195076 }, "geometry": { "type": "LineString", "coordinates": [ [ 207458.297471213998506, 524387.789824297069572 ], [ 207439.250465587305371, 524396.096668999292888 ] ] } }
]
}
