{
"type": "FeatureCollection",
"name": "037_edges",
"crs": { "type": "name", "properties": { "name": "urn:ogc:def:crs:EPSG::5186" } },
"features": [
{ "type": "Feature", "properties": { "route_id": "037", "heat_score": 37.35, "heat_grade": "q1", "length": 214.17820091917025 }, "geometry": { "type": "LineString", "coordinates": [ [ 208696.208032603026368, 525030.470031386706978 ], [ 208687.426105655351421, 525046.09854890871793 ], [ 208584.111122660775436, 525181.259207280236296 ], [ 208575.679936468077358, 525192.282371356035583 ], [ 208568.632538868667325, 525202.197120509110391 ] ] } },
{ "type": "Feature", "properties": { "route_id": "037", "heat_score": 40.42, "heat_grade": "q1", "length": 65.647050522055054 }, "geometry": { "type": "LineString", "coordinates": [ [ 208749.338056918786606, 525069.125566339702345 ], [ 208739.038144726539031, 525061.501316889072768 ], [ 208696.208032603026368, 525030.470031386706978 ] ] } },
{ "type": "Feature", "properties": { "route_id": "037", "heat_score": 66.74, "heat_grade": "q4", "length": 51.852777064167036 }, "geometry": { "type": "LineString", "coordinates": [ [ 208780.455792050430318, 525027.672348620486446 ], [ 208749.338056918786606, 525069.125566339702345 ] ] } },
{ "type": "Feature", "properties": { "route_id": "037", "heat_score": 73.37, "heat_grade": "q5", "length": 115.16947858481565 }, "geometry": { "type": "LineString", "coordinates": [ [ 208688.652009188255761, 524957.978610345860943 ], [ 208780.455792050430318, 525027.672348620486446 ] ] } },
{ "type": "Feature", "properties": { "route_id": "037", "heat_score": 76.49, "heat_grade": "q5", "length": 47.741302481374461 }, "geometry": { "type": "LineString", "coordinates": [ [ 208716.12448768565082, 524918.963024995988235 ], [ 208688.652009188255761, 524957.978610345860943 ] ] } },
{ "type": "Feature", "properties": { "route_id": "037", "heat_score": 77.37, "heat_grade": "q5", "length": 40.532364141679054 }, "geometry": { "type": "LineString", "coordinates": [ [ 208683.789867142069852, 524894.468592334771529 ], [ 208716.12448768565082, 524918.963024995988235 ] ] } },
{ "type": "Feature", "properties": { "route_id": "037", "heat_score": 72.13, "heat_grade": "q5", "length": 64.084531393742068 }, "geometry": { "type": "LineString", "coordinates": [ [ 208683.789867142069852, 524894.468592334771529 ], [ 208712.547905957791954, 524855.27675724576693 ], [ 208727.38983043335611, 524850.863952581188641 ] ] } },
{ "type": "Feature", "properties": { "route_id": "037", "heat_score": 70.37, "heat_grade": "q4", "length": 23.650616086099138 }, "geometry": { "type": "LineString", "coordinates": [ [ 208741.059595608123345, 524831.578112769522704 ], [ 208727.38983043335611, 524850.863952581188641 ] ] } },
{ "type": "Feature", "properties": { "route_id": "037", "heat_score": 74.93, "heat_grade": "q5", "length": 62.646434601559235 }, "geometry": { "type": "LineString", "coordinates": [ [ 208775.451302979199681, 524779.262986653018743 ], [ 208741.059595608123345, 524831.578112769522704 ] ] } },
{ "type": "Feature", "properties": { "route_id": "037", "heat_score": 78.11, "heat_grade": "q5", "length": 53.29308102346657 }, "geometry": { "type": "LineString", "coordinates": [ [ 208775.451302979199681, 524779.262986653018743 ], [ 208732.185739901324268, 524748.064602279686369 ] ] } },
{ "type": "Feature", "properties": { "route_id": "037", "heat_score": 78.75, "heat_grade": "q5", "length": 135.94679713953289 }, "geometry": { "type": "LineString", "coordinates": [ [ 208732.185739901324268, 524748.064602279686369 ], [ 208710.381308906013146, 524731.205649635056034 ], [ 208650.0329786297807, 524676.383684365311638 ], [ 208629.726989291229984, 524658.705211680731736 ] ] } },
{ "type": "Feature", "properties": { "route_id": "037", "heat_score": 78.75, "heat_grade": "q5", "length": 16.355518520966946 }, "geometry": { "type": "LineString", "coordinates": [ [ 208629.726989291229984, 524658.705211680731736 ], [ 208639.437338377698325, 524645.552538987831213 ] ] } },
{ "type": "Feature", "properties": { "route_id": "037", "heat_score": 71.95, "heat_grade": "q5", "length": 342.78027240307892 }, "geometry": { "type": "LineString", "coordinates": [ [ 208639.437338377698325, 524645.552538987831213 ], [ 208684.831420706235804, 524693.477907985448837 ], [ 208712.904957996943267, 524716.525111556053162 ], [ 208739.88962296867976, 524738.139582584728487 ], [ 208779.992738652421394, 524767.625539295724593 ], [ 208910.389252602180932, 524853.908916755462997 ] ] } },
{ "type": "Feature", "properties": { "route_id": "037", "heat_score": 77.23, "heat_grade": "q5", "length": 143.65648183607951 }, "geometry": { "type": "LineString", "coordinates": [ [ 209011.450424552807817, 524845.027342884452082 ], [ 208947.061481539625674, 524800.054241280537099 ], [ 208910.389252602180932, 524853.908916755462997 ] ] } },
{ "type": "Feature", "properties": { "route_id": "037", "heat_score": 75.13, "heat_grade": "q5", "length": 41.305450328696026 }, "geometry": { "type": "LineString", "coordinates": [ [ 209045.345122496917611, 524868.703444728278555 ], [ 209011.450424552807817, 524845.027342884452082 ] ] } },
{ "type": "Feature", "properties": { "route_id": "037", "heat_score": 75.59, "heat_grade": "q5", "length": 47.877295245612807 }, "geometry": { "type": "LineString", "coordinates": [ [ 209045.345122496917611, 524868.703444728278555 ], [ 209071.304066438315203, 524886.832990644266829 ], [ 209079.384883316117339, 524889.205703199026175 ], [ 209087.05872808949789, 524890.889881919370964 ] ] } },
{ "type": "Feature", "properties": { "route_id": "037", "heat_score": 75.16, "heat_grade": "q5", "length": 78.827374961116163 }, "geometry": { "type": "LineString", "coordinates": [ [ 209087.05872808949789, 524890.889881919370964 ], [ 209090.286911023868015, 524905.454471200238913 ], [ 209081.523483206430683, 524968.616998302051798 ] ] } },
{ "type": "Feature", "properties": { "route_id": "037", "heat_score": 65.59, "heat_grade": "q4", "length": 26.622043894531419 }, "geometry": { "type": "LineString", "coordinates": [ [ 209081.523483206430683, 524968.616998302051798 ], [ 209106.543336701783119, 524977.855828386731446 ] ] } },
{ "type": "Feature", "properties": { "route_id": "037", "heat_score": 77.38, "heat_grade": "q5", "length": 12.820630429565965 }, "geometry": { "type": "LineString", "coordinates": [ [ 209106.543336701783119, 524977.855828386731446 ], [ 209102.213831265864428, 524989.903974174521863 ] ] } },
{ "type": "Feature", "properties": { "route_id": "037", "heat_score": 77.79, "heat_grade": "q5", "length": 21.470386922145494 }, "geometry": { "type": "LineString", "coordinates": [ [ 209122.191795236285543, 524997.872157149831764 ], [ 209102.213831265864428, 524989.903974174521863 ] ] } },
{ "type": "Feature", "properties": { "route_id": "037", "heat_score": 75.83, "heat_grade": "q5", "length": 24.211338848269072 }, "geometry": { "type": "LineString", "coordinates": [ [ 209143.912711866811151, 525008.650183608056977 ], [ 209122.191795236285543, 524997.872157149831764 ] ] } },
{ "type": "Feature", "properties": { "route_id": "037", "heat_score": 75.95, "heat_grade": "q5", "length": 13.225364598474965 }, "geometry": { "type": "LineString", "coordinates": [ [ 209143.912711866811151, 525008.650183608056977 ], [ 209144.2351071643061, 525021.846522687934339 ] ] } },
{ "type": "Feature", "properties": { "route_id": "037", "heat_score": 73.38, "heat_grade": "q5", "length": 37.356644296222242 }, "geometry": { "type": "LineString", "coordinates": [ [ 209121.560690445068758, 525023.95268866349943 ], [ 209123.993199691059999, 525020.292869138997048 ], [ 209124.770103110873606, 525014.966487773344852 ], [ 209125.907243492460111, 525012.537179085193202 ], [ 209127.983100092213135, 525010.830288984114304 ], [ 209130.784786171308951, 525010.000963546335697 ], [ 209134.046259092807304, 525010.182094049174339 ], [ 209137.669440990837757, 525011.906296799890697 ], [ 209139.873997432179749, 525014.095085327746347 ], [ 209141.28972633779631, 525016.283013451495208 ], [ 209144.2351071643061, 525021.846522687934339 ] ] } },
{ "type": "Feature", "properties": { "route_id": "037", "heat_score": 71.73, "heat_grade": "q5", "length": 5.4378997216453167 }, "geometry": { "type": "LineString", "coordinates": [ [ 209121.560690445068758, 525023.95268866349943 ], [ 209121.637506766244769, 525018.525659035774879 ] ] } },
{ "type": "Feature", "properties": { "route_id": "037", "heat_score": 72.32, "heat_grade": "q5", "length": 40.818004592477138 }, "geometry": { "type": "LineString", "coordinates": [ [ 209121.637506766244769, 525018.525659035774879 ], [ 209118.477543769491604, 525014.659978028619662 ], [ 209116.04555807786528, 525009.696349856443703 ], [ 209112.603306181932567, 525004.598442503251135 ], [ 209109.275113358336966, 525000.566106183105148 ], [ 209095.764172659080941, 524987.333239167928696 ] ] } },
{ "type": "Feature", "properties": { "route_id": "037", "heat_score": 72.23, "heat_grade": "q5", "length": 19.743231959396709 }, "geometry": { "type": "LineString", "coordinates": [ [ 209095.764172659080941, 524987.333239167928696 ], [ 209086.524115181586239, 524983.34998582303524 ], [ 209077.576319893763866, 524979.566830502124503 ] ] } },
{ "type": "Feature", "properties": { "route_id": "037", "heat_score": 68.75, "heat_grade": "q4", "length": 80.929075065359768 }, "geometry": { "type": "LineString", "coordinates": [ [ 209077.576319893763866, 524979.566830502124503 ], [ 209057.050931894249516, 524969.578255443950184 ], [ 209019.008225369383581, 524946.297175641055219 ], [ 209006.907652590685757, 524940.069056204054505 ] ] } },
{ "type": "Feature", "properties": { "route_id": "037", "heat_score": 69.94, "heat_grade": "q4", "length": 128.98375353135845 }, "geometry": { "type": "LineString", "coordinates": [ [ 209006.907652590685757, 524940.069056204054505 ], [ 208991.387708683992969, 524932.083737426088192 ], [ 208968.608896339545026, 524915.611502609332092 ], [ 208931.316303647123277, 524886.627056157798506 ], [ 208902.249858628521906, 524864.876567210187204 ] ] } },
{ "type": "Feature", "properties": { "route_id": "037", "heat_score": 63.16, "heat_grade": "q3", "length": 59.037082229524287 }, "geometry": { "type": "LineString", "coordinates": [ [ 208902.249858628521906, 524864.876567210187204 ], [ 208867.091803228307981, 524912.273783384822309 ] ] } },
{ "type": "Feature", "properties": { "route_id": "037", "heat_score": 72.98, "heat_grade": "q5", "length": 49.113798947644128 }, "geometry": { "type": "LineString", "coordinates": [ [ 208867.091803228307981, 524912.273783384822309 ], [ 208837.925207072432386, 524951.764318141969852 ] ] } },
{ "type": "Feature", "properties": { "route_id": "037", "heat_score": 73.98, "heat_grade": "q5", "length": 127.32676414290825 }, "geometry": { "type": "LineString", "coordinates": [ [ 208837.925207072432386, 524951.764318141969852 ], [ 208940.90747174367425, 525026.832143689040095 ] ] } },
{ "type": "Feature", "properties": { "route_id": "037", "heat_score": 75.75, "heat_grade": "q5", "length": 45.535677416977052 }, "geometry": { "type": "LineString", "coordinates": [ [ 208940.90747174367425, 525026.832143689040095 ], [ 208968.466552657017019, 524990.603167570428923 ] ] } },
{ "type": "Feature", "properties": { "route_id": "037", "heat_score": 73.42, "heat_grade": "q5", "length": 54.083705674014759 }, "geometry": { "type": "LineString", "coordinates": [ [ 209011.861688982928172, 525022.957162206294015 ], [ 208968.466552657017019, 524990.603167570428923 ] ] } },
{ "type": "Feature", "properties": { "route_id": "037", "heat_score": 75.59, "heat_grade": "q5", "length": 56.78951127175619 }, "geometry": { "type": "LineString", "coordinates": [ [ 209063.233084807900013, 525047.373563574394211 ], [ 209011.861688982928172, 525022.957162206294015 ] ] } },
{ "type": "Feature", "properties": { "route_id": "037", "heat_score": 65.13, "heat_grade": "q4", "length": 65.49962512731787 }, "geometry": { "type": "LineString", "coordinates": [ [ 209063.233084807900013, 525047.373563574394211 ], [ 209049.736212885793066, 525111.352296638768166 ] ] } },
{ "type": "Feature", "properties": { "route_id": "037", "heat_score": 70.15, "heat_grade": "q4", "length": 54.913565474294359 }, "geometry": { "type": "LineString", "coordinates": [ [ 209037.252506875724066, 525164.73318465158809 ], [ 209049.736212885793066, 525111.352296638768166 ] ] } },
{ "type": "Feature", "properties": { "route_id": "037", "heat_score": 74.09, "heat_grade": "q5", "length": 106.31180620347659 }, "geometry": { "type": "LineString", "coordinates": [ [ 208955.03994481349946, 525097.222141073551029 ], [ 209037.252506875724066, 525164.73318465158809 ] ] } },
{ "type": "Feature", "properties": { "route_id": "037", "heat_score": 78.91, "heat_grade": "q5", "length": 53.82425599172835 }, "geometry": { "type": "LineString", "coordinates": [ [ 208955.03994481349946, 525097.222141073551029 ], [ 208912.665196509362431, 525063.9705528159393 ] ] } },
{ "type": "Feature", "properties": { "route_id": "037", "heat_score": 75.52, "heat_grade": "q5", "length": 51.601608047933659 }, "geometry": { "type": "LineString", "coordinates": [ [ 208912.665196509362431, 525063.9705528159393 ], [ 208881.432142855395796, 525105.023618716746569 ] ] } },
{ "type": "Feature", "properties": { "route_id": "037", "heat_score": 66.4, "heat_grade": "q4", "length": 52.167817842224714 }, "geometry": { "type": "LineString", "coordinates": [ [ 208881.432142855395796, 525105.023618716746569 ], [ 208849.862117065495113, 525146.531480784993619 ] ] } },
{ "type": "Feature", "properties": { "route_id": "037", "heat_score": 68.63, "heat_grade": "q4", "length": 47.124729822835469 }, "geometry": { "type": "LineString", "coordinates": [ [ 208821.19496487849392, 525183.91391850670334 ], [ 208849.862117065495113, 525146.531480784993619 ] ] } },
{ "type": "Feature", "properties": { "route_id": "037", "heat_score": 73.71, "heat_grade": "q5", "length": 60.302865723051319 }, "geometry": { "type": "LineString", "coordinates": [ [ 208807.820933535025688, 525242.610342732979916 ], [ 208821.19496487849392, 525183.91391850670334 ] ] } },
{ "type": "Feature", "properties": { "route_id": "037", "heat_score": 23.58, "heat_grade": "q1", "length": 258.59857673383453 }, "geometry": { "type": "LineString", "coordinates": [ [ 208555.611656429537106, 525220.618238102528267 ], [ 208562.368781361496076, 525225.852486642776057 ], [ 208584.199830409052083, 525241.712241389672272 ], [ 208807.820933535025688, 525242.610342732979916 ] ] } },
{ "type": "Feature", "properties": { "route_id": "037", "heat_score": 34.34, "heat_grade": "q1", "length": 22.569631562029649 }, "geometry": { "type": "LineString", "coordinates": [ [ 208555.611656429537106, 525220.618238102528267 ], [ 208560.067393970442936, 525214.252313966746442 ], [ 208568.632538868667325, 525202.197120509110391 ] ] } }
]
}
