{
"type": "FeatureCollection",
"name": "038_edges",
"crs": { "type": "name", "properties": { "name": "urn:ogc:def:crs:EPSG::5186" } },
"features": [
{ "type": "Feature", "properties": { "route_id": "038", "heat_score": 44.94, "heat_grade": "q1", "length": 410.0623892734576 }, "geometry": { "type": "LineString", "coordinates": [ [ 210572.118876254739007, 525498.960515211569145 ], [ 210582.723762578971218, 525452.871135694440454 ], [ 210590.76303847876261, 525431.261606952641159 ], [ 210605.60088398316293, 525395.066292545292526 ], [ 210618.192118830309482, 525369.356148315127939 ], [ 210656.8104244202259, 525290.528852832969278 ], [ 210675.862150522472803, 525251.642120408010669 ], [ 210710.233926301269094, 525181.466422050143592 ], [ 210738.108722114004195, 525125.799244579742663 ] ] } },
{ "type": "Feature", "properties": { "route_id": "038", "heat_score": 42.98, "heat_grade": "q1", "length": 406.84924398104954 }, "geometry": { "type": "LineString", "coordinates": [ [ 210755.298312923347112, 525136.486864144098945 ], [ 210725.940056043415098, 525194.69361937395297 ], [ 210674.986760545551078, 525298.709327792748809 ], [ 210663.722120093210833, 525319.47118626977317 ], [ 210638.120940482825972, 525372.311418816563673 ], [ 210622.756847665237729, 525404.011153764324263 ], [ 210603.782019679725636, 525445.628318913397379 ], [ 210591.121598856261699, 525470.106476800516248 ], [ 210572.118876254739007, 525498.960515211569145 ] ] } },
{ "type": "Feature", "properties": { "route_id": "038", "heat_score": 43.83, "heat_grade": "q1", "length": 670.95325412828743 }, "geometry": { "type": "LineString", "coordinates": [ [ 211395.466842452005949, 525296.540047490270808 ], [ 211331.20744398565148, 525298.805717759416439 ], [ 211268.30832018746878, 525297.943960851873271 ], [ 211227.744991688261507, 525296.191424164222553 ], [ 211174.211073925427627, 525290.859179563005455 ], [ 211137.011526806425536, 525285.515688435640186 ], [ 211096.990301143669058, 525275.906836210051551 ], [ 211038.963638749031816, 525263.100279499776661 ], [ 211003.14921903598588, 525255.694906814373098 ], [ 210940.412789740599692, 525231.795543515589088 ], [ 210871.372262267599581, 525202.705513019114733 ], [ 210813.984984462003922, 525174.552260765223764 ], [ 210771.142013049597153, 525146.129538631299511 ], [ 210755.298312923347112, 525136.486864144098945 ] ] } },
{ "type": "Feature", "properties": { "route_id": "038", "heat_score": 62.72, "heat_grade": "q3", "length": 205.79976571932329 }, "geometry": { "type": "LineString", "coordinates": [ [ 211601.516703800007235, 525306.334290685248561 ], [ 211395.466842452005949, 525296.540047490270808 ] ] } },
{ "type": "Feature", "properties": { "route_id": "038", "heat_score": 62.37, "heat_grade": "q3", "length": 17.118044318319278 }, "geometry": { "type": "LineString", "coordinates": [ [ 211605.632707613054663, 525322.921014032908715 ], [ 211601.516703800007235, 525306.334290685248561 ] ] } },
{ "type": "Feature", "properties": { "route_id": "038", "heat_score": 65.67, "heat_grade": "q4", "length": 48.757841571847138 }, "geometry": { "type": "LineString", "coordinates": [ [ 211605.632707613054663, 525322.921014032908715 ], [ 211616.069204102619551, 525319.4283868575003 ], [ 211621.61996855889447, 525317.571555501199327 ], [ 211632.831897393421968, 525317.331858669524081 ], [ 211653.532986770209391, 525319.269565405906178 ] ] } },
{ "type": "Feature", "properties": { "route_id": "038", "heat_score": 42.92, "heat_grade": "q1", "length": 56.512670055170787 }, "geometry": { "type": "LineString", "coordinates": [ [ 211653.532986770209391, 525319.269565405906178 ], [ 211655.564714354462922, 525305.010939335683361 ], [ 211655.869050238281488, 525302.858271894743666 ], [ 211659.026355377282016, 525263.152566809440032 ] ] } },
{ "type": "Feature", "properties": { "route_id": "038", "heat_score": 58.28, "heat_grade": "q2", "length": 245.59763534835608 }, "geometry": { "type": "LineString", "coordinates": [ [ 211414.445440982352011, 525281.305585301946849 ], [ 211529.324301491957158, 525270.47552719770465 ], [ 211580.343294366379268, 525261.367537424899638 ], [ 211604.560141336085508, 525259.070393383037299 ], [ 211626.919572055106983, 525260.422116113360971 ], [ 211659.026355377282016, 525263.152566809440032 ] ] } },
{ "type": "Feature", "properties": { "route_id": "038", "heat_score": 39.79, "heat_grade": "q1", "length": 683.07642429187786 }, "geometry": { "type": "LineString", "coordinates": [ [ 210758.444102844048757, 525130.064930918859318 ], [ 210761.489929229544941, 525132.466098467237316 ], [ 210766.936582736612763, 525135.702733280835673 ], [ 210772.392095131566748, 525138.939383061835542 ], [ 210774.641864003002411, 525140.074313936987892 ], [ 210825.686542448500404, 525165.91062547499314 ], [ 210909.949435910501052, 525205.496983680990525 ], [ 210988.098064244928537, 525236.807860273169354 ], [ 211036.365650715160882, 525250.51126590766944 ], [ 211084.078958728961879, 525261.006778272567317 ], [ 211097.378413226135308, 525263.932172603206709 ], [ 211150.342912644991884, 525271.072206780081615 ], [ 211200.932973946910352, 525277.521299161016941 ], [ 211261.74422565830173, 525282.275281673762947 ], [ 211332.698153209610609, 525284.424201378948055 ], [ 211394.458509263000451, 525282.01086239668075 ], [ 211414.445440982352011, 525281.305585301946849 ] ] } },
{ "type": "Feature", "properties": { "route_id": "038", "heat_score": 28.87, "heat_grade": "q1", "length": 20.583494913457116 }, "geometry": { "type": "LineString", "coordinates": [ [ 210742.436214981717058, 525117.103648724267259 ], [ 210758.444102844048757, 525130.064930918859318 ] ] } },
{ "type": "Feature", "properties": { "route_id": "038", "heat_score": 28.03, "heat_grade": "q1", "length": 9.7232479253900035 }, "geometry": { "type": "LineString", "coordinates": [ [ 210738.108722114004195, 525125.799244579742663 ], [ 210741.18328476822353, 525119.621378478594124 ], [ 210742.436214981717058, 525117.103648724267259 ] ] } }
]
}
