{
"type": "FeatureCollection",
"name": "039_edges",
"crs": { "type": "name", "properties": { "name": "urn:ogc:def:crs:EPSG::5186" } },
"features": [
{ "type": "Feature", "properties": { "route_id": "039", "heat_score": 40.09, "heat_grade": "q1", "length": 171.40670498924317 }, "geometry": { "type": "LineString", "coordinates": [ [ 208491.958848752547055, 526495.105149562470615 ], [ 208534.698638473520987, 526495.104220353532583 ], [ 208537.906556284346152, 526495.10749146528542 ], [ 208555.647605120466324, 526495.103407371789217 ], [ 208569.223666515026707, 526495.106194840045646 ], [ 208663.768936630804092, 526494.903851100127213 ] ] } },
{ "type": "Feature", "properties": { "route_id": "039", "heat_score": 44.19, "heat_grade": "q1", "length": 126.90696414359653 }, "geometry": { "type": "LineString", "coordinates": [ [ 208663.699875559279462, 526621.56999548652675 ], [ 208663.768936630804092, 526494.903851100127213 ] ] } },
{ "type": "Feature", "properties": { "route_id": "039", "heat_score": 66.05, "heat_grade": "q4", "length": 30.801597707106612 }, "geometry": { "type": "LineString", "coordinates": [ [ 208663.699875559279462, 526621.56999548652675 ], [ 208663.481966920633567, 526652.312384532066062 ] ] } },
{ "type": "Feature", "properties": { "route_id": "039", "heat_score": 68.44, "heat_grade": "q4", "length": 36.003915033382739 }, "geometry": { "type": "LineString", "coordinates": [ [ 208627.62417682557134, 526656.370666373171844 ], [ 208663.481966920633567, 526652.312384532066062 ] ] } },
{ "type": "Feature", "properties": { "route_id": "039", "heat_score": 59.64, "heat_grade": "q3", "length": 11.652974526598179 }, "geometry": { "type": "LineString", "coordinates": [ [ 208616.023093299561879, 526657.723822901956737 ], [ 208627.62417682557134, 526656.370666373171844 ] ] } },
{ "type": "Feature", "properties": { "route_id": "039", "heat_score": 52.83, "heat_grade": "q2", "length": 135.52295223500232 }, "geometry": { "type": "LineString", "coordinates": [ [ 208616.023093299561879, 526657.723822901956737 ], [ 208600.579725478950422, 526664.200515583273955 ], [ 208581.533711414958816, 526675.468058880069293 ], [ 208569.056320254865568, 526684.555978921009228 ], [ 208562.23625654031639, 526690.03161831246689 ], [ 208555.894730817351956, 526695.496653965325095 ], [ 208548.592642312898533, 526704.423419690341689 ], [ 208543.835179013432935, 526711.998781749163754 ], [ 208536.091608663613442, 526728.083587428904139 ], [ 208524.309151872526854, 526751.023109042085707 ] ] } },
{ "type": "Feature", "properties": { "route_id": "039", "heat_score": 65.31, "heat_grade": "q4", "length": 109.26630965261704 }, "geometry": { "type": "LineString", "coordinates": [ [ 208421.803490062127821, 526712.91836823313497 ], [ 208426.887431628012564, 526715.420628578751348 ], [ 208517.950136542523978, 526747.620519781252369 ], [ 208524.309151872526854, 526751.023109042085707 ] ] } },
{ "type": "Feature", "properties": { "route_id": "039", "heat_score": 71.38, "heat_grade": "q5", "length": 129.13257290860739 }, "geometry": { "type": "LineString", "coordinates": [ [ 208421.803490062127821, 526712.91836823313497 ], [ 208394.12187352636829, 526684.922553189098835 ], [ 208392.218386369291693, 526683.200390057405457 ], [ 208331.916831543872831, 526620.189937266986817 ] ] } },
{ "type": "Feature", "properties": { "route_id": "039", "heat_score": 48.02, "heat_grade": "q1", "length": 144.81239669498521 }, "geometry": { "type": "LineString", "coordinates": [ [ 208363.606569596886402, 526495.098015221301466 ], [ 208364.34738582643331, 526551.87824035785161 ], [ 208364.932053991477005, 526596.416762576904148 ], [ 208364.447386997693684, 526602.564800238586031 ], [ 208356.359516164840898, 526608.716343112755567 ], [ 208342.57323255969095, 526615.328346312046051 ], [ 208331.916831543872831, 526620.189937266986817 ] ] } },
{ "type": "Feature", "properties": { "route_id": "039", "heat_score": 43.73, "heat_grade": "q1", "length": 162.72456071149361 }, "geometry": { "type": "LineString", "coordinates": [ [ 208363.606569596886402, 526495.098015221301466 ], [ 208303.019395108014578, 526495.104294113698415 ], [ 208249.264565656369086, 526495.106642967322841 ], [ 208200.498857434547972, 526495.103124368586577 ] ] } },
{ "type": "Feature", "properties": { "route_id": "039", "heat_score": 72.47, "heat_grade": "q5", "length": 118.1949524445636 }, "geometry": { "type": "LineString", "coordinates": [ [ 208150.182942641928094, 526421.682385526713915 ], [ 208150.589931134949438, 526486.0646689402638 ], [ 208154.864577655360335, 526491.751219102414325 ], [ 208159.620062343979953, 526495.063179874559864 ], [ 208200.498857434547972, 526495.103124368586577 ] ] } },
{ "type": "Feature", "properties": { "route_id": "039", "heat_score": 82.0, "heat_grade": "q5", "length": 60.951067913663955 }, "geometry": { "type": "LineString", "coordinates": [ [ 208150.182942641928094, 526421.682385526713915 ], [ 208089.090637374669313, 526421.156998610473238 ] ] } },
{ "type": "Feature", "properties": { "route_id": "039", "heat_score": 51.43, "heat_grade": "q2", "length": 41.876069464275318 }, "geometry": { "type": "LineString", "coordinates": [ [ 208089.122161566570867, 526379.360414247727022 ], [ 208089.090637374669313, 526421.156998610473238 ] ] } },
{ "type": "Feature", "properties": { "route_id": "039", "heat_score": 60.67, "heat_grade": "q3", "length": 8.4063483292604388 }, "geometry": { "type": "LineString", "coordinates": [ [ 208089.122161566570867, 526379.360414247727022 ], [ 208089.130268735141726, 526370.970023888163269 ] ] } },
{ "type": "Feature", "properties": { "route_id": "039", "heat_score": 71.1, "heat_grade": "q5", "length": 114.79789126728578 }, "geometry": { "type": "LineString", "coordinates": [ [ 208089.130268735141726, 526370.970023888163269 ], [ 208204.184634066041326, 526369.195255242404528 ] ] } },
{ "type": "Feature", "properties": { "route_id": "039", "heat_score": 57.86, "heat_grade": "q2", "length": 50.64398582287432 }, "geometry": { "type": "LineString", "coordinates": [ [ 208190.956992540624924, 526320.826529747573659 ], [ 208197.563731783884577, 526334.162186594796367 ], [ 208201.349688030575635, 526350.258589304401539 ], [ 208204.184634066041326, 526369.195255242404528 ] ] } },
{ "type": "Feature", "properties": { "route_id": "039", "heat_score": 53.75, "heat_grade": "q2", "length": 34.21490316371419 }, "geometry": { "type": "LineString", "coordinates": [ [ 208182.402187832747586, 526287.756002475041896 ], [ 208190.956992540624924, 526320.826529747573659 ] ] } },
{ "type": "Feature", "properties": { "route_id": "039", "heat_score": 76.83, "heat_grade": "q5", "length": 21.112590772218482 }, "geometry": { "type": "LineString", "coordinates": [ [ 208182.402187832747586, 526287.756002475041896 ], [ 208161.239965942455456, 526287.813035009428859 ] ] } },
{ "type": "Feature", "properties": { "route_id": "039", "heat_score": 78.95, "heat_grade": "q5", "length": 37.550579774445289 }, "geometry": { "type": "LineString", "coordinates": [ [ 208161.276501766085858, 526250.333744234754704 ], [ 208161.239965942455456, 526287.813035009428859 ] ] } },
{ "type": "Feature", "properties": { "route_id": "039", "heat_score": 77.22, "heat_grade": "q5", "length": 73.292705990622608 }, "geometry": { "type": "LineString", "coordinates": [ [ 208087.811248043959495, 526250.284647748572752 ], [ 208161.276501766085858, 526250.333744234754704 ] ] } },
{ "type": "Feature", "properties": { "route_id": "039", "heat_score": 70.63, "heat_grade": "q4", "length": 37.480636570514882 }, "geometry": { "type": "LineString", "coordinates": [ [ 208087.076390058646211, 526212.882303357706405 ], [ 208087.811248043959495, 526250.284647748572752 ] ] } },
{ "type": "Feature", "properties": { "route_id": "039", "heat_score": 68.47, "heat_grade": "q4", "length": 33.392978835547119 }, "geometry": { "type": "LineString", "coordinates": [ [ 208087.076390058646211, 526212.882303357706405 ], [ 208053.604796760919271, 526212.861136835068464 ] ] } },
{ "type": "Feature", "properties": { "route_id": "039", "heat_score": 68.64, "heat_grade": "q4", "length": 108.61739642827929 }, "geometry": { "type": "LineString", "coordinates": [ [ 208088.528396567620803, 526287.664780429098755 ], [ 208055.233901819679886, 526288.098812471260317 ], [ 208053.604796760919271, 526212.861136835068464 ] ] } },
{ "type": "Feature", "properties": { "route_id": "039", "heat_score": 62.49, "heat_grade": "q3", "length": 33.976918603374585 }, "geometry": { "type": "LineString", "coordinates": [ [ 208088.528396567620803, 526287.664780429098755 ], [ 208089.177999939827714, 526321.571047905017622 ] ] } },
{ "type": "Feature", "properties": { "route_id": "039", "heat_score": 49.57, "heat_grade": "q2", "length": 140.07563747609368 }, "geometry": { "type": "LineString", "coordinates": [ [ 208089.177999939827714, 526321.571047905017622 ], [ 208067.324545466544805, 526321.727535429992713 ], [ 208048.874559014104307, 526321.343529412988573 ], [ 208043.40817200881429, 526319.917679324978963 ], [ 208036.755213183932938, 526317.536230468656868 ], [ 208027.730448566231644, 526311.845186377875507 ], [ 208021.319683646404883, 526306.400821219896898 ], [ 207984.044419554586057, 526262.337803744943812 ], [ 207977.183873147179838, 526254.540181568125263 ] ] } },
{ "type": "Feature", "properties": { "route_id": "039", "heat_score": 49.3, "heat_grade": "q2", "length": 62.880780222790179 }, "geometry": { "type": "LineString", "coordinates": [ [ 207977.183873147179838, 526254.540181568125263 ], [ 208015.421696675912244, 526228.162492721225135 ], [ 208019.635856351989787, 526223.216638635029085 ], [ 208019.175698536186246, 526213.272024827427231 ] ] } },
{ "type": "Feature", "properties": { "route_id": "039", "heat_score": 38.66, "heat_grade": "q1", "length": 125.16710455841091 }, "geometry": { "type": "LineString", "coordinates": [ [ 208019.175698536186246, 526213.272024827427231 ], [ 208018.218347315327264, 526121.010054349433631 ], [ 208051.017229576187674, 526120.57539688271936 ] ] } },
{ "type": "Feature", "properties": { "route_id": "039", "heat_score": 31.39, "heat_grade": "q1", "length": 34.244711293644869 }, "geometry": { "type": "LineString", "coordinates": [ [ 208085.339530324388761, 526121.030211420962587 ], [ 208051.017229576187674, 526120.57539688271936 ] ] } },
{ "type": "Feature", "properties": { "route_id": "039", "heat_score": 52.33, "heat_grade": "q2", "length": 119.86784605995976 }, "geometry": { "type": "LineString", "coordinates": [ [ 208085.339530324388761, 526121.030211420962587 ], [ 208110.542728476051707, 526121.531819854862988 ], [ 208116.713613849977264, 526127.686317017301917 ], [ 208120.509454523504246, 526133.849613283178769 ], [ 208122.808243647217751, 526212.42856480460614 ] ] } },
{ "type": "Feature", "properties": { "route_id": "039", "heat_score": 65.82, "heat_grade": "q4", "length": 37.949176311483214 }, "geometry": { "type": "LineString", "coordinates": [ [ 208122.808243647217751, 526212.42856480460614 ], [ 208160.843267436517635, 526212.942784941871651 ] ] } },
{ "type": "Feature", "properties": { "route_id": "039", "heat_score": 71.88, "heat_grade": "q5", "length": 33.908978308442528 }, "geometry": { "type": "LineString", "coordinates": [ [ 208194.828387212503003, 526213.442114375648089 ], [ 208160.843267436517635, 526212.942784941871651 ] ] } },
{ "type": "Feature", "properties": { "route_id": "039", "heat_score": 70.78, "heat_grade": "q4", "length": 31.208802618287521 }, "geometry": { "type": "LineString", "coordinates": [ [ 208189.82674975466216, 526244.190909238299355 ], [ 208194.828387212503003, 526213.442114375648089 ] ] } },
{ "type": "Feature", "properties": { "route_id": "039", "heat_score": 78.12, "heat_grade": "q5", "length": 73.974045578235817 }, "geometry": { "type": "LineString", "coordinates": [ [ 208263.974678261089139, 526243.986311202868819 ], [ 208189.82674975466216, 526244.190909238299355 ] ] } },
{ "type": "Feature", "properties": { "route_id": "039", "heat_score": 75.01, "heat_grade": "q5", "length": 43.276155413049281 }, "geometry": { "type": "LineString", "coordinates": [ [ 208264.871410125459079, 526287.171106090419926 ], [ 208263.974678261089139, 526243.986311202868819 ] ] } },
{ "type": "Feature", "properties": { "route_id": "039", "heat_score": 54.04, "heat_grade": "q2", "length": 31.033082014292905 }, "geometry": { "type": "LineString", "coordinates": [ [ 208264.871410125459079, 526287.171106090419926 ], [ 208295.976819411473116, 526286.95770640228875 ] ] } },
{ "type": "Feature", "properties": { "route_id": "039", "heat_score": 34.11, "heat_grade": "q1", "length": 33.162338697610963 }, "geometry": { "type": "LineString", "coordinates": [ [ 208295.976819411473116, 526286.95770640228875 ], [ 208296.458010743022896, 526320.053641335340217 ] ] } },
{ "type": "Feature", "properties": { "route_id": "039", "heat_score": 36.92, "heat_grade": "q1", "length": 196.42286848342471 }, "geometry": { "type": "LineString", "coordinates": [ [ 208493.340843451704131, 526320.828183164587244 ], [ 208429.642448311205953, 526320.286571188946255 ], [ 208296.458010743022896, 526320.053641335340217 ] ] } },
{ "type": "Feature", "properties": { "route_id": "039", "heat_score": 33.29, "heat_grade": "q1", "length": 174.61377968807045 }, "geometry": { "type": "LineString", "coordinates": [ [ 208493.340843451704131, 526320.828183164587244 ], [ 208491.958848752547055, 526495.105149562470615 ] ] } }
]
}
