{
"type": "FeatureCollection",
"name": "040_edges",
"crs": { "type": "name", "properties": { "name": "urn:ogc:def:crs:EPSG::5186" } },
"features": [
{ "type": "Feature", "properties": { "route_id": "040", "heat_score": 49.7, "heat_grade": "q2", "length": 104.93927250892878 }, "geometry": { "type": "LineString", "coordinates": [ [ 207234.333940372744109, 524058.981752030667849 ], [ 207216.547730751364725, 524023.107586083817296 ], [ 207199.543429854908027, 523984.903475038008764 ], [ 207190.351465724874288, 523963.86417643429013 ] ] } },
{ "type": "Feature", "properties": { "route_id": "040", "heat_score": 61.08, "heat_grade": "q3", "length": 88.288139043189588 }, "geometry": { "type": "LineString", "coordinates": [ [ 207190.351465724874288, 523963.86417643429013 ], [ 207180.074047918315046, 523968.128233637718949 ], [ 207122.026252571464283, 523993.882390845566988 ], [ 207109.407603438798105, 523999.476348909956869 ] ] } },
{ "type": "Feature", "properties": { "route_id": "040", "heat_score": 58.44, "heat_grade": "q3", "length": 53.477805303133167 }, "geometry": { "type": "LineString", "coordinates": [ [ 207086.011007869034074, 523951.467191940115299 ], [ 207089.134664221404819, 523957.917985035222955 ], [ 207092.249451425945153, 523964.368771862820722 ], [ 207098.770207862457028, 523978.835465591168031 ], [ 207103.513668929081177, 523988.051130247302353 ], [ 207109.407603438798105, 523999.476348909956869 ] ] } },
{ "type": "Feature", "properties": { "route_id": "040", "heat_score": 52.92, "heat_grade": "q2", "length": 204.7205012718656 }, "geometry": { "type": "LineString", "coordinates": [ [ 207086.011007869034074, 523951.467191940115299 ], [ 207077.613420722977025, 523955.078161154873669 ], [ 207025.97775376070058, 523977.253629657439888 ], [ 206951.704986422904767, 524007.656689353403635 ], [ 206929.475964032899356, 524015.218458863440901 ], [ 206919.563763416517759, 524017.563120169390459 ], [ 206904.341670535912272, 524020.147579752258025 ], [ 206894.093133916758234, 524021.892682221136056 ] ] } },
{ "type": "Feature", "properties": { "route_id": "040", "heat_score": 69.03, "heat_grade": "q4", "length": 321.43921271221416 }, "geometry": { "type": "LineString", "coordinates": [ [ 207104.287560092838248, 523796.69377670326503 ], [ 207094.151478545041755, 523811.823356329172384 ], [ 207091.559807146899402, 523815.650097851525061 ], [ 207078.185315193375573, 523834.239646357484162 ], [ 207073.356993690569652, 523841.405111985339317 ], [ 207057.55296999757411, 523860.891610775201116 ], [ 207056.470835739775794, 523861.689781560446136 ], [ 207051.030230562086217, 523869.653826869849581 ], [ 207042.164639848779188, 523881.577112549450248 ], [ 207026.505470637988765, 523897.634397756017279 ], [ 206999.261117364454549, 523923.692751687718555 ], [ 206986.788706103892764, 523934.603133048687596 ], [ 206973.688833941152552, 523943.260042597481515 ], [ 206953.582678342034342, 523956.106337096425705 ], [ 206941.973138525849208, 523963.488221340230666 ], [ 206931.908086104464019, 523968.363168751180638 ], [ 206921.915784618468024, 523971.029613569029607 ], [ 206915.664927547361003, 523972.855681958957575 ], [ 206910.939422161667608, 523973.850635647773743 ], [ 206904.90001433523139, 523977.252854435995687 ], [ 206901.792055724567035, 523983.864919685292989 ], [ 206894.386078528885264, 524010.605884558463003 ], [ 206894.239601563691394, 524016.254832542908844 ], [ 206894.093133916758234, 524021.892682221136056 ] ] } },
{ "type": "Feature", "properties": { "route_id": "040", "heat_score": 78.56, "heat_grade": "q5", "length": 9.9103586157520827 }, "geometry": { "type": "LineString", "coordinates": [ [ 207104.287560092838248, 523796.69377670326503 ], [ 207109.763966034195619, 523788.441239570383914 ] ] } },
{ "type": "Feature", "properties": { "route_id": "040", "heat_score": 72.76, "heat_grade": "q5", "length": 59.326186158478549 }, "geometry": { "type": "LineString", "coordinates": [ [ 207109.763966034195619, 523788.441239570383914 ], [ 207121.269489009544486, 523799.604865649482235 ], [ 207129.655219217704143, 523810.133245765289757 ], [ 207131.036606196576031, 523811.865766076836735 ], [ 207135.702908084931551, 523818.073724189365748 ], [ 207141.050102875800803, 523826.23557732795598 ], [ 207146.796084014698863, 523834.5198561581783 ] ] } },
{ "type": "Feature", "properties": { "route_id": "040", "heat_score": 77.35, "heat_grade": "q5", "length": 37.258050742887846 }, "geometry": { "type": "LineString", "coordinates": [ [ 207146.796084014698863, 523834.5198561581783 ], [ 207164.142288338305661, 523867.452419156674296 ] ] } },
{ "type": "Feature", "properties": { "route_id": "040", "heat_score": 56.95, "heat_grade": "q2", "length": 99.237808277441317 }, "geometry": { "type": "LineString", "coordinates": [ [ 207164.142288338305661, 523867.452419156674296 ], [ 207165.451348040369339, 523870.816343119135126 ], [ 207166.972687651636079, 523874.724268766934983 ], [ 207182.956569079193287, 523914.547792914963793 ], [ 207196.320953384623863, 523949.130671079852618 ], [ 207200.903793246659916, 523959.478286081808619 ] ] } },
{ "type": "Feature", "properties": { "route_id": "040", "heat_score": 42.86, "heat_grade": "q1", "length": 104.57685750563954 }, "geometry": { "type": "LineString", "coordinates": [ [ 207200.903793246659916, 523959.478286081808619 ], [ 207210.308555607160088, 523980.428992367291357 ], [ 207244.265751940110931, 524054.506593152880669 ] ] } },
{ "type": "Feature", "properties": { "route_id": "040", "heat_score": 47.46, "heat_grade": "q1", "length": 50.837344709926064 }, "geometry": { "type": "LineString", "coordinates": [ [ 207244.265751940110931, 524054.506593152880669 ], [ 207257.098352216096828, 524047.525727021798957 ], [ 207290.493507500679698, 524033.271120784163941 ] ] } },
{ "type": "Feature", "properties": { "route_id": "040", "heat_score": 41.14, "heat_grade": "q1", "length": 323.39735550589432 }, "geometry": { "type": "LineString", "coordinates": [ [ 207402.296625493559986, 523965.091997610288672 ], [ 207298.984480146784335, 523912.306313630775549 ], [ 207275.318083751073573, 523900.343888172355946 ], [ 207228.208641528413864, 523935.817884507239796 ], [ 207225.829318167612655, 523940.077604759135284 ], [ 207223.918180941982428, 523946.224451638991013 ], [ 207225.337990175787127, 523954.749221319158096 ], [ 207275.862481318152277, 524018.608556352963205 ], [ 207276.810138866043417, 524019.552740641345736 ], [ 207290.493507500679698, 524033.271120784163941 ] ] } },
{ "type": "Feature", "properties": { "route_id": "040", "heat_score": 46.12, "heat_grade": "q1", "length": 96.902252047319251 }, "geometry": { "type": "LineString", "coordinates": [ [ 207402.296625493559986, 523965.091997610288672 ], [ 207426.618751565867569, 523916.902216129237786 ], [ 207419.688737325166585, 523874.677891733765136 ] ] } },
{ "type": "Feature", "properties": { "route_id": "040", "heat_score": 42.92, "heat_grade": "q1", "length": 154.4588411921423 }, "geometry": { "type": "LineString", "coordinates": [ [ 207565.790623605105793, 523925.583574650750961 ], [ 207541.96175824420061, 523917.316004194901325 ], [ 207519.418849375273567, 523908.306065176497214 ], [ 207449.091675604402553, 523885.069855102337897 ], [ 207419.688737325166585, 523874.677891733765136 ] ] } },
{ "type": "Feature", "properties": { "route_id": "040", "heat_score": 58.59, "heat_grade": "q3", "length": 57.81027956279766 }, "geometry": { "type": "LineString", "coordinates": [ [ 207565.790623605105793, 523925.583574650750961 ], [ 207569.730484097643057, 523911.259141611226369 ], [ 207574.715423973568249, 523897.967803552688565 ], [ 207580.508999172976473, 523882.513018827186897 ], [ 207587.44118253342458, 523872.497468863439281 ] ] } },
{ "type": "Feature", "properties": { "route_id": "040", "heat_score": 71.24, "heat_grade": "q5", "length": 120.60869833411911 }, "geometry": { "type": "LineString", "coordinates": [ [ 207587.44118253342458, 523872.497468863439281 ], [ 207589.204270353220636, 523863.742454779508989 ], [ 207591.593107153690653, 523858.994518238003366 ], [ 207596.473137309396407, 523853.938086433452554 ], [ 207597.87042064697016, 523847.801957070128992 ], [ 207595.677932616497856, 523841.296326833660714 ], [ 207590.854927207285073, 523832.324476488051005 ], [ 207583.196765354339732, 523821.707504532707389 ], [ 207570.067819488409441, 523802.795116534922272 ], [ 207563.394135896553053, 523791.546446014137473 ], [ 207554.96020879392745, 523766.234565966937225 ] ] } },
{ "type": "Feature", "properties": { "route_id": "040", "heat_score": 57.81, "heat_grade": "q2", "length": 267.8239214102133 }, "geometry": { "type": "LineString", "coordinates": [ [ 207733.657650883484166, 523961.473586821521167 ], [ 207704.684749295091024, 523946.808145882270765 ], [ 207647.525676064105937, 523890.420465783274267 ], [ 207606.173642579349689, 523841.094979384564795 ], [ 207554.96020879392745, 523766.234565966937225 ] ] } },
{ "type": "Feature", "properties": { "route_id": "040", "heat_score": 73.33, "heat_grade": "q5", "length": 49.65377481931904 }, "geometry": { "type": "LineString", "coordinates": [ [ 207771.354370498069329, 523993.715933559229597 ], [ 207755.188163988292217, 523981.670322227815632 ], [ 207733.657650883484166, 523961.473586821521167 ] ] } },
{ "type": "Feature", "properties": { "route_id": "040", "heat_score": 74.64, "heat_grade": "q5", "length": 85.881693313548709 }, "geometry": { "type": "LineString", "coordinates": [ [ 207840.776495197496843, 524044.400278298300691 ], [ 207817.930917217861861, 524027.975538503727876 ], [ 207771.354370498069329, 523993.715933559229597 ] ] } },
{ "type": "Feature", "properties": { "route_id": "040", "heat_score": 77.05, "heat_grade": "q5", "length": 11.587357138010814 }, "geometry": { "type": "LineString", "coordinates": [ [ 207849.953217301139375, 524051.489631625940092 ], [ 207840.776495197496843, 524044.400278298300691 ] ] } },
{ "type": "Feature", "properties": { "route_id": "040", "heat_score": 75.64, "heat_grade": "q5", "length": 10.958986090041877 }, "geometry": { "type": "LineString", "coordinates": [ [ 207849.953217301139375, 524051.489631625940092 ], [ 207858.687139264191501, 524058.123546574846841 ] ] } },
{ "type": "Feature", "properties": { "route_id": "040", "heat_score": 50.81, "heat_grade": "q2", "length": 160.83810730577073 }, "geometry": { "type": "LineString", "coordinates": [ [ 207768.370227592356969, 524191.097686021996196 ], [ 207794.040741285978584, 524152.887637435807846 ], [ 207858.687139264191501, 524058.123546574846841 ] ] } },
{ "type": "Feature", "properties": { "route_id": "040", "heat_score": 49.66, "heat_grade": "q2", "length": 146.31604154409646 }, "geometry": { "type": "LineString", "coordinates": [ [ 207768.370227592356969, 524191.097686021996196 ], [ 207706.193237542756833, 524282.413164886762388 ], [ 207688.791139870270854, 524313.639097300823778 ] ] } },
{ "type": "Feature", "properties": { "route_id": "040", "heat_score": 62.24, "heat_grade": "q3", "length": 79.974526329469285 }, "geometry": { "type": "LineString", "coordinates": [ [ 207688.791139870270854, 524313.639097300823778 ], [ 207685.822894873679616, 524312.348962162970565 ], [ 207681.259329272026662, 524310.84649606095627 ], [ 207671.120441011909861, 524309.216843176749535 ], [ 207659.386684562283335, 524306.875448318896815 ], [ 207646.906362656736746, 524306.70866967132315 ], [ 207635.21515581040876, 524306.298464565770701 ], [ 207622.777577090921113, 524307.863107119803317 ], [ 207610.328689121175557, 524312.124662669608369 ] ] } },
{ "type": "Feature", "properties": { "route_id": "040", "heat_score": 41.28, "heat_grade": "q1", "length": 169.60728686121215 }, "geometry": { "type": "LineString", "coordinates": [ [ 207458.297471213998506, 524387.789824297069572 ], [ 207539.208416789217154, 524346.853757783537731 ], [ 207560.056113818980521, 524337.327944162068889 ], [ 207582.899109578342177, 524326.849528137361631 ], [ 207610.328689121175557, 524312.124662669608369 ] ] } },
{ "type": "Feature", "properties": { "route_id": "040", "heat_score": 32.23, "heat_grade": "q1", "length": 68.590107906335277 }, "geometry": { "type": "LineString", "coordinates": [ [ 207458.297471213998506, 524387.789824297069572 ], [ 207447.729776085237972, 524399.944240928860381 ], [ 207437.776939760224195, 524408.47004836704582 ], [ 207433.648509496182669, 524416.057672267779708 ], [ 207432.693667013547383, 524423.281867127050646 ], [ 207432.93519762926735, 524430.784583007451147 ], [ 207435.021948645007797, 524446.535029410151765 ] ] } },
{ "type": "Feature", "properties": { "route_id": "040", "heat_score": 58.83, "heat_grade": "q3", "length": 45.003667754928955 }, "geometry": { "type": "LineString", "coordinates": [ [ 207414.448935800493928, 524406.562644858029671 ], [ 207422.439666827034671, 524421.619117464637384 ], [ 207435.021948645007797, 524446.535029410151765 ] ] } },
{ "type": "Feature", "properties": { "route_id": "040", "heat_score": 77.48, "heat_grade": "q5", "length": 12.368843478303724 }, "geometry": { "type": "LineString", "coordinates": [ [ 207403.072258702333784, 524411.469163231202401 ], [ 207414.448935800493928, 524406.562644858029671 ] ] } },
{ "type": "Feature", "properties": { "route_id": "040", "heat_score": 68.85, "heat_grade": "q4", "length": 24.346445792214688 }, "geometry": { "type": "LineString", "coordinates": [ [ 207403.072258702333784, 524411.469163231202401 ], [ 207399.498162891133688, 524403.652749687549658 ], [ 207392.676621910970425, 524389.485201173578389 ] ] } },
{ "type": "Feature", "properties": { "route_id": "040", "heat_score": 29.85, "heat_grade": "q1", "length": 366.91226932745428 }, "geometry": { "type": "LineString", "coordinates": [ [ 207392.676621910970425, 524389.485201173578389 ], [ 207388.721516482386505, 524381.490882323938422 ], [ 207383.908141532941954, 524371.753364185336977 ], [ 207381.962103795871371, 524367.190217411145568 ], [ 207376.937122305098455, 524356.1540073370561 ], [ 207357.258478872478008, 524316.6264924837742 ], [ 207339.676283942739246, 524281.81767140206648 ], [ 207320.556479703955119, 524241.425064723996911 ], [ 207296.764029647340067, 524192.105343422445003 ], [ 207261.699761073454283, 524118.115339191805106 ], [ 207234.333940372744109, 524058.981752030667849 ] ] } }
]
}
