{
"type": "FeatureCollection",
"name": "041_edges",
"crs": { "type": "name", "properties": { "name": "urn:ogc:def:crs:EPSG::5186" } },
"features": [
{ "type": "Feature", "properties": { "route_id": "041", "heat_score": 47.87, "heat_grade": "q1", "length": 44.03205544509251 }, "geometry": { "type": "LineString", "coordinates": [ [ 210657.232390497229062, 525878.201151906396262 ], [ 210659.276047492923681, 525846.173736388096586 ], [ 210659.007541419588961, 525834.320290997158736 ] ] } },
{ "type": "Feature", "properties": { "route_id": "041", "heat_score": 70.72, "heat_grade": "q4", "length": 40.551490891650715 }, "geometry": { "type": "LineString", "coordinates": [ [ 210657.924580761347897, 525793.920695902896114 ], [ 210657.274345541431103, 525810.423205345403403 ], [ 210659.007541419588961, 525834.320290997158736 ] ] } },
{ "type": "Feature", "properties": { "route_id": "041", "heat_score": 48.3, "heat_grade": "q1", "length": 127.95416137239326 }, "geometry": { "type": "LineString", "coordinates": [ [ 210657.924580761347897, 525793.920695902896114 ], [ 210660.040194046159741, 525740.195984488585964 ], [ 210661.68628210213501, 525707.224705238011666 ], [ 210666.630148191499757, 525666.588627659832127 ] ] } },
{ "type": "Feature", "properties": { "route_id": "041", "heat_score": 52.74, "heat_grade": "q2", "length": 246.34395145126314 }, "geometry": { "type": "LineString", "coordinates": [ [ 210666.630148191499757, 525666.588627659832127 ], [ 210675.108493553503649, 525669.029983457527123 ], [ 210694.263926209881902, 525673.249624151620083 ], [ 210715.929663123795763, 525675.730070655001327 ], [ 210721.788160492433235, 525675.44901132537052 ], [ 210735.9602321832499, 525674.767969791544601 ], [ 210756.249872155545745, 525672.20807868510019 ], [ 210908.050735599856125, 525635.702008004300296 ] ] } },
{ "type": "Feature", "properties": { "route_id": "041", "heat_score": 58.37, "heat_grade": "q2", "length": 49.826212813718193 }, "geometry": { "type": "LineString", "coordinates": [ [ 210916.778578212397406, 525684.668467214680277 ], [ 210908.050735599856125, 525635.702008004300296 ] ] } },
{ "type": "Feature", "properties": { "route_id": "041", "heat_score": 56.76, "heat_grade": "q2", "length": 96.397785040379958 }, "geometry": { "type": "LineString", "coordinates": [ [ 210924.267476815904956, 525779.725025659310631 ], [ 210924.750375492061721, 525762.822774736443534 ], [ 210924.623543555266224, 525710.593486774014309 ], [ 210916.778578212397406, 525684.668467214680277 ] ] } },
{ "type": "Feature", "properties": { "route_id": "041", "heat_score": 58.7, "heat_grade": "q3", "length": 60.869376159629773 }, "geometry": { "type": "LineString", "coordinates": [ [ 210924.569296578731155, 525840.47812842798885 ], [ 210924.267476815904956, 525779.725025659310631 ] ] } },
{ "type": "Feature", "properties": { "route_id": "041", "heat_score": 67.34, "heat_grade": "q4", "length": 83.880502302054055 }, "geometry": { "type": "LineString", "coordinates": [ [ 210924.569296578731155, 525840.47812842798885 ], [ 211008.645909671555273, 525840.965592179913074 ] ] } },
{ "type": "Feature", "properties": { "route_id": "041", "heat_score": 60.9, "heat_grade": "q3", "length": 327.60990111701977 }, "geometry": { "type": "LineString", "coordinates": [ [ 211008.645909671555273, 525840.965592179913074 ], [ 211110.355895135202445, 525843.508289033663459 ], [ 211218.404823106451659, 525837.637015725835226 ], [ 211296.249506906635361, 525819.684553740895353 ], [ 211334.764295361062977, 525820.535688077565283 ] ] } },
{ "type": "Feature", "properties": { "route_id": "041", "heat_score": 51.97, "heat_grade": "q2", "length": 85.442016233640715 }, "geometry": { "type": "LineString", "coordinates": [ [ 211338.025470890745055, 525905.753735146019608 ], [ 211334.764295361062977, 525820.535688077565283 ] ] } },
{ "type": "Feature", "properties": { "route_id": "041", "heat_score": 41.23, "heat_grade": "q1", "length": 96.128199078636769 }, "geometry": { "type": "LineString", "coordinates": [ [ 211337.798063990543596, 526001.699239777284674 ], [ 211338.025470890745055, 525905.753735146019608 ] ] } },
{ "type": "Feature", "properties": { "route_id": "041", "heat_score": 32.73, "heat_grade": "q1", "length": 187.82040793877459 }, "geometry": { "type": "LineString", "coordinates": [ [ 211337.798063990543596, 526001.699239777284674 ], [ 211337.675837321439758, 526006.882035276270472 ], [ 211338.3450377494446, 526042.79742190183606 ], [ 211339.937670254119439, 526142.829630081425421 ], [ 211335.329044550686376, 526188.915128727210686 ] ] } },
{ "type": "Feature", "properties": { "route_id": "041", "heat_score": 14.08, "heat_grade": "q1", "length": 72.181582596524933 }, "geometry": { "type": "LineString", "coordinates": [ [ 211340.531182775448542, 526260.773353319615126 ], [ 211335.329044550686376, 526188.915128727210686 ] ] } },
{ "type": "Feature", "properties": { "route_id": "041", "heat_score": 46.83, "heat_grade": "q1", "length": 357.42956747193887 }, "geometry": { "type": "LineString", "coordinates": [ [ 211340.531182775448542, 526260.773353319615126 ], [ 211340.769539924309356, 526307.242770511657 ], [ 211079.152175860304851, 526311.809066313435324 ], [ 211081.096668984973803, 526262.11290999117773 ] ] } },
{ "type": "Feature", "properties": { "route_id": "041", "heat_score": 9.26, "heat_grade": "q1", "length": 28.823883677532475 }, "geometry": { "type": "LineString", "coordinates": [ [ 211081.096668984973803, 526262.11290999117773 ], [ 211082.322214293206343, 526233.36962316359859 ] ] } },
{ "type": "Feature", "properties": { "route_id": "041", "heat_score": 5.04, "heat_grade": "q1", "length": 192.00109791507126 }, "geometry": { "type": "LineString", "coordinates": [ [ 211082.322214293206343, 526233.36962316359859 ], [ 211054.008335459831869, 526233.332191409426741 ], [ 210938.697975188784767, 526117.013589797890745 ] ] } },
{ "type": "Feature", "properties": { "route_id": "041", "heat_score": 20.75, "heat_grade": "q1", "length": 34.191254125498737 }, "geometry": { "type": "LineString", "coordinates": [ [ 210922.072630557318917, 526137.468465655576438 ], [ 210932.929246684507234, 526137.005403591901995 ], [ 210940.498134793248028, 526129.690334935788997 ], [ 210938.697975188784767, 526117.013589797890745 ] ] } },
{ "type": "Feature", "properties": { "route_id": "041", "heat_score": 25.78, "heat_grade": "q1", "length": 112.9003989285802 }, "geometry": { "type": "LineString", "coordinates": [ [ 210922.072630557318917, 526137.468465655576438 ], [ 210912.025040035689017, 526149.552639738074504 ], [ 210865.152436293283245, 526150.5460295638768 ], [ 210817.958733352686977, 526132.572071458329447 ] ] } },
{ "type": "Feature", "properties": { "route_id": "041", "heat_score": 15.63, "heat_grade": "q1", "length": 121.4649756445171 }, "geometry": { "type": "LineString", "coordinates": [ [ 210817.958733352686977, 526132.572071458329447 ], [ 210808.526269717345713, 526121.350487770629115 ], [ 210773.061623788235011, 526072.094400521717034 ], [ 210768.680592027900275, 526026.307800033828244 ] ] } },
{ "type": "Feature", "properties": { "route_id": "041", "heat_score": 13.3, "heat_grade": "q1", "length": 64.559678333161543 }, "geometry": { "type": "LineString", "coordinates": [ [ 210768.680592027900275, 526026.307800033828244 ], [ 210766.739340122672729, 526005.9730070726946 ], [ 210786.552702500019222, 525966.632432327372953 ] ] } },
{ "type": "Feature", "properties": { "route_id": "041", "heat_score": 46.49, "heat_grade": "q1", "length": 139.41368437777194 }, "geometry": { "type": "LineString", "coordinates": [ [ 210786.552702500019222, 525966.632432327372953 ], [ 210926.27747887710575, 525964.449640383129008 ] ] } },
{ "type": "Feature", "properties": { "route_id": "041", "heat_score": 25.5, "heat_grade": "q1", "length": 87.790869909424245 }, "geometry": { "type": "LineString", "coordinates": [ [ 210924.30914937457419, 525876.847288854653016 ], [ 210926.27747887710575, 525964.449640383129008 ] ] } },
{ "type": "Feature", "properties": { "route_id": "041", "heat_score": 30.8, "heat_grade": "q1", "length": 156.84869159074901 }, "geometry": { "type": "LineString", "coordinates": [ [ 210767.131257206754526, 525880.383860115893185 ], [ 210924.30914937457419, 525876.847288854653016 ] ] } },
{ "type": "Feature", "properties": { "route_id": "041", "heat_score": 23.18, "heat_grade": "q1", "length": 109.66246195395419 }, "geometry": { "type": "LineString", "coordinates": [ [ 210657.232390497229062, 525878.201151906396262 ], [ 210767.131257206754526, 525880.383860115893185 ] ] } }
]
}
