{
"type": "FeatureCollection",
"name": "042_edges",
"crs": { "type": "name", "properties": { "name": "urn:ogc:def:crs:EPSG::5186" } },
"features": [
{ "type": "Feature", "properties": { "route_id": "042", "heat_score": 47.46, "heat_grade": "q1", "length": 50.837344709926064 }, "geometry": { "type": "LineString", "coordinates": [ [ 207244.265751940110931, 524054.506593152880669 ], [ 207257.098352216096828, 524047.525727021798957 ], [ 207290.493507500679698, 524033.271120784163941 ] ] } },
{ "type": "Feature", "properties": { "route_id": "042", "heat_score": 41.14, "heat_grade": "q1", "length": 323.39735550589432 }, "geometry": { "type": "LineString", "coordinates": [ [ 207402.296625493559986, 523965.091997610288672 ], [ 207298.984480146784335, 523912.306313630775549 ], [ 207275.318083751073573, 523900.343888172355946 ], [ 207228.208641528413864, 523935.817884507239796 ], [ 207225.829318167612655, 523940.077604759135284 ], [ 207223.918180941982428, 523946.224451638991013 ], [ 207225.337990175787127, 523954.749221319158096 ], [ 207275.862481318152277, 524018.608556352963205 ], [ 207276.810138866043417, 524019.552740641345736 ], [ 207290.493507500679698, 524033.271120784163941 ] ] } },
{ "type": "Feature", "properties": { "route_id": "042", "heat_score": 46.12, "heat_grade": "q1", "length": 96.902252047319251 }, "geometry": { "type": "LineString", "coordinates": [ [ 207402.296625493559986, 523965.091997610288672 ], [ 207426.618751565867569, 523916.902216129237786 ], [ 207419.688737325166585, 523874.677891733765136 ] ] } },
{ "type": "Feature", "properties": { "route_id": "042", "heat_score": 42.92, "heat_grade": "q1", "length": 154.4588411921423 }, "geometry": { "type": "LineString", "coordinates": [ [ 207565.790623605105793, 523925.583574650750961 ], [ 207541.96175824420061, 523917.316004194901325 ], [ 207519.418849375273567, 523908.306065176497214 ], [ 207449.091675604402553, 523885.069855102337897 ], [ 207419.688737325166585, 523874.677891733765136 ] ] } },
{ "type": "Feature", "properties": { "route_id": "042", "heat_score": 58.59, "heat_grade": "q3", "length": 57.81027956279766 }, "geometry": { "type": "LineString", "coordinates": [ [ 207565.790623605105793, 523925.583574650750961 ], [ 207569.730484097643057, 523911.259141611226369 ], [ 207574.715423973568249, 523897.967803552688565 ], [ 207580.508999172976473, 523882.513018827186897 ], [ 207587.44118253342458, 523872.497468863439281 ] ] } },
{ "type": "Feature", "properties": { "route_id": "042", "heat_score": 71.24, "heat_grade": "q5", "length": 120.60869833411911 }, "geometry": { "type": "LineString", "coordinates": [ [ 207587.44118253342458, 523872.497468863439281 ], [ 207589.204270353220636, 523863.742454779508989 ], [ 207591.593107153690653, 523858.994518238003366 ], [ 207596.473137309396407, 523853.938086433452554 ], [ 207597.87042064697016, 523847.801957070128992 ], [ 207595.677932616497856, 523841.296326833660714 ], [ 207590.854927207285073, 523832.324476488051005 ], [ 207583.196765354339732, 523821.707504532707389 ], [ 207570.067819488409441, 523802.795116534922272 ], [ 207563.394135896553053, 523791.546446014137473 ], [ 207554.96020879392745, 523766.234565966937225 ] ] } },
{ "type": "Feature", "properties": { "route_id": "042", "heat_score": 74.27, "heat_grade": "q5", "length": 57.096825118109159 }, "geometry": { "type": "LineString", "coordinates": [ [ 207554.96020879392745, 523766.234565966937225 ], [ 207524.119243494526017, 523718.228587591438554 ] ] } },
{ "type": "Feature", "properties": { "route_id": "042", "heat_score": 72.18, "heat_grade": "q5", "length": 693.46753338711494 }, "geometry": { "type": "LineString", "coordinates": [ [ 207524.119243494526017, 523718.228587591438554 ], [ 207486.346401359071024, 523649.673462340666447 ], [ 207420.247777923388639, 523493.638307776767761 ], [ 207398.777824293676531, 523442.677856623777188 ], [ 207379.773975870572031, 523399.610568656760734 ], [ 207363.14689498784719, 523365.324215370346792 ], [ 207343.204168547759764, 523331.034991121152416 ], [ 207321.010616788582411, 523295.534129093342926 ], [ 207286.870284663134953, 523245.772644078591838 ], [ 207250.580120799830183, 523200.704046229016967 ], [ 207241.681410521909129, 523188.255097507848404 ], [ 207214.13092916860478, 523154.547834070690442 ], [ 207181.277664338762406, 523122.190116825106088 ] ] } },
{ "type": "Feature", "properties": { "route_id": "042", "heat_score": 59.53, "heat_grade": "q3", "length": 420.02979873273915 }, "geometry": { "type": "LineString", "coordinates": [ [ 207383.988435885723447, 523486.048295474844053 ], [ 207376.860712316411082, 523466.353529105312191 ], [ 207356.973433452862082, 523419.734039272763766 ], [ 207352.074360613827594, 523405.956677728740033 ], [ 207341.345006616902538, 523378.789590863860212 ], [ 207329.543231349089183, 523351.266433555283584 ], [ 207316.666047898645047, 523326.794403113599401 ], [ 207305.106398503063247, 523306.085884545056615 ], [ 207280.731829503871268, 523260.361645241791848 ], [ 207277.182265071460279, 523254.221171927172691 ], [ 207245.004209298349451, 523210.654447265318595 ], [ 207238.73351032185019, 523203.92342602647841 ], [ 207231.39140272088116, 523195.704305606835987 ], [ 207223.342029795516282, 523185.209419658698607 ], [ 207210.828748628002359, 523169.882915945840068 ], [ 207194.994226783805061, 523150.769041012914386 ], [ 207190.249122843088116, 523143.029416698904242 ], [ 207181.277664338762406, 523122.190116825106088 ] ] } },
{ "type": "Feature", "properties": { "route_id": "042", "heat_score": 73.75, "heat_grade": "q5", "length": 155.46211058571441 }, "geometry": { "type": "LineString", "coordinates": [ [ 207272.454562762082787, 523594.315138472942635 ], [ 207284.351142935163807, 523583.981800111010671 ], [ 207316.895444837224204, 523551.403172639198601 ], [ 207356.698362223891309, 523510.906813441950362 ], [ 207370.742403127922444, 523498.355812286201399 ], [ 207383.988435885723447, 523486.048295474844053 ] ] } },
{ "type": "Feature", "properties": { "route_id": "042", "heat_score": 70.56, "heat_grade": "q4", "length": 133.55653813298443 }, "geometry": { "type": "LineString", "coordinates": [ [ 207272.454562762082787, 523594.315138472942635 ], [ 207245.337735167704523, 523624.645663882547524 ], [ 207179.806698149885051, 523690.480227687279694 ] ] } },
{ "type": "Feature", "properties": { "route_id": "042", "heat_score": 71.8, "heat_grade": "q5", "length": 57.518544897430246 }, "geometry": { "type": "LineString", "coordinates": [ [ 207144.67284092947375, 523735.997874051565304 ], [ 207179.806698149885051, 523690.480227687279694 ] ] } },
{ "type": "Feature", "properties": { "route_id": "042", "heat_score": 76.18, "heat_grade": "q5", "length": 100.47517413986247 }, "geometry": { "type": "LineString", "coordinates": [ [ 207144.67284092947375, 523735.997874051565304 ], [ 207139.504354119679192, 523767.723687597783282 ], [ 207137.829955265071476, 523776.95609911927022 ], [ 207137.115716607455397, 523782.915311744669452 ], [ 207137.163675802585203, 523789.052747513807844 ], [ 207137.760591390717309, 523795.945339690428227 ], [ 207138.410182377323508, 523803.437288494722452 ], [ 207146.796084014698863, 523834.5198561581783 ] ] } },
{ "type": "Feature", "properties": { "route_id": "042", "heat_score": 77.35, "heat_grade": "q5", "length": 37.258050742887846 }, "geometry": { "type": "LineString", "coordinates": [ [ 207146.796084014698863, 523834.5198561581783 ], [ 207164.142288338305661, 523867.452419156674296 ] ] } },
{ "type": "Feature", "properties": { "route_id": "042", "heat_score": 56.95, "heat_grade": "q2", "length": 99.237808277441317 }, "geometry": { "type": "LineString", "coordinates": [ [ 207164.142288338305661, 523867.452419156674296 ], [ 207165.451348040369339, 523870.816343119135126 ], [ 207166.972687651636079, 523874.724268766934983 ], [ 207182.956569079193287, 523914.547792914963793 ], [ 207196.320953384623863, 523949.130671079852618 ], [ 207200.903793246659916, 523959.478286081808619 ] ] } },
{ "type": "Feature", "properties": { "route_id": "042", "heat_score": 42.86, "heat_grade": "q1", "length": 104.57685750563954 }, "geometry": { "type": "LineString", "coordinates": [ [ 207200.903793246659916, 523959.478286081808619 ], [ 207210.308555607160088, 523980.428992367291357 ], [ 207244.265751940110931, 524054.506593152880669 ] ] } }
]
}
