{
"type": "FeatureCollection",
"name": "043_edges",
"crs": { "type": "name", "properties": { "name": "urn:ogc:def:crs:EPSG::5186" } },
"features": [
{ "type": "Feature", "properties": { "route_id": "043", "heat_score": 41.71, "heat_grade": "q1", "length": 169.73905564872496 }, "geometry": { "type": "LineString", "coordinates": [ [ 208663.479058285593055, 526321.168995060725138 ], [ 208557.996616224583704, 526321.071601328440011 ], [ 208493.340843451704131, 526320.828183164587244 ] ] } },
{ "type": "Feature", "properties": { "route_id": "043", "heat_score": 60.81, "heat_grade": "q3", "length": 139.49243244370444 }, "geometry": { "type": "LineString", "coordinates": [ [ 208663.479058285593055, 526321.168995060725138 ], [ 208803.234753148688469, 526325.421197760035284 ] ] } },
{ "type": "Feature", "properties": { "route_id": "043", "heat_score": 57.28, "heat_grade": "q2", "length": 146.31485211857782 }, "geometry": { "type": "LineString", "coordinates": [ [ 208803.234753148688469, 526325.421197760035284 ], [ 208949.887934748025145, 526326.764222257770598 ] ] } },
{ "type": "Feature", "properties": { "route_id": "043", "heat_score": 54.93, "heat_grade": "q2", "length": 115.48236147455061 }, "geometry": { "type": "LineString", "coordinates": [ [ 209065.640647293766961, 526327.365999141940847 ], [ 208949.887934748025145, 526326.764222257770598 ] ] } },
{ "type": "Feature", "properties": { "route_id": "043", "heat_score": 71.1, "heat_grade": "q5", "length": 44.587695021636478 }, "geometry": { "type": "LineString", "coordinates": [ [ 209065.640647293766961, 526327.365999141940847 ], [ 209110.330348783521913, 526327.880645005381666 ] ] } },
{ "type": "Feature", "properties": { "route_id": "043", "heat_score": 76.63, "heat_grade": "q5", "length": 320.99779147331276 }, "geometry": { "type": "LineString", "coordinates": [ [ 209112.516085348732304, 526648.26099860528484 ], [ 209111.405679534509545, 526430.930590711650439 ], [ 209110.330348783521913, 526327.880645005381666 ] ] } },
{ "type": "Feature", "properties": { "route_id": "043", "heat_score": 76.27, "heat_grade": "q5", "length": 111.87513186220819 }, "geometry": { "type": "LineString", "coordinates": [ [ 209112.516085348732304, 526648.26099860528484 ], [ 209104.123034832300618, 526649.37280655244831 ], [ 209000.451995825744234, 526649.704634427092969 ] ] } },
{ "type": "Feature", "properties": { "route_id": "043", "heat_score": 75.09, "heat_grade": "q5", "length": 119.41088434199273 }, "geometry": { "type": "LineString", "coordinates": [ [ 209000.451995825744234, 526649.704634427092969 ], [ 209087.249903737945715, 526731.771334627643228 ] ] } },
{ "type": "Feature", "properties": { "route_id": "043", "heat_score": 51.83, "heat_grade": "q2", "length": 102.61243740147276 }, "geometry": { "type": "LineString", "coordinates": [ [ 208988.132248747220729, 526759.099613660713658 ], [ 209020.903137776069343, 526749.490338914678432 ], [ 209087.249903737945715, 526731.771334627643228 ] ] } },
{ "type": "Feature", "properties": { "route_id": "043", "heat_score": 73.15, "heat_grade": "q5", "length": 167.43188774891286 }, "geometry": { "type": "LineString", "coordinates": [ [ 208860.412693413905799, 526650.687274413066916 ], [ 208988.132248747220729, 526759.099613660713658 ] ] } },
{ "type": "Feature", "properties": { "route_id": "043", "heat_score": 64.99, "heat_grade": "q3", "length": 86.314439541520571 }, "geometry": { "type": "LineString", "coordinates": [ [ 208860.412693413905799, 526650.687274413066916 ], [ 208946.928153771732468, 526650.068996694637462 ] ] } },
{ "type": "Feature", "properties": { "route_id": "043", "heat_score": 42.12, "heat_grade": "q1", "length": 226.01757587767446 }, "geometry": { "type": "LineString", "coordinates": [ [ 208948.223801122949226, 526424.483973906608298 ], [ 208947.755972962710075, 526505.668379405513406 ], [ 208947.11393485715962, 526617.195681652636267 ], [ 208946.928153771732468, 526650.068996694637462 ] ] } },
{ "type": "Feature", "properties": { "route_id": "043", "heat_score": 39.67, "heat_grade": "q1", "length": 145.70726185780197 }, "geometry": { "type": "LineString", "coordinates": [ [ 208948.223801122949226, 526424.483973906608298 ], [ 208802.173901829402894, 526424.118268134305254 ] ] } },
{ "type": "Feature", "properties": { "route_id": "043", "heat_score": 63.9, "heat_grade": "q3", "length": 137.77121927446598 }, "geometry": { "type": "LineString", "coordinates": [ [ 208802.173901829402894, 526424.118268134305254 ], [ 208664.082586210250156, 526423.030847957590595 ] ] } },
{ "type": "Feature", "properties": { "route_id": "043", "heat_score": 41.34, "heat_grade": "q1", "length": 72.010331853411301 }, "geometry": { "type": "LineString", "coordinates": [ [ 208664.082586210250156, 526423.030847957590595 ], [ 208663.768936630804092, 526494.903851100127213 ] ] } },
{ "type": "Feature", "properties": { "route_id": "043", "heat_score": 44.19, "heat_grade": "q1", "length": 126.90696414359653 }, "geometry": { "type": "LineString", "coordinates": [ [ 208663.699875559279462, 526621.56999548652675 ], [ 208663.768936630804092, 526494.903851100127213 ] ] } },
{ "type": "Feature", "properties": { "route_id": "043", "heat_score": 66.05, "heat_grade": "q4", "length": 30.801597707106612 }, "geometry": { "type": "LineString", "coordinates": [ [ 208663.699875559279462, 526621.56999548652675 ], [ 208663.481966920633567, 526652.312384532066062 ] ] } },
{ "type": "Feature", "properties": { "route_id": "043", "heat_score": 68.44, "heat_grade": "q4", "length": 36.003915033382739 }, "geometry": { "type": "LineString", "coordinates": [ [ 208627.62417682557134, 526656.370666373171844 ], [ 208663.481966920633567, 526652.312384532066062 ] ] } },
{ "type": "Feature", "properties": { "route_id": "043", "heat_score": 59.64, "heat_grade": "q3", "length": 11.652974526598179 }, "geometry": { "type": "LineString", "coordinates": [ [ 208616.023093299561879, 526657.723822901956737 ], [ 208627.62417682557134, 526656.370666373171844 ] ] } },
{ "type": "Feature", "properties": { "route_id": "043", "heat_score": 52.83, "heat_grade": "q2", "length": 135.52295223500232 }, "geometry": { "type": "LineString", "coordinates": [ [ 208616.023093299561879, 526657.723822901956737 ], [ 208600.579725478950422, 526664.200515583273955 ], [ 208581.533711414958816, 526675.468058880069293 ], [ 208569.056320254865568, 526684.555978921009228 ], [ 208562.23625654031639, 526690.03161831246689 ], [ 208555.894730817351956, 526695.496653965325095 ], [ 208548.592642312898533, 526704.423419690341689 ], [ 208543.835179013432935, 526711.998781749163754 ], [ 208536.091608663613442, 526728.083587428904139 ], [ 208524.309151872526854, 526751.023109042085707 ] ] } },
{ "type": "Feature", "properties": { "route_id": "043", "heat_score": 65.31, "heat_grade": "q4", "length": 109.26630965261704 }, "geometry": { "type": "LineString", "coordinates": [ [ 208421.803490062127821, 526712.91836823313497 ], [ 208426.887431628012564, 526715.420628578751348 ], [ 208517.950136542523978, 526747.620519781252369 ], [ 208524.309151872526854, 526751.023109042085707 ] ] } },
{ "type": "Feature", "properties": { "route_id": "043", "heat_score": 71.38, "heat_grade": "q5", "length": 129.13257290860739 }, "geometry": { "type": "LineString", "coordinates": [ [ 208421.803490062127821, 526712.91836823313497 ], [ 208394.12187352636829, 526684.922553189098835 ], [ 208392.218386369291693, 526683.200390057405457 ], [ 208331.916831543872831, 526620.189937266986817 ] ] } },
{ "type": "Feature", "properties": { "route_id": "043", "heat_score": 48.02, "heat_grade": "q1", "length": 144.81239669498521 }, "geometry": { "type": "LineString", "coordinates": [ [ 208363.606569596886402, 526495.098015221301466 ], [ 208364.34738582643331, 526551.87824035785161 ], [ 208364.932053991477005, 526596.416762576904148 ], [ 208364.447386997693684, 526602.564800238586031 ], [ 208356.359516164840898, 526608.716343112755567 ], [ 208342.57323255969095, 526615.328346312046051 ], [ 208331.916831543872831, 526620.189937266986817 ] ] } },
{ "type": "Feature", "properties": { "route_id": "043", "heat_score": 33.57, "heat_grade": "q1", "length": 128.05076654938193 }, "geometry": { "type": "LineString", "coordinates": [ [ 208491.958848752547055, 526495.105149562470615 ], [ 208363.606569596886402, 526495.098015221301466 ] ] } },
{ "type": "Feature", "properties": { "route_id": "043", "heat_score": 33.29, "heat_grade": "q1", "length": 174.61377968807045 }, "geometry": { "type": "LineString", "coordinates": [ [ 208493.340843451704131, 526320.828183164587244 ], [ 208491.958848752547055, 526495.105149562470615 ] ] } }
]
}
