{
"type": "FeatureCollection",
"name": "045_edges",
"crs": { "type": "name", "properties": { "name": "urn:ogc:def:crs:EPSG::5186" } },
"features": [
{ "type": "Feature", "properties": { "route_id": "045", "heat_score": 43.83, "heat_grade": "q1", "length": 670.95325412828743 }, "geometry": { "type": "LineString", "coordinates": [ [ 211395.466842452005949, 525296.540047490270808 ], [ 211331.20744398565148, 525298.805717759416439 ], [ 211268.30832018746878, 525297.943960851873271 ], [ 211227.744991688261507, 525296.191424164222553 ], [ 211174.211073925427627, 525290.859179563005455 ], [ 211137.011526806425536, 525285.515688435640186 ], [ 211096.990301143669058, 525275.906836210051551 ], [ 211038.963638749031816, 525263.100279499776661 ], [ 211003.14921903598588, 525255.694906814373098 ], [ 210940.412789740599692, 525231.795543515589088 ], [ 210871.372262267599581, 525202.705513019114733 ], [ 210813.984984462003922, 525174.552260765223764 ], [ 210771.142013049597153, 525146.129538631299511 ], [ 210755.298312923347112, 525136.486864144098945 ] ] } },
{ "type": "Feature", "properties": { "route_id": "045", "heat_score": 64.91, "heat_grade": "q3", "length": 913.29547052564305 }, "geometry": { "type": "LineString", "coordinates": [ [ 212291.094383592164377, 525447.268936653155833 ], [ 212267.519432160799624, 525441.174634919851087 ], [ 212203.290284335118486, 525423.25674147659447 ], [ 212185.598422358860262, 525418.325480999192223 ], [ 212082.216238106513629, 525391.961239211726934 ], [ 211917.105195960320998, 525345.721743843518198 ], [ 211835.4913806298282, 525323.675548010505736 ], [ 211744.263723517535254, 525305.900647727074102 ], [ 211678.188689578179037, 525294.521167103433982 ], [ 211639.399273917893879, 525291.859040777315386 ], [ 211581.068368223815924, 525288.226683579618111 ], [ 211469.888529204792576, 525290.393241636455059 ], [ 211395.466842452005949, 525296.540047490270808 ] ] } },
{ "type": "Feature", "properties": { "route_id": "045", "heat_score": 68.5, "heat_grade": "q4", "length": 51.130317355649701 }, "geometry": { "type": "LineString", "coordinates": [ [ 212291.094383592164377, 525447.268936653155833 ], [ 212285.830240719835274, 525447.028145325020887 ], [ 212269.461746575572761, 525446.293848754721694 ], [ 212258.880590242653852, 525445.601349379634485 ], [ 212254.068544236070011, 525445.294649376301095 ], [ 212244.901972326479154, 525446.968199663911946 ], [ 212240.927395989594515, 525449.736992132500745 ] ] } },
{ "type": "Feature", "properties": { "route_id": "045", "heat_score": 63.01, "heat_grade": "q3", "length": 325.01462602858788 }, "geometry": { "type": "LineString", "coordinates": [ [ 211926.848863443214213, 525386.932911764713936 ], [ 211961.684361047140555, 525396.194277512491681 ], [ 211976.713263175304746, 525397.924912963761017 ], [ 212000.351486731466139, 525397.204060842748731 ], [ 212013.458644095517229, 525397.888758065761067 ], [ 212030.54292555336724, 525400.166261100792326 ], [ 212060.258572569757234, 525407.323084461386316 ], [ 212117.678567364462651, 525421.145807627937756 ], [ 212129.360140178410802, 525427.000483625917695 ], [ 212156.810960682720179, 525443.454839872079901 ], [ 212165.782870962138986, 525447.651970518287271 ], [ 212175.323392990801949, 525450.88437564286869 ], [ 212185.212010048475349, 525452.430339477956295 ], [ 212195.075845376471989, 525452.733256712905131 ], [ 212204.506585414288566, 525452.225370247615501 ], [ 212232.958958485804033, 525450.280268815928139 ], [ 212240.927395989594515, 525449.736992132500745 ] ] } },
{ "type": "Feature", "properties": { "route_id": "045", "heat_score": 56.83, "heat_grade": "q2", "length": 169.95662933162413 }, "geometry": { "type": "LineString", "coordinates": [ [ 211926.848863443214213, 525386.932911764713936 ], [ 211762.051372605463257, 525343.948757704929449 ] ] } },
{ "type": "Feature", "properties": { "route_id": "045", "heat_score": 60.33, "heat_grade": "q3", "length": 111.05373199970023 }, "geometry": { "type": "LineString", "coordinates": [ [ 211762.051372605463257, 525343.948757704929449 ], [ 211683.001200997648994, 525326.335915336036123 ], [ 211653.532986770209391, 525319.269565405906178 ] ] } },
{ "type": "Feature", "properties": { "route_id": "045", "heat_score": 42.92, "heat_grade": "q1", "length": 56.512670055170787 }, "geometry": { "type": "LineString", "coordinates": [ [ 211653.532986770209391, 525319.269565405906178 ], [ 211655.564714354462922, 525305.010939335683361 ], [ 211655.869050238281488, 525302.858271894743666 ], [ 211659.026355377282016, 525263.152566809440032 ] ] } },
{ "type": "Feature", "properties": { "route_id": "045", "heat_score": 58.28, "heat_grade": "q2", "length": 245.59763534835608 }, "geometry": { "type": "LineString", "coordinates": [ [ 211414.445440982352011, 525281.305585301946849 ], [ 211529.324301491957158, 525270.47552719770465 ], [ 211580.343294366379268, 525261.367537424899638 ], [ 211604.560141336085508, 525259.070393383037299 ], [ 211626.919572055106983, 525260.422116113360971 ], [ 211659.026355377282016, 525263.152566809440032 ] ] } },
{ "type": "Feature", "properties": { "route_id": "045", "heat_score": 39.79, "heat_grade": "q1", "length": 683.07642429187786 }, "geometry": { "type": "LineString", "coordinates": [ [ 210758.444102844048757, 525130.064930918859318 ], [ 210761.489929229544941, 525132.466098467237316 ], [ 210766.936582736612763, 525135.702733280835673 ], [ 210772.392095131566748, 525138.939383061835542 ], [ 210774.641864003002411, 525140.074313936987892 ], [ 210825.686542448500404, 525165.91062547499314 ], [ 210909.949435910501052, 525205.496983680990525 ], [ 210988.098064244928537, 525236.807860273169354 ], [ 211036.365650715160882, 525250.51126590766944 ], [ 211084.078958728961879, 525261.006778272567317 ], [ 211097.378413226135308, 525263.932172603206709 ], [ 211150.342912644991884, 525271.072206780081615 ], [ 211200.932973946910352, 525277.521299161016941 ], [ 211261.74422565830173, 525282.275281673762947 ], [ 211332.698153209610609, 525284.424201378948055 ], [ 211394.458509263000451, 525282.01086239668075 ], [ 211414.445440982352011, 525281.305585301946849 ] ] } },
{ "type": "Feature", "properties": { "route_id": "045", "heat_score": 35.08, "heat_grade": "q1", "length": 7.1587930607012993 }, "geometry": { "type": "LineString", "coordinates": [ [ 210758.444102844048757, 525130.064930918859318 ], [ 210755.298312923347112, 525136.486864144098945 ] ] } }
]
}
