{
"type": "FeatureCollection",
"name": "052_edges",
"crs": { "type": "name", "properties": { "name": "urn:ogc:def:crs:EPSG::5186" } },
"features": [
{ "type": "Feature", "properties": { "route_id": "052", "heat_score": 43.83, "heat_grade": "q1", "length": 670.95325412828743 }, "geometry": { "type": "LineString", "coordinates": [ [ 211395.466842452005949, 525296.540047490270808 ], [ 211331.20744398565148, 525298.805717759416439 ], [ 211268.30832018746878, 525297.943960851873271 ], [ 211227.744991688261507, 525296.191424164222553 ], [ 211174.211073925427627, 525290.859179563005455 ], [ 211137.011526806425536, 525285.515688435640186 ], [ 211096.990301143669058, 525275.906836210051551 ], [ 211038.963638749031816, 525263.100279499776661 ], [ 211003.14921903598588, 525255.694906814373098 ], [ 210940.412789740599692, 525231.795543515589088 ], [ 210871.372262267599581, 525202.705513019114733 ], [ 210813.984984462003922, 525174.552260765223764 ], [ 210771.142013049597153, 525146.129538631299511 ], [ 210755.298312923347112, 525136.486864144098945 ] ] } },
{ "type": "Feature", "properties": { "route_id": "052", "heat_score": 64.91, "heat_grade": "q3", "length": 913.29547052564305 }, "geometry": { "type": "LineString", "coordinates": [ [ 212291.094383592164377, 525447.268936653155833 ], [ 212267.519432160799624, 525441.174634919851087 ], [ 212203.290284335118486, 525423.25674147659447 ], [ 212185.598422358860262, 525418.325480999192223 ], [ 212082.216238106513629, 525391.961239211726934 ], [ 211917.105195960320998, 525345.721743843518198 ], [ 211835.4913806298282, 525323.675548010505736 ], [ 211744.263723517535254, 525305.900647727074102 ], [ 211678.188689578179037, 525294.521167103433982 ], [ 211639.399273917893879, 525291.859040777315386 ], [ 211581.068368223815924, 525288.226683579618111 ], [ 211469.888529204792576, 525290.393241636455059 ], [ 211395.466842452005949, 525296.540047490270808 ] ] } },
{ "type": "Feature", "properties": { "route_id": "052", "heat_score": 68.5, "heat_grade": "q4", "length": 51.130317355649701 }, "geometry": { "type": "LineString", "coordinates": [ [ 212291.094383592164377, 525447.268936653155833 ], [ 212285.830240719835274, 525447.028145325020887 ], [ 212269.461746575572761, 525446.293848754721694 ], [ 212258.880590242653852, 525445.601349379634485 ], [ 212254.068544236070011, 525445.294649376301095 ], [ 212244.901972326479154, 525446.968199663911946 ], [ 212240.927395989594515, 525449.736992132500745 ] ] } },
{ "type": "Feature", "properties": { "route_id": "052", "heat_score": 63.01, "heat_grade": "q3", "length": 325.01462602858788 }, "geometry": { "type": "LineString", "coordinates": [ [ 211926.848863443214213, 525386.932911764713936 ], [ 211961.684361047140555, 525396.194277512491681 ], [ 211976.713263175304746, 525397.924912963761017 ], [ 212000.351486731466139, 525397.204060842748731 ], [ 212013.458644095517229, 525397.888758065761067 ], [ 212030.54292555336724, 525400.166261100792326 ], [ 212060.258572569757234, 525407.323084461386316 ], [ 212117.678567364462651, 525421.145807627937756 ], [ 212129.360140178410802, 525427.000483625917695 ], [ 212156.810960682720179, 525443.454839872079901 ], [ 212165.782870962138986, 525447.651970518287271 ], [ 212175.323392990801949, 525450.88437564286869 ], [ 212185.212010048475349, 525452.430339477956295 ], [ 212195.075845376471989, 525452.733256712905131 ], [ 212204.506585414288566, 525452.225370247615501 ], [ 212232.958958485804033, 525450.280268815928139 ], [ 212240.927395989594515, 525449.736992132500745 ] ] } },
{ "type": "Feature", "properties": { "route_id": "052", "heat_score": 56.83, "heat_grade": "q2", "length": 169.95662933162413 }, "geometry": { "type": "LineString", "coordinates": [ [ 211926.848863443214213, 525386.932911764713936 ], [ 211762.051372605463257, 525343.948757704929449 ] ] } },
{ "type": "Feature", "properties": { "route_id": "052", "heat_score": 64.5, "heat_grade": "q3", "length": 188.24940563195298 }, "geometry": { "type": "LineString", "coordinates": [ [ 211771.97768995151273, 525526.875601847073995 ], [ 211772.268940881651361, 525521.437789600808173 ], [ 211771.454451693833107, 525470.372855091816746 ], [ 211766.81677362168557, 525453.197096208692528 ], [ 211750.416024746373296, 525405.950333174783736 ], [ 211749.401361027063103, 525396.382080618524924 ], [ 211751.475788236013614, 525383.377655727788806 ], [ 211762.051372605463257, 525343.948757704929449 ] ] } },
{ "type": "Feature", "properties": { "route_id": "052", "heat_score": 51.53, "heat_grade": "q2", "length": 28.057081923680435 }, "geometry": { "type": "LineString", "coordinates": [ [ 211771.97768995151273, 525526.875601847073995 ], [ 211773.898722021811409, 525541.028777607018128 ], [ 211777.886181830108399, 525554.16380637686234 ] ] } },
{ "type": "Feature", "properties": { "route_id": "052", "heat_score": 50.8, "heat_grade": "q2", "length": 30.128039337812979 }, "geometry": { "type": "LineString", "coordinates": [ [ 211749.467047674639616, 525564.334422504412942 ], [ 211777.886181830108399, 525554.16380637686234 ] ] } },
{ "type": "Feature", "properties": { "route_id": "052", "heat_score": 55.17, "heat_grade": "q2", "length": 54.203733908981256 }, "geometry": { "type": "LineString", "coordinates": [ [ 211802.120126569236163, 525576.905278100050054 ], [ 211781.656865793833276, 525570.184119586716406 ], [ 211773.612742894387338, 525567.930926498025656 ], [ 211760.879202377749607, 525566.43694417795632 ], [ 211749.467047674639616, 525564.334422504412942 ] ] } },
{ "type": "Feature", "properties": { "route_id": "052", "heat_score": 40.58, "heat_grade": "q1", "length": 163.41399999142578 }, "geometry": { "type": "LineString", "coordinates": [ [ 211802.120126569236163, 525576.905278100050054 ], [ 211815.618412235169671, 525589.132567472639494 ], [ 211829.025163387559587, 525603.390759298810735 ], [ 211836.839984005724546, 525617.352507934090681 ], [ 211842.455165205843514, 525632.509781852015294 ], [ 211844.687067309452686, 525652.345804348704405 ], [ 211844.799125894176541, 525667.106853827252053 ], [ 211834.667491879226873, 525724.770990287302993 ] ] } },
{ "type": "Feature", "properties": { "route_id": "052", "heat_score": 52.59, "heat_grade": "q2", "length": 191.17329585762343 }, "geometry": { "type": "LineString", "coordinates": [ [ 211834.667491879226873, 525724.770990287302993 ], [ 211829.12974686868256, 525723.841996886068955 ], [ 211819.968125251296442, 525722.286379683413543 ], [ 211766.960435644927202, 525723.077398606576025 ], [ 211714.898732117086183, 525719.186545489937998 ], [ 211694.095314798934851, 525721.432641442632303 ], [ 211643.671326410607435, 525725.213522951700725 ] ] } },
{ "type": "Feature", "properties": { "route_id": "052", "heat_score": 48.31, "heat_grade": "q1", "length": 209.55900391041885 }, "geometry": { "type": "LineString", "coordinates": [ [ 211643.671326410607435, 525725.213522951700725 ], [ 211638.516551483975491, 525703.786417310941033 ], [ 211623.954219143255614, 525698.283573144814 ], [ 211608.142839294101577, 525698.749969357275404 ], [ 211568.558846247731708, 525701.636267849942669 ], [ 211530.993577334855217, 525693.071970485965721 ], [ 211480.614031939505367, 525677.298491758527234 ], [ 211463.146525072341319, 525670.415742262033746 ], [ 211457.424412910680985, 525668.154933164361864 ], [ 211456.910659321991261, 525667.954458801075816 ] ] } },
{ "type": "Feature", "properties": { "route_id": "052", "heat_score": 65.76, "heat_grade": "q4", "length": 147.97492800873135 }, "geometry": { "type": "LineString", "coordinates": [ [ 211456.910659321991261, 525667.954458801075816 ], [ 211447.537577139330097, 525678.363049044157378 ], [ 211417.112603900779504, 525710.773269270779565 ], [ 211398.985072105162544, 525726.51941736030858 ], [ 211375.561856239713961, 525739.317329287994653 ], [ 211362.269758434937103, 525744.65981577092316 ], [ 211337.650242816569516, 525744.3489843911957 ] ] } },
{ "type": "Feature", "properties": { "route_id": "052", "heat_score": 75.36, "heat_grade": "q5", "length": 89.27354093890844 }, "geometry": { "type": "LineString", "coordinates": [ [ 211253.435026716120774, 525773.734962167800404 ], [ 211271.09159482648829, 525765.224030637764372 ], [ 211295.749600550305331, 525756.66708628309425 ], [ 211319.077659567119554, 525748.574549912125804 ], [ 211337.650242816569516, 525744.3489843911957 ] ] } },
{ "type": "Feature", "properties": { "route_id": "052", "heat_score": 49.46, "heat_grade": "q2", "length": 248.82482166719115 }, "geometry": { "type": "LineString", "coordinates": [ [ 211253.435026716120774, 525773.734962167800404 ], [ 211251.2715521271748, 525774.508943760185502 ], [ 211247.139055598701816, 525776.445614270167425 ], [ 211213.351974724180764, 525792.282128786086105 ], [ 211161.328215756308055, 525793.311364238383248 ], [ 211134.784575414378196, 525793.842043626471423 ], [ 211008.166777583537623, 525794.207348992000334 ] ] } },
{ "type": "Feature", "properties": { "route_id": "052", "heat_score": 59.34, "heat_grade": "q3", "length": 46.849593304331876 }, "geometry": { "type": "LineString", "coordinates": [ [ 211008.645909671555273, 525840.965592179913074 ], [ 211008.166777583537623, 525794.207348992000334 ] ] } },
{ "type": "Feature", "properties": { "route_id": "052", "heat_score": 67.34, "heat_grade": "q4", "length": 83.880502302054055 }, "geometry": { "type": "LineString", "coordinates": [ [ 210924.569296578731155, 525840.47812842798885 ], [ 211008.645909671555273, 525840.965592179913074 ] ] } },
{ "type": "Feature", "properties": { "route_id": "052", "heat_score": 62.74, "heat_grade": "q3", "length": 36.439246782464522 }, "geometry": { "type": "LineString", "coordinates": [ [ 210924.569296578731155, 525840.47812842798885 ], [ 210924.30914937457419, 525876.847288854653016 ] ] } },
{ "type": "Feature", "properties": { "route_id": "052", "heat_score": 30.8, "heat_grade": "q1", "length": 156.84869159074901 }, "geometry": { "type": "LineString", "coordinates": [ [ 210767.131257206754526, 525880.383860115893185 ], [ 210924.30914937457419, 525876.847288854653016 ] ] } },
{ "type": "Feature", "properties": { "route_id": "052", "heat_score": 43.82, "heat_grade": "q1", "length": 43.721906920075696 }, "geometry": { "type": "LineString", "coordinates": [ [ 210767.131257206754526, 525880.383860115893185 ], [ 210767.187373242195463, 525836.744974720641039 ] ] } },
{ "type": "Feature", "properties": { "route_id": "052", "heat_score": 40.25, "heat_grade": "q1", "length": 108.07854582972138 }, "geometry": { "type": "LineString", "coordinates": [ [ 210767.187373242195463, 525836.744974720641039 ], [ 210670.809808380407048, 525836.210955055546947 ], [ 210659.007541419588961, 525834.320290997158736 ] ] } },
{ "type": "Feature", "properties": { "route_id": "052", "heat_score": 70.72, "heat_grade": "q4", "length": 40.551490891650715 }, "geometry": { "type": "LineString", "coordinates": [ [ 210657.924580761347897, 525793.920695902896114 ], [ 210657.274345541431103, 525810.423205345403403 ], [ 210659.007541419588961, 525834.320290997158736 ] ] } },
{ "type": "Feature", "properties": { "route_id": "052", "heat_score": 48.3, "heat_grade": "q1", "length": 127.95416137239326 }, "geometry": { "type": "LineString", "coordinates": [ [ 210657.924580761347897, 525793.920695902896114 ], [ 210660.040194046159741, 525740.195984488585964 ], [ 210661.68628210213501, 525707.224705238011666 ], [ 210666.630148191499757, 525666.588627659832127 ] ] } },
{ "type": "Feature", "properties": { "route_id": "052", "heat_score": 52.74, "heat_grade": "q2", "length": 246.34395145126314 }, "geometry": { "type": "LineString", "coordinates": [ [ 210666.630148191499757, 525666.588627659832127 ], [ 210675.108493553503649, 525669.029983457527123 ], [ 210694.263926209881902, 525673.249624151620083 ], [ 210715.929663123795763, 525675.730070655001327 ], [ 210721.788160492433235, 525675.44901132537052 ], [ 210735.9602321832499, 525674.767969791544601 ], [ 210756.249872155545745, 525672.20807868510019 ], [ 210908.050735599856125, 525635.702008004300296 ] ] } },
{ "type": "Feature", "properties": { "route_id": "052", "heat_score": 52.32, "heat_grade": "q2", "length": 255.58077717319779 }, "geometry": { "type": "LineString", "coordinates": [ [ 210908.050735599856125, 525635.702008004300296 ], [ 210960.173241703567328, 525620.887100613908842 ], [ 211013.326595199730946, 525610.835090649197809 ], [ 211029.4756862570066, 525609.757603161851875 ], [ 211101.07558178412728, 525610.606908199028112 ], [ 211161.089305315399542, 525613.505679040681571 ] ] } },
{ "type": "Feature", "properties": { "route_id": "052", "heat_score": 50.63, "heat_grade": "q2", "length": 201.08902559136519 }, "geometry": { "type": "LineString", "coordinates": [ [ 211359.252829201577697, 525584.050603595911525 ], [ 211352.150829864578554, 525586.282851602416486 ], [ 211345.465572815941414, 525588.371390908258036 ], [ 211304.912274255708326, 525599.936580588924699 ], [ 211259.68262412364129, 525609.275995075004175 ], [ 211239.429300709452946, 525610.957941531552933 ], [ 211216.686905695940368, 525611.659942360129207 ], [ 211175.643366991600487, 525612.259871436865069 ], [ 211161.089305315399542, 525613.505679040681571 ] ] } },
{ "type": "Feature", "properties": { "route_id": "052", "heat_score": 53.31, "heat_grade": "q2", "length": 113.84027254886718 }, "geometry": { "type": "LineString", "coordinates": [ [ 211359.252829201577697, 525584.050603595911525 ], [ 211361.870080266497098, 525575.475083016324788 ], [ 211361.164138961292338, 525560.147220593411475 ], [ 211351.626076316111721, 525541.888499489286914 ], [ 211336.133432418224402, 525529.293014182127081 ], [ 211327.875186445569852, 525527.972226541955024 ], [ 211314.665712724963669, 525530.97313535772264 ], [ 211309.675804315687856, 525537.69203081051819 ], [ 211308.307346196466824, 525546.924059516284615 ], [ 211304.148354450240731, 525555.264448323985562 ] ] } },
{ "type": "Feature", "properties": { "route_id": "052", "heat_score": 52.81, "heat_grade": "q2", "length": 253.84369903936658 }, "geometry": { "type": "LineString", "coordinates": [ [ 211304.148354450240731, 525555.264448323985562 ], [ 211291.334957789513282, 525540.619457227294333 ], [ 211271.221245255175745, 525517.463275671005249 ], [ 211248.941116838162998, 525497.134327403502539 ], [ 211230.734574595349841, 525485.778415422071703 ], [ 211189.587788651871961, 525463.692994085722603 ], [ 211138.002640008606249, 525439.940223989542574 ], [ 211125.729790901590604, 525431.677793427254073 ], [ 211097.651380975323264, 525412.418096572626382 ] ] } },
{ "type": "Feature", "properties": { "route_id": "052", "heat_score": 39.12, "heat_grade": "q1", "length": 200.86712426080794 }, "geometry": { "type": "LineString", "coordinates": [ [ 210916.295951434440212, 525449.825521427672356 ], [ 210986.730837575683836, 525461.515468348748982 ], [ 211017.312101721676299, 525464.663199867354706 ], [ 211038.994668449944584, 525461.439920822973363 ], [ 211059.819299581839005, 525450.191416554967873 ], [ 211097.651380975323264, 525412.418096572626382 ] ] } },
{ "type": "Feature", "properties": { "route_id": "052", "heat_score": 40.74, "heat_grade": "q1", "length": 462.21261007021968 }, "geometry": { "type": "LineString", "coordinates": [ [ 210916.295951434440212, 525449.825521427672356 ], [ 210781.661902721709339, 525387.555524650146253 ], [ 210649.4633507951512, 525318.165627415757626 ], [ 210555.430825797608122, 525273.586382017936558 ], [ 210500.11450994972256, 525247.357913236133754 ] ] } },
{ "type": "Feature", "properties": { "route_id": "052", "heat_score": 62.77, "heat_grade": "q3", "length": 45.72249080286565 }, "geometry": { "type": "LineString", "coordinates": [ [ 210500.11450994972256, 525247.357913236133754 ], [ 210459.104309009155259, 525226.985424810322002 ] ] } },
{ "type": "Feature", "properties": { "route_id": "052", "heat_score": 67.23, "heat_grade": "q4", "length": 81.005683478955888 }, "geometry": { "type": "LineString", "coordinates": [ [ 210459.104309009155259, 525226.985424810322002 ], [ 210489.769089867389994, 525171.36530149995815 ], [ 210503.555711642722599, 525160.672625243547373 ] ] } },
{ "type": "Feature", "properties": { "route_id": "052", "heat_score": 39.32, "heat_grade": "q1", "length": 142.27267643117676 }, "geometry": { "type": "LineString", "coordinates": [ [ 210407.031320296111517, 525072.31985974649433 ], [ 210419.874869307386689, 525071.669925012160093 ], [ 210442.631151634996058, 525075.160967605188489 ], [ 210450.772128660872113, 525078.58942856581416 ], [ 210472.002443600271363, 525111.611484577762894 ], [ 210503.555711642722599, 525160.672625243547373 ] ] } },
{ "type": "Feature", "properties": { "route_id": "052", "heat_score": 34.23, "heat_grade": "q1", "length": 124.85916112533722 }, "geometry": { "type": "LineString", "coordinates": [ [ 210407.031320296111517, 525072.31985974649433 ], [ 210337.668796585610835, 525078.948488081805408 ], [ 210317.407616573094856, 525086.126363781397231 ], [ 210283.977291844203137, 525092.111677528358996 ] ] } },
{ "type": "Feature", "properties": { "route_id": "052", "heat_score": 39.82, "heat_grade": "q1", "length": 26.7389793848292 }, "geometry": { "type": "LineString", "coordinates": [ [ 210257.770958515204256, 525097.706426986726001 ], [ 210283.977291844203137, 525092.111677528358996 ] ] } },
{ "type": "Feature", "properties": { "route_id": "052", "heat_score": 43.75, "heat_grade": "q1", "length": 13.694347871754083 }, "geometry": { "type": "LineString", "coordinates": [ [ 210257.770958515204256, 525097.706426986726001 ], [ 210254.673620891437167, 525101.054349965997972 ], [ 210250.470269394892966, 525102.869341543060727 ], [ 210245.896949406043859, 525102.819351874059066 ] ] } },
{ "type": "Feature", "properties": { "route_id": "052", "heat_score": 51.93, "heat_grade": "q2", "length": 133.6292396113239 }, "geometry": { "type": "LineString", "coordinates": [ [ 210150.869751323771197, 525180.447912561474368 ], [ 210187.588008208665997, 525159.738492830307223 ], [ 210208.867724590323633, 525123.827793140197173 ], [ 210243.779202520439867, 525116.867332411697134 ], [ 210245.896949406043859, 525102.819351874059066 ] ] } },
{ "type": "Feature", "properties": { "route_id": "052", "heat_score": 78.09, "heat_grade": "q5", "length": 148.55844944072103 }, "geometry": { "type": "LineString", "coordinates": [ [ 210007.15668328240281, 525208.919923171633855 ], [ 210084.500388622487662, 525182.753888272447512 ], [ 210105.237261139438488, 525177.629227059776895 ], [ 210107.905842594336718, 525176.966543516842648 ], [ 210150.869751323771197, 525180.447912561474368 ] ] } },
{ "type": "Feature", "properties": { "route_id": "052", "heat_score": 75.92, "heat_grade": "q5", "length": 73.182869088438451 }, "geometry": { "type": "LineString", "coordinates": [ [ 209936.036991022439906, 525226.182040143990889 ], [ 209968.700638174719643, 525215.832755863317288 ], [ 210007.15668328240281, 525208.919923171633855 ] ] } },
{ "type": "Feature", "properties": { "route_id": "052", "heat_score": 65.99, "heat_grade": "q4", "length": 91.322859226537417 }, "geometry": { "type": "LineString", "coordinates": [ [ 209898.070605705055641, 525306.345208359067328 ], [ 209901.722534516826272, 525291.011537897516973 ], [ 209913.345812220708467, 525250.22757523029577 ], [ 209936.036991022439906, 525226.182040143990889 ] ] } },
{ "type": "Feature", "properties": { "route_id": "052", "heat_score": 57.12, "heat_grade": "q2", "length": 114.36302680913275 }, "geometry": { "type": "LineString", "coordinates": [ [ 209898.070605705055641, 525306.345208359067328 ], [ 209933.833519495092332, 525327.907349961576983 ], [ 209938.713639358291402, 525330.721035266062245 ], [ 209944.532654923357768, 525334.013069487991743 ], [ 209953.956259241851512, 525339.495776200899854 ], [ 209995.029341942630708, 525367.146418039570563 ] ] } },
{ "type": "Feature", "properties": { "route_id": "052", "heat_score": 58.67, "heat_grade": "q3", "length": 106.12251224440242 }, "geometry": { "type": "LineString", "coordinates": [ [ 210080.045041800069157, 525430.80886242503766 ], [ 210000.280319380690344, 525371.081520632491447 ], [ 209995.029341942630708, 525367.146418039570563 ] ] } },
{ "type": "Feature", "properties": { "route_id": "052", "heat_score": 72.35, "heat_grade": "q5", "length": 39.30952060602938 }, "geometry": { "type": "LineString", "coordinates": [ [ 210069.959509948821506, 525467.388161170994863 ], [ 210072.659821061621187, 525440.266913183731958 ], [ 210080.045041800069157, 525430.80886242503766 ] ] } },
{ "type": "Feature", "properties": { "route_id": "052", "heat_score": 71.86, "heat_grade": "q5", "length": 50.992403167753551 }, "geometry": { "type": "LineString", "coordinates": [ [ 210104.860747250670101, 525504.354589757043868 ], [ 210099.304847600695211, 525496.157265742309391 ], [ 210069.959509948821506, 525467.388161170994863 ] ] } },
{ "type": "Feature", "properties": { "route_id": "052", "heat_score": 76.23, "heat_grade": "q5", "length": 13.896412788302156 }, "geometry": { "type": "LineString", "coordinates": [ [ 210112.637178386066807, 525515.861923125805333 ], [ 210104.860747250670101, 525504.354589757043868 ] ] } },
{ "type": "Feature", "properties": { "route_id": "052", "heat_score": 54.16, "heat_grade": "q2", "length": 62.450877426956879 }, "geometry": { "type": "LineString", "coordinates": [ [ 210112.637178386066807, 525515.861923125805333 ], [ 210153.788112193811685, 525507.399243000661954 ], [ 210158.172061643650522, 525502.643344620708376 ], [ 210167.712028878886485, 525492.311210338375531 ] ] } },
{ "type": "Feature", "properties": { "route_id": "052", "heat_score": 61.31, "heat_grade": "q3", "length": 34.147714328568945 }, "geometry": { "type": "LineString", "coordinates": [ [ 210167.712028878886485, 525492.311210338375531 ], [ 210177.824186208221363, 525499.781621662317775 ], [ 210194.637985548266442, 525513.342126606963575 ] ] } },
{ "type": "Feature", "properties": { "route_id": "052", "heat_score": 36.42, "heat_grade": "q1", "length": 17.537889448690049 }, "geometry": { "type": "LineString", "coordinates": [ [ 210208.823438319697743, 525523.680923901731148 ], [ 210194.637985548266442, 525513.342126606963575 ] ] } },
{ "type": "Feature", "properties": { "route_id": "052", "heat_score": 46.69, "heat_grade": "q1", "length": 140.42382488338941 }, "geometry": { "type": "LineString", "coordinates": [ [ 210339.724666910071392, 525574.57233941112645 ], [ 210272.104560897278134, 525551.382238593418151 ], [ 210247.654189178399974, 525542.728821208118461 ], [ 210225.191688930499367, 525531.880418496439233 ], [ 210208.823438319697743, 525523.680923901731148 ] ] } },
{ "type": "Feature", "properties": { "route_id": "052", "heat_score": 43.36, "heat_grade": "q1", "length": 142.60687366537377 }, "geometry": { "type": "LineString", "coordinates": [ [ 210476.147342895012116, 525617.071222197962925 ], [ 210339.724666910071392, 525574.57233941112645 ] ] } },
{ "type": "Feature", "properties": { "route_id": "052", "heat_score": 28.92, "heat_grade": "q1", "length": 18.677085184133787 }, "geometry": { "type": "LineString", "coordinates": [ [ 210476.147342895012116, 525617.071222197962925 ], [ 210494.016236136871157, 525622.631701545789838 ] ] } },
{ "type": "Feature", "properties": { "route_id": "052", "heat_score": 38.61, "heat_grade": "q1", "length": 161.6297406593182 }, "geometry": { "type": "LineString", "coordinates": [ [ 210451.499096714891493, 525774.371456585358828 ], [ 210446.18132264574524, 525746.208156388485804 ], [ 210447.911383567610756, 525737.597949524526484 ], [ 210452.64577284938423, 525721.932904954301193 ], [ 210465.262569591432111, 525689.186162327183411 ], [ 210494.016236136871157, 525622.631701545789838 ] ] } },
{ "type": "Feature", "properties": { "route_id": "052", "heat_score": 33.42, "heat_grade": "q1", "length": 301.77118400622066 }, "geometry": { "type": "LineString", "coordinates": [ [ 210572.118876254739007, 525498.960515211569145 ], [ 210536.799371767818229, 525577.670288032502867 ], [ 210526.94665160292061, 525596.802647797507234 ], [ 210484.702167428506073, 525678.844567168504 ], [ 210476.810310257656965, 525696.370174325187691 ], [ 210471.280680572526762, 525710.080890414887108 ], [ 210464.55763069173554, 525728.484745764406398 ], [ 210459.540788862708723, 525743.217164633912034 ], [ 210451.499096714891493, 525774.371456585358828 ] ] } },
{ "type": "Feature", "properties": { "route_id": "052", "heat_score": 42.98, "heat_grade": "q1", "length": 406.84924398104954 }, "geometry": { "type": "LineString", "coordinates": [ [ 210755.298312923347112, 525136.486864144098945 ], [ 210725.940056043415098, 525194.69361937395297 ], [ 210674.986760545551078, 525298.709327792748809 ], [ 210663.722120093210833, 525319.47118626977317 ], [ 210638.120940482825972, 525372.311418816563673 ], [ 210622.756847665237729, 525404.011153764324263 ], [ 210603.782019679725636, 525445.628318913397379 ], [ 210591.121598856261699, 525470.106476800516248 ], [ 210572.118876254739007, 525498.960515211569145 ] ] } }
]
}
