{
"type": "FeatureCollection",
"name": "055_edges",
"crs": { "type": "name", "properties": { "name": "urn:ogc:def:crs:EPSG::5186" } },
"features": [
{ "type": "Feature", "properties": { "route_id": "055", "heat_score": 44.94, "heat_grade": "q1", "length": 410.0623892734576 }, "geometry": { "type": "LineString", "coordinates": [ [ 210572.118876254739007, 525498.960515211569145 ], [ 210582.723762578971218, 525452.871135694440454 ], [ 210590.76303847876261, 525431.261606952641159 ], [ 210605.60088398316293, 525395.066292545292526 ], [ 210618.192118830309482, 525369.356148315127939 ], [ 210656.8104244202259, 525290.528852832969278 ], [ 210675.862150522472803, 525251.642120408010669 ], [ 210710.233926301269094, 525181.466422050143592 ], [ 210738.108722114004195, 525125.799244579742663 ] ] } },
{ "type": "Feature", "properties": { "route_id": "055", "heat_score": 37.63, "heat_grade": "q1", "length": 1115.2173085110355 }, "geometry": { "type": "LineString", "coordinates": [ [ 210738.108722114004195, 525125.799244579742663 ], [ 210720.762421137478668, 525112.869583310442977 ], [ 210665.270806358661503, 525077.705596592277288 ], [ 210601.832728331442922, 525032.143818075070158 ], [ 210521.971543658757582, 524978.559933671494946 ], [ 210488.980929593322799, 524958.530342068755999 ], [ 210453.370178463781485, 524942.748296481906436 ], [ 210410.077475451660575, 524924.803763132658787 ], [ 210361.178167548030615, 524910.725856820121408 ], [ 210322.797122263087658, 524905.772975209983997 ], [ 210265.569913788465783, 524902.961336827138439 ], [ 210223.847273040562868, 524905.28536040277686 ], [ 210209.697720139607554, 524908.275765386642888 ], [ 210150.137256928603165, 524921.887694476405159 ], [ 210096.599955654004589, 524938.892315437784418 ], [ 210084.052010033396073, 524944.171132473740727 ], [ 210057.714666791725904, 524955.260054950485937 ], [ 210017.698559156619012, 524976.088176714139991 ], [ 209974.839223699236754, 525002.950629541417584 ], [ 209955.608087183965836, 525016.090443862369284 ], [ 209944.588503735925769, 525025.732955729472451 ], [ 209940.631402504513972, 525029.190957300481386 ], [ 209915.111194808530854, 525054.187586814863607 ], [ 209907.266350529971533, 525062.457706067129038 ], [ 209891.04134102203534, 525082.027196479029953 ], [ 209867.755678844783688, 525113.929812747403048 ], [ 209847.289893539709738, 525144.781462196377106 ], [ 209826.79720859968802, 525183.579583126585931 ], [ 209817.678253189165844, 525205.299549554707482 ], [ 209813.392532012483571, 525217.025532469851896 ] ] } },
{ "type": "Feature", "properties": { "route_id": "055", "heat_score": 78.7, "heat_grade": "q5", "length": 59.113667685233509 }, "geometry": { "type": "LineString", "coordinates": [ [ 209813.392532012483571, 525217.025532469851896 ], [ 209801.639895135886036, 525232.405246565467678 ], [ 209795.266662243811879, 525240.610604159301147 ], [ 209789.143641780101461, 525247.07381068833638 ], [ 209782.470997101947432, 525253.64736367855221 ], [ 209772.397187491180375, 525258.330224918201566 ] ] } },
{ "type": "Feature", "properties": { "route_id": "055", "heat_score": 77.29, "heat_grade": "q5", "length": 19.758292549472291 }, "geometry": { "type": "LineString", "coordinates": [ [ 209790.885951962671243, 525265.399302325677127 ], [ 209772.397187491180375, 525258.330224918201566 ] ] } },
{ "type": "Feature", "properties": { "route_id": "055", "heat_score": 74.75, "heat_grade": "q5", "length": 19.602307284585571 }, "geometry": { "type": "LineString", "coordinates": [ [ 209809.232956152147381, 525272.40166429139208 ], [ 209790.885951962671243, 525265.399302325677127 ] ] } },
{ "type": "Feature", "properties": { "route_id": "055", "heat_score": 43.5, "heat_grade": "q1", "length": 94.929398961497242 }, "geometry": { "type": "LineString", "coordinates": [ [ 209809.232956152147381, 525272.40166429139208 ], [ 209811.899507260590326, 525273.425840659416281 ], [ 209888.680138348281616, 525302.760430414578877 ], [ 209898.070605705055641, 525306.345208359067328 ] ] } },
{ "type": "Feature", "properties": { "route_id": "055", "heat_score": 65.99, "heat_grade": "q4", "length": 91.322859226537417 }, "geometry": { "type": "LineString", "coordinates": [ [ 209898.070605705055641, 525306.345208359067328 ], [ 209901.722534516826272, 525291.011537897516973 ], [ 209913.345812220708467, 525250.22757523029577 ], [ 209936.036991022439906, 525226.182040143990889 ] ] } },
{ "type": "Feature", "properties": { "route_id": "055", "heat_score": 75.92, "heat_grade": "q5", "length": 73.182869088438451 }, "geometry": { "type": "LineString", "coordinates": [ [ 209936.036991022439906, 525226.182040143990889 ], [ 209968.700638174719643, 525215.832755863317288 ], [ 210007.15668328240281, 525208.919923171633855 ] ] } },
{ "type": "Feature", "properties": { "route_id": "055", "heat_score": 78.09, "heat_grade": "q5", "length": 148.55844944072103 }, "geometry": { "type": "LineString", "coordinates": [ [ 210007.15668328240281, 525208.919923171633855 ], [ 210084.500388622487662, 525182.753888272447512 ], [ 210105.237261139438488, 525177.629227059776895 ], [ 210107.905842594336718, 525176.966543516842648 ], [ 210150.869751323771197, 525180.447912561474368 ] ] } },
{ "type": "Feature", "properties": { "route_id": "055", "heat_score": 68.62, "heat_grade": "q4", "length": 8.0606953562963053 }, "geometry": { "type": "LineString", "coordinates": [ [ 210158.550996877718717, 525182.943267312017269 ], [ 210150.869751323771197, 525180.447912561474368 ] ] } },
{ "type": "Feature", "properties": { "route_id": "055", "heat_score": 77.62, "heat_grade": "q5", "length": 31.539376139340472 }, "geometry": { "type": "LineString", "coordinates": [ [ 210160.462748225894757, 525214.365152540616691 ], [ 210158.550996877718717, 525182.943267312017269 ] ] } },
{ "type": "Feature", "properties": { "route_id": "055", "heat_score": 76.62, "heat_grade": "q5", "length": 96.313489048933647 }, "geometry": { "type": "LineString", "coordinates": [ [ 210160.462748225894757, 525214.365152540616691 ], [ 210105.560495100682601, 525218.249754628515802 ], [ 210067.606683347461512, 525234.962625402957201 ] ] } },
{ "type": "Feature", "properties": { "route_id": "055", "heat_score": 73.6, "heat_grade": "q5", "length": 101.77720569339932 }, "geometry": { "type": "LineString", "coordinates": [ [ 210121.625920132442843, 525308.920881877653301 ], [ 210113.900940667488612, 525291.353880173526704 ], [ 210082.123377361480379, 525279.884211827768013 ], [ 210066.137559090799186, 525247.9348876606673 ], [ 210067.606683347461512, 525234.962625402957201 ] ] } },
{ "type": "Feature", "properties": { "route_id": "055", "heat_score": 69.8, "heat_grade": "q4", "length": 41.627140322514322 }, "geometry": { "type": "LineString", "coordinates": [ [ 210127.780269530165242, 525350.014601207221858 ], [ 210121.625920132442843, 525308.920881877653301 ] ] } },
{ "type": "Feature", "properties": { "route_id": "055", "heat_score": 79.47, "heat_grade": "q5", "length": 8.249879945207752 }, "geometry": { "type": "LineString", "coordinates": [ [ 210135.496253447257914, 525352.97611080063507 ], [ 210127.780269530165242, 525350.014601207221858 ] ] } },
{ "type": "Feature", "properties": { "route_id": "055", "heat_score": 78.21, "heat_grade": "q5", "length": 36.93234366863279 }, "geometry": { "type": "LineString", "coordinates": [ [ 210159.365373276581522, 525381.050693306722678 ], [ 210153.977555924328044, 525373.08660499274265 ], [ 210135.496253447257914, 525352.97611080063507 ] ] } },
{ "type": "Feature", "properties": { "route_id": "055", "heat_score": 73.04, "heat_grade": "q5", "length": 71.724054913354934 }, "geometry": { "type": "LineString", "coordinates": [ [ 210159.365373276581522, 525381.050693306722678 ], [ 210183.580870444013271, 525313.646219988586381 ] ] } },
{ "type": "Feature", "properties": { "route_id": "055", "heat_score": 74.47, "heat_grade": "q5", "length": 113.2523425188292 }, "geometry": { "type": "LineString", "coordinates": [ [ 210183.580870444013271, 525313.646219988586381 ], [ 210190.778136764012743, 525298.60554400109686 ], [ 210207.450682502763811, 525253.854903103783727 ], [ 210221.847723497368861, 525207.370169997564517 ] ] } },
{ "type": "Feature", "properties": { "route_id": "055", "heat_score": 68.73, "heat_grade": "q4", "length": 226.38978485898855 }, "geometry": { "type": "LineString", "coordinates": [ [ 210441.234021582786227, 525221.846763725974597 ], [ 210418.684359450562624, 525230.697400718228891 ], [ 210368.285380249726586, 525241.022956168977544 ], [ 210341.85614448931301, 525240.845998435397632 ], [ 210282.995267182297539, 525227.810588628752157 ], [ 210221.847723497368861, 525207.370169997564517 ] ] } },
{ "type": "Feature", "properties": { "route_id": "055", "heat_score": 64.67, "heat_grade": "q3", "length": 18.556755091255837 }, "geometry": { "type": "LineString", "coordinates": [ [ 210459.104309009155259, 525226.985424810322002 ], [ 210441.234021582786227, 525221.846763725974597 ] ] } },
{ "type": "Feature", "properties": { "route_id": "055", "heat_score": 67.23, "heat_grade": "q4", "length": 81.005683478955888 }, "geometry": { "type": "LineString", "coordinates": [ [ 210459.104309009155259, 525226.985424810322002 ], [ 210489.769089867389994, 525171.36530149995815 ], [ 210503.555711642722599, 525160.672625243547373 ] ] } },
{ "type": "Feature", "properties": { "route_id": "055", "heat_score": 42.5, "heat_grade": "q1", "length": 92.72928321716077 }, "geometry": { "type": "LineString", "coordinates": [ [ 210500.11450994972256, 525247.357913236133754 ], [ 210512.274083630676614, 525219.47178823244758 ], [ 210517.12367112209904, 525190.033821251476184 ], [ 210503.555711642722599, 525160.672625243547373 ] ] } },
{ "type": "Feature", "properties": { "route_id": "055", "heat_score": 43.58, "heat_grade": "q1", "length": 68.468690612241843 }, "geometry": { "type": "LineString", "coordinates": [ [ 210470.709673649282195, 525309.105897334869951 ], [ 210500.11450994972256, 525247.357913236133754 ] ] } },
{ "type": "Feature", "properties": { "route_id": "055", "heat_score": 38.41, "heat_grade": "q1", "length": 297.38821523142957 }, "geometry": { "type": "LineString", "coordinates": [ [ 210339.724666910071392, 525574.57233941112645 ], [ 210376.703921095264377, 525478.117449963581748 ], [ 210403.951310952339554, 525439.784074882278219 ], [ 210470.709673649282195, 525309.105897334869951 ] ] } },
{ "type": "Feature", "properties": { "route_id": "055", "heat_score": 46.69, "heat_grade": "q1", "length": 140.42382488338941 }, "geometry": { "type": "LineString", "coordinates": [ [ 210339.724666910071392, 525574.57233941112645 ], [ 210272.104560897278134, 525551.382238593418151 ], [ 210247.654189178399974, 525542.728821208118461 ], [ 210225.191688930499367, 525531.880418496439233 ], [ 210208.823438319697743, 525523.680923901731148 ] ] } },
{ "type": "Feature", "properties": { "route_id": "055", "heat_score": 43.51, "heat_grade": "q1", "length": 254.92787913553769 }, "geometry": { "type": "LineString", "coordinates": [ [ 210268.31649001504411, 525764.000869083101861 ], [ 210211.4985568356351, 525590.252417470677756 ], [ 210197.052002725220518, 525546.973230719333515 ], [ 210204.086401940468932, 525534.529389688046649 ], [ 210208.823438319697743, 525523.680923901731148 ] ] } },
{ "type": "Feature", "properties": { "route_id": "055", "heat_score": 68.56, "heat_grade": "q4", "length": 37.135570807126868 }, "geometry": { "type": "LineString", "coordinates": [ [ 210231.094573766866233, 525763.722239856957458 ], [ 210260.987288573931437, 525763.969687644625083 ], [ 210268.31649001504411, 525764.000869083101861 ] ] } },
{ "type": "Feature", "properties": { "route_id": "055", "heat_score": 60.64, "heat_grade": "q3", "length": 14.25289837405229 }, "geometry": { "type": "LineString", "coordinates": [ [ 210231.094573766866233, 525763.722239856957458 ], [ 210216.808432951482246, 525763.627107542357408 ] ] } },
{ "type": "Feature", "properties": { "route_id": "055", "heat_score": 59.97, "heat_grade": "q3", "length": 15.162382822638634 }, "geometry": { "type": "LineString", "coordinates": [ [ 210216.808432951482246, 525763.627107542357408 ], [ 210202.233352800947614, 525767.915518823312595 ] ] } },
{ "type": "Feature", "properties": { "route_id": "055", "heat_score": 62.78, "heat_grade": "q3", "length": 23.451324836228924 }, "geometry": { "type": "LineString", "coordinates": [ [ 210202.089622731349664, 525791.321887263911776 ], [ 210202.233352800947614, 525767.915518823312595 ] ] } },
{ "type": "Feature", "properties": { "route_id": "055", "heat_score": 73.85, "heat_grade": "q5", "length": 20.496007882738983 }, "geometry": { "type": "LineString", "coordinates": [ [ 210202.089622731349664, 525791.321887263911776 ], [ 210202.40147136937594, 525811.776634810259566 ] ] } },
{ "type": "Feature", "properties": { "route_id": "055", "heat_score": 59.2, "heat_grade": "q3", "length": 81.618161687753073 }, "geometry": { "type": "LineString", "coordinates": [ [ 210202.40147136937594, 525811.776634810259566 ], [ 210284.209443467203528, 525812.398338690050878 ] ] } },
{ "type": "Feature", "properties": { "route_id": "055", "heat_score": 70.59, "heat_grade": "q4", "length": 166.16401727805038 }, "geometry": { "type": "LineString", "coordinates": [ [ 210450.752880167070543, 525811.294934752047993 ], [ 210428.959833607194014, 525811.634010510635562 ], [ 210340.237902201799443, 525812.056700329645537 ], [ 210319.562315998336999, 525811.753733077668585 ], [ 210311.063090108538745, 525811.909738720860332 ], [ 210284.209443467203528, 525812.398338690050878 ] ] } },
{ "type": "Feature", "properties": { "route_id": "055", "heat_score": 71.08, "heat_grade": "q5", "length": 37.025423060242957 }, "geometry": { "type": "LineString", "coordinates": [ [ 210450.752880167070543, 525811.294934752047993 ], [ 210450.494590940594207, 525791.017817343003117 ], [ 210451.499096714891493, 525774.371456585358828 ] ] } },
{ "type": "Feature", "properties": { "route_id": "055", "heat_score": 51.51, "heat_grade": "q2", "length": 161.67903552040531 }, "geometry": { "type": "LineString", "coordinates": [ [ 210524.47505596850533, 525631.204603212187067 ], [ 210487.181057002278976, 525702.165427161962725 ], [ 210480.156725041073514, 525720.502302124164999 ], [ 210474.373417403112398, 525738.64096433413215 ], [ 210472.824742695054738, 525743.921869954559952 ], [ 210451.499096714891493, 525774.371456585358828 ] ] } },
{ "type": "Feature", "properties": { "route_id": "055", "heat_score": 39.07, "heat_grade": "q1", "length": 146.18455922468539 }, "geometry": { "type": "LineString", "coordinates": [ [ 210666.630148191499757, 525666.588627659832127 ], [ 210528.151878293108894, 525632.119294614996761 ], [ 210524.47505596850533, 525631.204603212187067 ] ] } },
{ "type": "Feature", "properties": { "route_id": "055", "heat_score": 52.74, "heat_grade": "q2", "length": 246.34395145126314 }, "geometry": { "type": "LineString", "coordinates": [ [ 210666.630148191499757, 525666.588627659832127 ], [ 210675.108493553503649, 525669.029983457527123 ], [ 210694.263926209881902, 525673.249624151620083 ], [ 210715.929663123795763, 525675.730070655001327 ], [ 210721.788160492433235, 525675.44901132537052 ], [ 210735.9602321832499, 525674.767969791544601 ], [ 210756.249872155545745, 525672.20807868510019 ], [ 210908.050735599856125, 525635.702008004300296 ] ] } },
{ "type": "Feature", "properties": { "route_id": "055", "heat_score": 58.37, "heat_grade": "q2", "length": 49.826212813718193 }, "geometry": { "type": "LineString", "coordinates": [ [ 210916.778578212397406, 525684.668467214680277 ], [ 210908.050735599856125, 525635.702008004300296 ] ] } },
{ "type": "Feature", "properties": { "route_id": "055", "heat_score": 56.76, "heat_grade": "q2", "length": 96.397785040379958 }, "geometry": { "type": "LineString", "coordinates": [ [ 210924.267476815904956, 525779.725025659310631 ], [ 210924.750375492061721, 525762.822774736443534 ], [ 210924.623543555266224, 525710.593486774014309 ], [ 210916.778578212397406, 525684.668467214680277 ] ] } },
{ "type": "Feature", "properties": { "route_id": "055", "heat_score": 58.7, "heat_grade": "q3", "length": 60.869376159629773 }, "geometry": { "type": "LineString", "coordinates": [ [ 210924.569296578731155, 525840.47812842798885 ], [ 210924.267476815904956, 525779.725025659310631 ] ] } },
{ "type": "Feature", "properties": { "route_id": "055", "heat_score": 67.34, "heat_grade": "q4", "length": 83.880502302054055 }, "geometry": { "type": "LineString", "coordinates": [ [ 210924.569296578731155, 525840.47812842798885 ], [ 211008.645909671555273, 525840.965592179913074 ] ] } },
{ "type": "Feature", "properties": { "route_id": "055", "heat_score": 60.9, "heat_grade": "q3", "length": 327.60990111701977 }, "geometry": { "type": "LineString", "coordinates": [ [ 211008.645909671555273, 525840.965592179913074 ], [ 211110.355895135202445, 525843.508289033663459 ], [ 211218.404823106451659, 525837.637015725835226 ], [ 211296.249506906635361, 525819.684553740895353 ], [ 211334.764295361062977, 525820.535688077565283 ] ] } },
{ "type": "Feature", "properties": { "route_id": "055", "heat_score": 48.02, "heat_grade": "q1", "length": 76.38589356760987 }, "geometry": { "type": "LineString", "coordinates": [ [ 211334.764295361062977, 525820.535688077565283 ], [ 211337.650242816569516, 525744.3489843911957 ] ] } },
{ "type": "Feature", "properties": { "route_id": "055", "heat_score": 65.76, "heat_grade": "q4", "length": 147.97492800873135 }, "geometry": { "type": "LineString", "coordinates": [ [ 211456.910659321991261, 525667.954458801075816 ], [ 211447.537577139330097, 525678.363049044157378 ], [ 211417.112603900779504, 525710.773269270779565 ], [ 211398.985072105162544, 525726.51941736030858 ], [ 211375.561856239713961, 525739.317329287994653 ], [ 211362.269758434937103, 525744.65981577092316 ], [ 211337.650242816569516, 525744.3489843911957 ] ] } },
{ "type": "Feature", "properties": { "route_id": "055", "heat_score": 48.94, "heat_grade": "q2", "length": 270.97831004675101 }, "geometry": { "type": "LineString", "coordinates": [ [ 211456.910659321991261, 525667.954458801075816 ], [ 211498.02549190307036, 525621.708237456274219 ], [ 211503.037622875504894, 525618.241318190819584 ], [ 211509.84814673991059, 525615.298498998279683 ], [ 211646.033594841079321, 525613.400292875128798 ], [ 211659.132527804555139, 525607.036933552590199 ], [ 211665.5328974146978, 525599.554419065476395 ], [ 211669.12130812308169, 525587.517641527461819 ], [ 211672.281170095637208, 525565.025564362644218 ] ] } },
{ "type": "Feature", "properties": { "route_id": "055", "heat_score": 38.86, "heat_grade": "q1", "length": 77.007655824975288 }, "geometry": { "type": "LineString", "coordinates": [ [ 211672.281170095637208, 525565.025564362644218 ], [ 211749.467047674639616, 525564.334422504412942 ] ] } },
{ "type": "Feature", "properties": { "route_id": "055", "heat_score": 55.17, "heat_grade": "q2", "length": 54.203733908981256 }, "geometry": { "type": "LineString", "coordinates": [ [ 211802.120126569236163, 525576.905278100050054 ], [ 211781.656865793833276, 525570.184119586716406 ], [ 211773.612742894387338, 525567.930926498025656 ], [ 211760.879202377749607, 525566.43694417795632 ], [ 211749.467047674639616, 525564.334422504412942 ] ] } },
{ "type": "Feature", "properties": { "route_id": "055", "heat_score": 48.29, "heat_grade": "q1", "length": 33.228976432810498 }, "geometry": { "type": "LineString", "coordinates": [ [ 211802.120126569236163, 525576.905278100050054 ], [ 211787.090532531728968, 525563.277455308591016 ], [ 211777.886181830108399, 525554.16380637686234 ] ] } },
{ "type": "Feature", "properties": { "route_id": "055", "heat_score": 51.53, "heat_grade": "q2", "length": 28.057081923680435 }, "geometry": { "type": "LineString", "coordinates": [ [ 211771.97768995151273, 525526.875601847073995 ], [ 211773.898722021811409, 525541.028777607018128 ], [ 211777.886181830108399, 525554.16380637686234 ] ] } },
{ "type": "Feature", "properties": { "route_id": "055", "heat_score": 64.5, "heat_grade": "q3", "length": 188.24940563195298 }, "geometry": { "type": "LineString", "coordinates": [ [ 211771.97768995151273, 525526.875601847073995 ], [ 211772.268940881651361, 525521.437789600808173 ], [ 211771.454451693833107, 525470.372855091816746 ], [ 211766.81677362168557, 525453.197096208692528 ], [ 211750.416024746373296, 525405.950333174783736 ], [ 211749.401361027063103, 525396.382080618524924 ], [ 211751.475788236013614, 525383.377655727788806 ], [ 211762.051372605463257, 525343.948757704929449 ] ] } },
{ "type": "Feature", "properties": { "route_id": "055", "heat_score": 60.33, "heat_grade": "q3", "length": 111.05373199970023 }, "geometry": { "type": "LineString", "coordinates": [ [ 211762.051372605463257, 525343.948757704929449 ], [ 211683.001200997648994, 525326.335915336036123 ], [ 211653.532986770209391, 525319.269565405906178 ] ] } },
{ "type": "Feature", "properties": { "route_id": "055", "heat_score": 65.67, "heat_grade": "q4", "length": 48.757841571847138 }, "geometry": { "type": "LineString", "coordinates": [ [ 211605.632707613054663, 525322.921014032908715 ], [ 211616.069204102619551, 525319.4283868575003 ], [ 211621.61996855889447, 525317.571555501199327 ], [ 211632.831897393421968, 525317.331858669524081 ], [ 211653.532986770209391, 525319.269565405906178 ] ] } },
{ "type": "Feature", "properties": { "route_id": "055", "heat_score": 62.37, "heat_grade": "q3", "length": 17.118044318319278 }, "geometry": { "type": "LineString", "coordinates": [ [ 211605.632707613054663, 525322.921014032908715 ], [ 211601.516703800007235, 525306.334290685248561 ] ] } },
{ "type": "Feature", "properties": { "route_id": "055", "heat_score": 62.72, "heat_grade": "q3", "length": 205.79976571932329 }, "geometry": { "type": "LineString", "coordinates": [ [ 211601.516703800007235, 525306.334290685248561 ], [ 211395.466842452005949, 525296.540047490270808 ] ] } },
{ "type": "Feature", "properties": { "route_id": "055", "heat_score": 43.83, "heat_grade": "q1", "length": 670.95325412828743 }, "geometry": { "type": "LineString", "coordinates": [ [ 211395.466842452005949, 525296.540047490270808 ], [ 211331.20744398565148, 525298.805717759416439 ], [ 211268.30832018746878, 525297.943960851873271 ], [ 211227.744991688261507, 525296.191424164222553 ], [ 211174.211073925427627, 525290.859179563005455 ], [ 211137.011526806425536, 525285.515688435640186 ], [ 211096.990301143669058, 525275.906836210051551 ], [ 211038.963638749031816, 525263.100279499776661 ], [ 211003.14921903598588, 525255.694906814373098 ], [ 210940.412789740599692, 525231.795543515589088 ], [ 210871.372262267599581, 525202.705513019114733 ], [ 210813.984984462003922, 525174.552260765223764 ], [ 210771.142013049597153, 525146.129538631299511 ], [ 210755.298312923347112, 525136.486864144098945 ] ] } },
{ "type": "Feature", "properties": { "route_id": "055", "heat_score": 42.98, "heat_grade": "q1", "length": 406.84924398104954 }, "geometry": { "type": "LineString", "coordinates": [ [ 210755.298312923347112, 525136.486864144098945 ], [ 210725.940056043415098, 525194.69361937395297 ], [ 210674.986760545551078, 525298.709327792748809 ], [ 210663.722120093210833, 525319.47118626977317 ], [ 210638.120940482825972, 525372.311418816563673 ], [ 210622.756847665237729, 525404.011153764324263 ], [ 210603.782019679725636, 525445.628318913397379 ], [ 210591.121598856261699, 525470.106476800516248 ], [ 210572.118876254739007, 525498.960515211569145 ] ] } }
]
}
