{
"type": "FeatureCollection",
"name": "056_edges",
"crs": { "type": "name", "properties": { "name": "urn:ogc:def:crs:EPSG::5186" } },
"features": [
{ "type": "Feature", "properties": { "route_id": "056", "heat_score": 48.72, "heat_grade": "q2", "length": 128.45158318180617 }, "geometry": { "type": "LineString", "coordinates": [ [ 207400.890423610107973, 524172.164122886606492 ], [ 207452.669887908821693, 524197.370032138831448 ], [ 207475.140541851869784, 524197.156986120331567 ], [ 207502.626637346518692, 524198.768623374111485 ], [ 207523.543314291106071, 524201.6285645844182 ] ] } },
{ "type": "Feature", "properties": { "route_id": "056", "heat_score": 65.56, "heat_grade": "q4", "length": 153.15138675843878 }, "geometry": { "type": "LineString", "coordinates": [ [ 207523.543314291106071, 524201.6285645844182 ], [ 207551.11433567549102, 524207.335736427456141 ], [ 207565.380358339636587, 524213.030973540386185 ], [ 207574.882087153469911, 524223.449832399375737 ], [ 207610.328689121175557, 524312.124662669608369 ] ] } },
{ "type": "Feature", "properties": { "route_id": "056", "heat_score": 62.24, "heat_grade": "q3", "length": 79.974526329469285 }, "geometry": { "type": "LineString", "coordinates": [ [ 207688.791139870270854, 524313.639097300823778 ], [ 207685.822894873679616, 524312.348962162970565 ], [ 207681.259329272026662, 524310.84649606095627 ], [ 207671.120441011909861, 524309.216843176749535 ], [ 207659.386684562283335, 524306.875448318896815 ], [ 207646.906362656736746, 524306.70866967132315 ], [ 207635.21515581040876, 524306.298464565770701 ], [ 207622.777577090921113, 524307.863107119803317 ], [ 207610.328689121175557, 524312.124662669608369 ] ] } },
{ "type": "Feature", "properties": { "route_id": "056", "heat_score": 59.36, "heat_grade": "q3", "length": 155.72309186436399 }, "geometry": { "type": "LineString", "coordinates": [ [ 207688.791139870270854, 524313.639097300823778 ], [ 207694.844041081960313, 524314.932066278997809 ], [ 207700.896236480213702, 524316.990826804889366 ], [ 207712.725192182522733, 524321.80730499944184 ], [ 207721.246645119710593, 524327.963654130231589 ], [ 207819.5278694195149, 524396.86474187951535 ] ] } },
{ "type": "Feature", "properties": { "route_id": "056", "heat_score": 58.55, "heat_grade": "q3", "length": 598.72864840836996 }, "geometry": { "type": "LineString", "coordinates": [ [ 208305.586037449596915, 524747.042518963571638 ], [ 208292.159308613627218, 524736.585637394106016 ], [ 208288.032085628859932, 524733.37411984289065 ], [ 208241.634988653939217, 524702.841082147788256 ], [ 208219.269787911616731, 524687.270272719091736 ], [ 208195.850954211462522, 524670.455473843961954 ], [ 208149.578581164125353, 524638.569070353289135 ], [ 208145.052306079451228, 524635.446022820309736 ], [ 208079.336824512021849, 524590.06769338005688 ], [ 207962.60869840963278, 524499.337657410651445 ], [ 207956.99284700199496, 524495.359101803624071 ], [ 207954.140621532016667, 524493.34758660569787 ], [ 207920.871413726592436, 524468.877434731344692 ], [ 207875.359890844207257, 524436.227492906735279 ], [ 207819.5278694195149, 524396.86474187951535 ] ] } },
{ "type": "Feature", "properties": { "route_id": "056", "heat_score": 70.28, "heat_grade": "q4", "length": 40.459937053555663 }, "geometry": { "type": "LineString", "coordinates": [ [ 208328.531315432250267, 524713.747955742641352 ], [ 208318.013080028264085, 524728.786911496776156 ], [ 208311.063065692986129, 524738.735262448899448 ], [ 208305.586037449596915, 524747.042518963571638 ] ] } },
{ "type": "Feature", "properties": { "route_id": "056", "heat_score": 66.26, "heat_grade": "q4", "length": 29.409302230792875 }, "geometry": { "type": "LineString", "coordinates": [ [ 208305.68175868113758, 524695.202066695550457 ], [ 208324.076541140617337, 524710.136553072719835 ], [ 208328.531315432250267, 524713.747955742641352 ] ] } },
{ "type": "Feature", "properties": { "route_id": "056", "heat_score": 75.87, "heat_grade": "q5", "length": 125.45472188422974 }, "geometry": { "type": "LineString", "coordinates": [ [ 208376.126726359158056, 524591.480145759414881 ], [ 208340.593831616395619, 524643.307426475221291 ], [ 208305.68175868113758, 524695.202066695550457 ] ] } },
{ "type": "Feature", "properties": { "route_id": "056", "heat_score": 45.43, "heat_grade": "q1", "length": 30.44666057314614 }, "geometry": { "type": "LineString", "coordinates": [ [ 208376.126726359158056, 524591.480145759414881 ], [ 208396.773235102882609, 524606.161778281792067 ], [ 208400.962758676265366, 524609.14034520171117 ] ] } },
{ "type": "Feature", "properties": { "route_id": "056", "heat_score": 52.07, "heat_grade": "q2", "length": 85.907448977354619 }, "geometry": { "type": "LineString", "coordinates": [ [ 208352.319390266464325, 524679.877181025105529 ], [ 208361.178939172939863, 524666.157320792786777 ], [ 208364.392533621605253, 524661.177355531137437 ], [ 208395.477193777274806, 524616.948106031981297 ], [ 208400.962758676265366, 524609.14034520171117 ] ] } },
{ "type": "Feature", "properties": { "route_id": "056", "heat_score": 50.23, "heat_grade": "q2", "length": 219.54515015701281 }, "geometry": { "type": "LineString", "coordinates": [ [ 208514.202227713860339, 524690.184086141642183 ], [ 208505.956855286727659, 524701.129813442472368 ], [ 208463.603183358267415, 524757.311323226313107 ], [ 208423.427163423097227, 524728.659190468955785 ], [ 208406.253070919192396, 524716.411518633249216 ], [ 208363.550809098756872, 524687.490779854124412 ], [ 208352.319390266464325, 524679.877181025105529 ] ] } },
{ "type": "Feature", "properties": { "route_id": "056", "heat_score": 54.95, "heat_grade": "q2", "length": 74.193302168624015 }, "geometry": { "type": "LineString", "coordinates": [ [ 208574.305777342990041, 524733.795453006983735 ], [ 208565.271687267522793, 524727.238163472851738 ], [ 208525.105229680426419, 524698.097224686876871 ], [ 208514.202227713860339, 524690.184086141642183 ] ] } },
{ "type": "Feature", "properties": { "route_id": "056", "heat_score": 70.17, "heat_grade": "q4", "length": 93.366003789928186 }, "geometry": { "type": "LineString", "coordinates": [ [ 208629.726989291229984, 524658.705211680731736 ], [ 208619.404227013816126, 524672.68964435334783 ], [ 208574.305777342990041, 524733.795453006983735 ] ] } },
{ "type": "Feature", "properties": { "route_id": "056", "heat_score": 78.75, "heat_grade": "q5", "length": 135.94679713953289 }, "geometry": { "type": "LineString", "coordinates": [ [ 208732.185739901324268, 524748.064602279686369 ], [ 208710.381308906013146, 524731.205649635056034 ], [ 208650.0329786297807, 524676.383684365311638 ], [ 208629.726989291229984, 524658.705211680731736 ] ] } },
{ "type": "Feature", "properties": { "route_id": "056", "heat_score": 78.11, "heat_grade": "q5", "length": 53.29308102346657 }, "geometry": { "type": "LineString", "coordinates": [ [ 208775.451302979199681, 524779.262986653018743 ], [ 208732.185739901324268, 524748.064602279686369 ] ] } },
{ "type": "Feature", "properties": { "route_id": "056", "heat_score": 74.93, "heat_grade": "q5", "length": 62.646434601559235 }, "geometry": { "type": "LineString", "coordinates": [ [ 208775.451302979199681, 524779.262986653018743 ], [ 208741.059595608123345, 524831.578112769522704 ] ] } },
{ "type": "Feature", "properties": { "route_id": "056", "heat_score": 71.31, "heat_grade": "q5", "length": 56.184149530012505 }, "geometry": { "type": "LineString", "coordinates": [ [ 208694.843524196534418, 524799.533362489193678 ], [ 208741.059595608123345, 524831.578112769522704 ] ] } },
{ "type": "Feature", "properties": { "route_id": "056", "heat_score": 64.18, "heat_grade": "q3", "length": 82.461246851326848 }, "geometry": { "type": "LineString", "coordinates": [ [ 208647.930197236739332, 524867.295934424735606 ], [ 208694.843524196534418, 524799.533362489193678 ] ] } },
{ "type": "Feature", "properties": { "route_id": "056", "heat_score": 71.87, "heat_grade": "q5", "length": 44.955905859692294 }, "geometry": { "type": "LineString", "coordinates": [ [ 208647.930197236739332, 524867.295934424735606 ], [ 208683.789867142069852, 524894.468592334771529 ] ] } },
{ "type": "Feature", "properties": { "route_id": "056", "heat_score": 77.37, "heat_grade": "q5", "length": 40.532364141679054 }, "geometry": { "type": "LineString", "coordinates": [ [ 208683.789867142069852, 524894.468592334771529 ], [ 208716.12448768565082, 524918.963024995988235 ] ] } },
{ "type": "Feature", "properties": { "route_id": "056", "heat_score": 76.49, "heat_grade": "q5", "length": 47.741302481374461 }, "geometry": { "type": "LineString", "coordinates": [ [ 208716.12448768565082, 524918.963024995988235 ], [ 208688.652009188255761, 524957.978610345860943 ] ] } },
{ "type": "Feature", "properties": { "route_id": "056", "heat_score": 73.37, "heat_grade": "q5", "length": 115.16947858481565 }, "geometry": { "type": "LineString", "coordinates": [ [ 208688.652009188255761, 524957.978610345860943 ], [ 208780.455792050430318, 525027.672348620486446 ] ] } },
{ "type": "Feature", "properties": { "route_id": "056", "heat_score": 71.92, "heat_grade": "q5", "length": 50.563993744727341 }, "geometry": { "type": "LineString", "coordinates": [ [ 208810.801646287058247, 524987.250586443464272 ], [ 208780.455792050430318, 525027.672348620486446 ] ] } },
{ "type": "Feature", "properties": { "route_id": "056", "heat_score": 74.36, "heat_grade": "q5", "length": 127.41956063898088 }, "geometry": { "type": "LineString", "coordinates": [ [ 208810.801646287058247, 524987.250586443464272 ], [ 208912.665196509362431, 525063.9705528159393 ] ] } },
{ "type": "Feature", "properties": { "route_id": "056", "heat_score": 78.91, "heat_grade": "q5", "length": 53.82425599172835 }, "geometry": { "type": "LineString", "coordinates": [ [ 208955.03994481349946, 525097.222141073551029 ], [ 208912.665196509362431, 525063.9705528159393 ] ] } },
{ "type": "Feature", "properties": { "route_id": "056", "heat_score": 77.21, "heat_grade": "q5", "length": 38.969066581051905 }, "geometry": { "type": "LineString", "coordinates": [ [ 208978.711112732824404, 525066.282971806125715 ], [ 208955.03994481349946, 525097.222141073551029 ] ] } },
{ "type": "Feature", "properties": { "route_id": "056", "heat_score": 75.26, "heat_grade": "q5", "length": 54.57205582363882 }, "geometry": { "type": "LineString", "coordinates": [ [ 208978.711112732824404, 525066.282971806125715 ], [ 209011.861688982928172, 525022.957162206294015 ] ] } },
{ "type": "Feature", "properties": { "route_id": "056", "heat_score": 75.59, "heat_grade": "q5", "length": 56.78951127175619 }, "geometry": { "type": "LineString", "coordinates": [ [ 209063.233084807900013, 525047.373563574394211 ], [ 209011.861688982928172, 525022.957162206294015 ] ] } },
{ "type": "Feature", "properties": { "route_id": "056", "heat_score": 65.13, "heat_grade": "q4", "length": 65.49962512731787 }, "geometry": { "type": "LineString", "coordinates": [ [ 209063.233084807900013, 525047.373563574394211 ], [ 209049.736212885793066, 525111.352296638768166 ] ] } },
{ "type": "Feature", "properties": { "route_id": "056", "heat_score": 70.15, "heat_grade": "q4", "length": 54.913565474294359 }, "geometry": { "type": "LineString", "coordinates": [ [ 209037.252506875724066, 525164.73318465158809 ], [ 209049.736212885793066, 525111.352296638768166 ] ] } },
{ "type": "Feature", "properties": { "route_id": "056", "heat_score": 67.28, "heat_grade": "q4", "length": 49.656991665949143 }, "geometry": { "type": "LineString", "coordinates": [ [ 209037.252506875724066, 525164.73318465158809 ], [ 209022.267316479643341, 525211.996184794232249 ] ] } },
{ "type": "Feature", "properties": { "route_id": "056", "heat_score": 73.98, "heat_grade": "q5", "length": 176.71430220933169 }, "geometry": { "type": "LineString", "coordinates": [ [ 208881.432142855395796, 525105.023618716746569 ], [ 209022.267316479643341, 525211.996184794232249 ] ] } },
{ "type": "Feature", "properties": { "route_id": "056", "heat_score": 66.4, "heat_grade": "q4", "length": 52.167817842224714 }, "geometry": { "type": "LineString", "coordinates": [ [ 208881.432142855395796, 525105.023618716746569 ], [ 208849.862117065495113, 525146.531480784993619 ] ] } },
{ "type": "Feature", "properties": { "route_id": "056", "heat_score": 68.63, "heat_grade": "q4", "length": 47.124729822835469 }, "geometry": { "type": "LineString", "coordinates": [ [ 208821.19496487849392, 525183.91391850670334 ], [ 208849.862117065495113, 525146.531480784993619 ] ] } },
{ "type": "Feature", "properties": { "route_id": "056", "heat_score": 73.71, "heat_grade": "q5", "length": 60.302865723051319 }, "geometry": { "type": "LineString", "coordinates": [ [ 208807.820933535025688, 525242.610342732979916 ], [ 208821.19496487849392, 525183.91391850670334 ] ] } },
{ "type": "Feature", "properties": { "route_id": "056", "heat_score": 47.1, "heat_grade": "q1", "length": 79.680870983653918 }, "geometry": { "type": "LineString", "coordinates": [ [ 208807.820933535025688, 525242.610342732979916 ], [ 208861.938483146077488, 525301.100479897111654 ] ] } },
{ "type": "Feature", "properties": { "route_id": "056", "heat_score": 72.51, "heat_grade": "q5", "length": 69.50521329329014 }, "geometry": { "type": "LineString", "coordinates": [ [ 208904.423767178668641, 525246.119704509968869 ], [ 208861.938483146077488, 525301.100479897111654 ] ] } },
{ "type": "Feature", "properties": { "route_id": "056", "heat_score": 68.35, "heat_grade": "q4", "length": 37.928141046480292 }, "geometry": { "type": "LineString", "coordinates": [ [ 208934.835017994861118, 525268.837212474551052 ], [ 208904.423767178668641, 525246.119704509968869 ] ] } },
{ "type": "Feature", "properties": { "route_id": "056", "heat_score": 75.75, "heat_grade": "q5", "length": 42.462850920426909 }, "geometry": { "type": "LineString", "coordinates": [ [ 208934.835017994861118, 525268.837212474551052 ], [ 208968.876991573371924, 525294.277826505131088 ] ] } },
{ "type": "Feature", "properties": { "route_id": "056", "heat_score": 79.0, "heat_grade": "q5", "length": 48.229769337635403 }, "geometry": { "type": "LineString", "coordinates": [ [ 208968.876991573371924, 525294.277826505131088 ], [ 208996.359176004101755, 525254.674935249960981 ] ] } },
{ "type": "Feature", "properties": { "route_id": "056", "heat_score": 49.21, "heat_grade": "q2", "length": 82.318403352562925 }, "geometry": { "type": "LineString", "coordinates": [ [ 209074.94079858600162, 525268.743695753626525 ], [ 209018.112528359255521, 525267.783338933251798 ], [ 209012.211856972251553, 525265.868063106318004 ], [ 209006.321716801117873, 525262.399027499719523 ], [ 208996.359176004101755, 525254.674935249960981 ] ] } },
{ "type": "Feature", "properties": { "route_id": "056", "heat_score": 64.82, "heat_grade": "q3", "length": 48.808766004753473 }, "geometry": { "type": "LineString", "coordinates": [ [ 209074.94079858600162, 525268.743695753626525 ], [ 209123.864418290526373, 525268.674770391895436 ] ] } },
{ "type": "Feature", "properties": { "route_id": "056", "heat_score": 76.32, "heat_grade": "q5", "length": 54.207485656030521 }, "geometry": { "type": "LineString", "coordinates": [ [ 209123.864418290526373, 525268.674770391895436 ], [ 209117.612501936790068, 525214.929533455288038 ] ] } },
{ "type": "Feature", "properties": { "route_id": "056", "heat_score": 59.87, "heat_grade": "q3", "length": 102.10481948328464 }, "geometry": { "type": "LineString", "coordinates": [ [ 209117.612501936790068, 525214.929533455288038 ], [ 209119.131657327205176, 525179.083374373265542 ], [ 209120.267121466866229, 525113.06026912399102 ] ] } },
{ "type": "Feature", "properties": { "route_id": "056", "heat_score": 65.71, "heat_grade": "q4", "length": 89.286514758011592 }, "geometry": { "type": "LineString", "coordinates": [ [ 209120.267121466866229, 525113.06026912399102 ], [ 209121.426996369962581, 525032.775764142512344 ], [ 209121.560690445068758, 525023.95268866349943 ] ] } },
{ "type": "Feature", "properties": { "route_id": "056", "heat_score": 73.38, "heat_grade": "q5", "length": 37.356644296222242 }, "geometry": { "type": "LineString", "coordinates": [ [ 209121.560690445068758, 525023.95268866349943 ], [ 209123.993199691059999, 525020.292869138997048 ], [ 209124.770103110873606, 525014.966487773344852 ], [ 209125.907243492460111, 525012.537179085193202 ], [ 209127.983100092213135, 525010.830288984114304 ], [ 209130.784786171308951, 525010.000963546335697 ], [ 209134.046259092807304, 525010.182094049174339 ], [ 209137.669440990837757, 525011.906296799890697 ], [ 209139.873997432179749, 525014.095085327746347 ], [ 209141.28972633779631, 525016.283013451495208 ], [ 209144.2351071643061, 525021.846522687934339 ] ] } },
{ "type": "Feature", "properties": { "route_id": "056", "heat_score": 75.95, "heat_grade": "q5", "length": 13.225364598474965 }, "geometry": { "type": "LineString", "coordinates": [ [ 209143.912711866811151, 525008.650183608056977 ], [ 209144.2351071643061, 525021.846522687934339 ] ] } },
{ "type": "Feature", "properties": { "route_id": "056", "heat_score": 75.89, "heat_grade": "q5", "length": 17.522609444498283 }, "geometry": { "type": "LineString", "coordinates": [ [ 209142.877045296976576, 524991.191284093074501 ], [ 209143.912711866811151, 525008.650183608056977 ] ] } },
{ "type": "Feature", "properties": { "route_id": "056", "heat_score": 66.08, "heat_grade": "q4", "length": 22.645767643230137 }, "geometry": { "type": "LineString", "coordinates": [ [ 209121.569403594883624, 524983.399177870014682 ], [ 209142.877045296976576, 524991.191284093074501 ] ] } },
{ "type": "Feature", "properties": { "route_id": "056", "heat_score": 67.18, "heat_grade": "q4", "length": 15.986485205432645 }, "geometry": { "type": "LineString", "coordinates": [ [ 209106.543336701783119, 524977.855828386731446 ], [ 209121.569403594883624, 524983.399177870014682 ] ] } },
{ "type": "Feature", "properties": { "route_id": "056", "heat_score": 77.38, "heat_grade": "q5", "length": 12.820630429565965 }, "geometry": { "type": "LineString", "coordinates": [ [ 209106.543336701783119, 524977.855828386731446 ], [ 209102.213831265864428, 524989.903974174521863 ] ] } },
{ "type": "Feature", "properties": { "route_id": "056", "heat_score": 77.79, "heat_grade": "q5", "length": 21.470386922145494 }, "geometry": { "type": "LineString", "coordinates": [ [ 209122.191795236285543, 524997.872157149831764 ], [ 209102.213831265864428, 524989.903974174521863 ] ] } },
{ "type": "Feature", "properties": { "route_id": "056", "heat_score": 68.77, "heat_grade": "q4", "length": 20.700205114859344 }, "geometry": { "type": "LineString", "coordinates": [ [ 209121.637506766244769, 525018.525659035774879 ], [ 209122.191795236285543, 524997.872157149831764 ] ] } },
{ "type": "Feature", "properties": { "route_id": "056", "heat_score": 72.32, "heat_grade": "q5", "length": 40.818004592477138 }, "geometry": { "type": "LineString", "coordinates": [ [ 209121.637506766244769, 525018.525659035774879 ], [ 209118.477543769491604, 525014.659978028619662 ], [ 209116.04555807786528, 525009.696349856443703 ], [ 209112.603306181932567, 525004.598442503251135 ], [ 209109.275113358336966, 525000.566106183105148 ], [ 209095.764172659080941, 524987.333239167928696 ] ] } },
{ "type": "Feature", "properties": { "route_id": "056", "heat_score": 72.23, "heat_grade": "q5", "length": 19.743231959396709 }, "geometry": { "type": "LineString", "coordinates": [ [ 209095.764172659080941, 524987.333239167928696 ], [ 209086.524115181586239, 524983.34998582303524 ], [ 209077.576319893763866, 524979.566830502124503 ] ] } },
{ "type": "Feature", "properties": { "route_id": "056", "heat_score": 68.75, "heat_grade": "q4", "length": 80.929075065359768 }, "geometry": { "type": "LineString", "coordinates": [ [ 209077.576319893763866, 524979.566830502124503 ], [ 209057.050931894249516, 524969.578255443950184 ], [ 209019.008225369383581, 524946.297175641055219 ], [ 209006.907652590685757, 524940.069056204054505 ] ] } },
{ "type": "Feature", "properties": { "route_id": "056", "heat_score": 69.94, "heat_grade": "q4", "length": 128.98375353135845 }, "geometry": { "type": "LineString", "coordinates": [ [ 209006.907652590685757, 524940.069056204054505 ], [ 208991.387708683992969, 524932.083737426088192 ], [ 208968.608896339545026, 524915.611502609332092 ], [ 208931.316303647123277, 524886.627056157798506 ], [ 208902.249858628521906, 524864.876567210187204 ] ] } },
{ "type": "Feature", "properties": { "route_id": "056", "heat_score": 68.08, "heat_grade": "q4", "length": 13.663393277762431 }, "geometry": { "type": "LineString", "coordinates": [ [ 208902.249858628521906, 524864.876567210187204 ], [ 208910.389252602180932, 524853.908916755462997 ] ] } },
{ "type": "Feature", "properties": { "route_id": "056", "heat_score": 71.95, "heat_grade": "q5", "length": 342.78027240307892 }, "geometry": { "type": "LineString", "coordinates": [ [ 208639.437338377698325, 524645.552538987831213 ], [ 208684.831420706235804, 524693.477907985448837 ], [ 208712.904957996943267, 524716.525111556053162 ], [ 208739.88962296867976, 524738.139582584728487 ], [ 208779.992738652421394, 524767.625539295724593 ], [ 208910.389252602180932, 524853.908916755462997 ] ] } },
{ "type": "Feature", "properties": { "route_id": "056", "heat_score": 60.03, "heat_grade": "q3", "length": 225.17371174860466 }, "geometry": { "type": "LineString", "coordinates": [ [ 208466.698618775291834, 524500.952924316981807 ], [ 208555.918642584671034, 524573.016576322144829 ], [ 208639.437338377698325, 524645.552538987831213 ] ] } },
{ "type": "Feature", "properties": { "route_id": "056", "heat_score": 54.59, "heat_grade": "q2", "length": 585.63845714600507 }, "geometry": { "type": "LineString", "coordinates": [ [ 207992.015354884322733, 524159.056179673119914 ], [ 208017.021455243433593, 524167.914376285800245 ], [ 208335.429837091069203, 524408.194207720924169 ], [ 208351.036949322064174, 524419.252637876663357 ], [ 208382.959667545364937, 524441.858623937354423 ], [ 208415.856484565214487, 524465.209302863106132 ], [ 208466.698618775291834, 524500.952924316981807 ] ] } },
{ "type": "Feature", "properties": { "route_id": "056", "heat_score": 74.79, "heat_grade": "q5", "length": 167.090007261469 }, "geometry": { "type": "LineString", "coordinates": [ [ 207858.687139264191501, 524058.123546574846841 ], [ 207992.015354884322733, 524159.056179673119914 ] ] } },
{ "type": "Feature", "properties": { "route_id": "056", "heat_score": 75.64, "heat_grade": "q5", "length": 10.958986090041877 }, "geometry": { "type": "LineString", "coordinates": [ [ 207849.953217301139375, 524051.489631625940092 ], [ 207858.687139264191501, 524058.123546574846841 ] ] } },
{ "type": "Feature", "properties": { "route_id": "056", "heat_score": 77.05, "heat_grade": "q5", "length": 11.587357138010814 }, "geometry": { "type": "LineString", "coordinates": [ [ 207849.953217301139375, 524051.489631625940092 ], [ 207840.776495197496843, 524044.400278298300691 ] ] } },
{ "type": "Feature", "properties": { "route_id": "056", "heat_score": 74.64, "heat_grade": "q5", "length": 85.881693313548709 }, "geometry": { "type": "LineString", "coordinates": [ [ 207840.776495197496843, 524044.400278298300691 ], [ 207817.930917217861861, 524027.975538503727876 ], [ 207771.354370498069329, 523993.715933559229597 ] ] } },
{ "type": "Feature", "properties": { "route_id": "056", "heat_score": 73.33, "heat_grade": "q5", "length": 49.65377481931904 }, "geometry": { "type": "LineString", "coordinates": [ [ 207771.354370498069329, 523993.715933559229597 ], [ 207755.188163988292217, 523981.670322227815632 ], [ 207733.657650883484166, 523961.473586821521167 ] ] } },
{ "type": "Feature", "properties": { "route_id": "056", "heat_score": 77.69, "heat_grade": "q5", "length": 25.839444516738379 }, "geometry": { "type": "LineString", "coordinates": [ [ 207755.069028706522658, 523947.576024463400245 ], [ 207743.159360424557235, 523952.814537308178842 ], [ 207733.657650883484166, 523961.473586821521167 ] ] } },
{ "type": "Feature", "properties": { "route_id": "056", "heat_score": 72.69, "heat_grade": "q5", "length": 36.250100582792243 }, "geometry": { "type": "LineString", "coordinates": [ [ 207790.904309007310076, 523941.593955062853638 ], [ 207755.069028706522658, 523947.576024463400245 ] ] } },
{ "type": "Feature", "properties": { "route_id": "056", "heat_score": 72.11, "heat_grade": "q5", "length": 83.667217848112969 }, "geometry": { "type": "LineString", "coordinates": [ [ 207790.904309007310076, 523941.593955062853638 ], [ 207874.194141807442065, 523931.838664736715145 ] ] } },
{ "type": "Feature", "properties": { "route_id": "056", "heat_score": 65.04, "heat_grade": "q4", "length": 80.030080056458942 }, "geometry": { "type": "LineString", "coordinates": [ [ 207867.088673568796366, 523852.312186947034206 ], [ 207871.570732849300839, 523893.624519151053391 ], [ 207873.26058916002512, 523925.378537174488883 ], [ 207874.194141807442065, 523931.838664736715145 ] ] } },
{ "type": "Feature", "properties": { "route_id": "056", "heat_score": 50.28, "heat_grade": "q2", "length": 460.54786157608163 }, "geometry": { "type": "LineString", "coordinates": [ [ 207714.394195236265659, 523423.640227038180456 ], [ 207733.832226149505004, 523464.999533091438934 ], [ 207747.796921971719712, 523529.37182499730261 ], [ 207750.886426872923039, 523543.613879406242631 ], [ 207763.06467999832239, 523593.567780380195472 ], [ 207769.829348625353305, 523621.29775936040096 ], [ 207775.518003585457336, 523643.078023960930295 ], [ 207789.269104318838799, 523679.082787850755267 ], [ 207791.64622824898106, 523687.109114926075563 ], [ 207796.860027629969409, 523704.660478180099744 ], [ 207804.913676322379615, 523737.807692159840371 ], [ 207815.343835621868493, 523770.013771026802715 ], [ 207831.493264358781744, 523790.871580294391606 ], [ 207858.088513126160251, 523826.877383310347795 ], [ 207867.088673568796366, 523852.312186947034206 ] ] } },
{ "type": "Feature", "properties": { "route_id": "056", "heat_score": 62.22, "heat_grade": "q3", "length": 127.2221264690959 }, "geometry": { "type": "LineString", "coordinates": [ [ 207714.394195236265659, 523423.640227038180456 ], [ 207713.606761739472859, 523421.963649956334848 ], [ 207712.00533993501449, 523418.566078155301511 ], [ 207646.471773269819096, 523316.223557246674318 ] ] } },
{ "type": "Feature", "properties": { "route_id": "056", "heat_score": 59.48, "heat_grade": "q3", "length": 129.48392877619429 }, "geometry": { "type": "LineString", "coordinates": [ [ 207522.907239496766124, 523350.161479369795416 ], [ 207540.396532257640501, 523351.631082991953008 ], [ 207553.225323166174348, 523350.344128517666832 ], [ 207627.804686262039468, 523323.054231316433288 ], [ 207646.471773269819096, 523316.223557246674318 ] ] } },
{ "type": "Feature", "properties": { "route_id": "056", "heat_score": 61.93, "heat_grade": "q3", "length": 198.4104238423169 }, "geometry": { "type": "LineString", "coordinates": [ [ 207463.554279576463159, 523163.156610624922905 ], [ 207465.679397147934651, 523175.943807198025752 ], [ 207468.517946437903447, 523193.936768507352099 ], [ 207472.784609547146829, 523210.987644490785897 ], [ 207499.953884966293117, 523273.051721286203247 ], [ 207520.833352131739957, 523319.949890394462273 ], [ 207522.907239496766124, 523350.161479369795416 ] ] } },
{ "type": "Feature", "properties": { "route_id": "056", "heat_score": 43.28, "heat_grade": "q1", "length": 141.36642154446307 }, "geometry": { "type": "LineString", "coordinates": [ [ 207347.988661646144465, 523243.018127369112335 ], [ 207359.79417948651826, 523236.103113642835524 ], [ 207399.193983671721071, 523212.309640893305186 ], [ 207421.652506235404871, 523198.745114364894107 ], [ 207450.206433740677312, 523179.592494283802807 ], [ 207463.554279576463159, 523163.156610624922905 ] ] } },
{ "type": "Feature", "properties": { "route_id": "056", "heat_score": 39.62, "heat_grade": "q1", "length": 265.95487631177792 }, "geometry": { "type": "LineString", "coordinates": [ [ 207347.988661646144465, 523243.018127369112335 ], [ 207336.792871904501226, 523252.197755934204906 ], [ 207329.272351839637849, 523255.542878366308287 ], [ 207314.989123284030939, 523257.350528754701372 ], [ 207266.004240446171025, 523263.467500558588654 ], [ 207262.369100502430229, 523263.997070555749815 ], [ 207258.636137661524117, 523264.881704751867801 ], [ 207253.404105214169249, 523266.774993263126817 ], [ 207242.220548352896003, 523272.214613151096273 ], [ 207228.899101567571051, 523279.306058409682009 ], [ 207221.28982645936776, 523282.850971556443255 ], [ 207215.579110762133496, 523284.732772860908881 ], [ 207208.441927400737768, 523285.681089087913278 ], [ 207201.545131911349017, 523285.430995620205067 ], [ 207194.888702299882425, 523284.004688565502875 ], [ 207189.420586847496452, 523282.113275281968527 ], [ 207181.578271125792526, 523278.310913575696759 ], [ 207173.080228559265379, 523274.163948950357735 ], [ 207171.361119707435137, 523273.330101034720428 ], [ 207166.840547378000338, 523272.615939058887307 ], [ 207163.27597774201422, 523273.567349853867199 ], [ 207160.658765657048207, 523275.929062658571638 ], [ 207156.851609578967327, 523280.664807890716475 ], [ 207153.515925244399114, 523283.503138637403026 ], [ 207149.471645586483646, 523285.630571444518864 ], [ 207144.239660363004077, 523287.512829769519158 ], [ 207139.956028893328039, 523289.640063121682033 ], [ 207135.910338064510142, 523293.432254519779235 ], [ 207132.102807208604645, 523298.634141661750618 ], [ 207128.773784774413798, 523304.080601421708707 ], [ 207126.62402196630137, 523309.283901511109434 ], [ 207124.961431881936733, 523314.964845659851562 ], [ 207122.573318872600794, 523318.991518544848077 ], [ 207118.33188459239318, 523323.649223902961239 ] ] } },
{ "type": "Feature", "properties": { "route_id": "056", "heat_score": 53.44, "heat_grade": "q2", "length": 190.63788038891053 }, "geometry": { "type": "LineString", "coordinates": [ [ 207118.33188459239318, 523323.649223902961239 ], [ 207119.367119580245344, 523325.969659623224288 ], [ 207124.117964490316808, 523337.338413231715094 ], [ 207129.816943142359378, 523349.185205693764146 ], [ 207135.98817768425215, 523358.180126910330728 ], [ 207142.640518967702519, 523364.345382046652958 ], [ 207150.242612838454079, 523369.090863268706016 ], [ 207161.657443191623315, 523372.885150376241654 ], [ 207180.199273386766436, 523377.162786049710121 ], [ 207185.428374943759991, 523378.587857804843225 ], [ 207203.968548993987497, 523384.763363745820243 ], [ 207221.478737535857363, 523392.824743830598891 ], [ 207228.691929689870449, 523396.14937175862724 ], [ 207235.47740527705173, 523402.015160384471528 ], [ 207246.301712604094064, 523412.001936672255397 ], [ 207256.513566308625741, 523422.85386865970213 ], [ 207265.930507864337415, 523430.2979282225715 ] ] } },
{ "type": "Feature", "properties": { "route_id": "056", "heat_score": 67.32, "heat_grade": "q4", "length": 204.96027160856676 }, "geometry": { "type": "LineString", "coordinates": [ [ 207265.930507864337415, 523430.2979282225715 ], [ 207256.129929281916702, 523435.916303407982923 ], [ 207220.320225330302492, 523471.888444983866066 ], [ 207216.085929575841874, 523478.577107623568736 ], [ 207212.263683577475604, 523490.615535891323816 ], [ 207212.626606429519597, 523501.536633168405388 ], [ 207215.223688622296322, 523512.193293465476017 ], [ 207223.135163613100303, 523528.048566175799351 ], [ 207232.520823817671044, 523540.819775150390342 ], [ 207237.876497280842159, 523549.525513372558635 ], [ 207272.454562762082787, 523594.315138472942635 ] ] } },
{ "type": "Feature", "properties": { "route_id": "056", "heat_score": 70.56, "heat_grade": "q4", "length": 133.55653813298443 }, "geometry": { "type": "LineString", "coordinates": [ [ 207272.454562762082787, 523594.315138472942635 ], [ 207245.337735167704523, 523624.645663882547524 ], [ 207179.806698149885051, 523690.480227687279694 ] ] } },
{ "type": "Feature", "properties": { "route_id": "056", "heat_score": 71.8, "heat_grade": "q5", "length": 57.518544897430246 }, "geometry": { "type": "LineString", "coordinates": [ [ 207144.67284092947375, 523735.997874051565304 ], [ 207179.806698149885051, 523690.480227687279694 ] ] } },
{ "type": "Feature", "properties": { "route_id": "056", "heat_score": 76.18, "heat_grade": "q5", "length": 100.47517413986247 }, "geometry": { "type": "LineString", "coordinates": [ [ 207144.67284092947375, 523735.997874051565304 ], [ 207139.504354119679192, 523767.723687597783282 ], [ 207137.829955265071476, 523776.95609911927022 ], [ 207137.115716607455397, 523782.915311744669452 ], [ 207137.163675802585203, 523789.052747513807844 ], [ 207137.760591390717309, 523795.945339690428227 ], [ 207138.410182377323508, 523803.437288494722452 ], [ 207146.796084014698863, 523834.5198561581783 ] ] } },
{ "type": "Feature", "properties": { "route_id": "056", "heat_score": 77.35, "heat_grade": "q5", "length": 37.258050742887846 }, "geometry": { "type": "LineString", "coordinates": [ [ 207146.796084014698863, 523834.5198561581783 ], [ 207164.142288338305661, 523867.452419156674296 ] ] } },
{ "type": "Feature", "properties": { "route_id": "056", "heat_score": 56.95, "heat_grade": "q2", "length": 99.237808277441317 }, "geometry": { "type": "LineString", "coordinates": [ [ 207164.142288338305661, 523867.452419156674296 ], [ 207165.451348040369339, 523870.816343119135126 ], [ 207166.972687651636079, 523874.724268766934983 ], [ 207182.956569079193287, 523914.547792914963793 ], [ 207196.320953384623863, 523949.130671079852618 ], [ 207200.903793246659916, 523959.478286081808619 ] ] } },
{ "type": "Feature", "properties": { "route_id": "056", "heat_score": 60.8, "heat_grade": "q3", "length": 11.407869974804932 }, "geometry": { "type": "LineString", "coordinates": [ [ 207190.351465724874288, 523963.86417643429013 ], [ 207200.903793246659916, 523959.478286081808619 ] ] } },
{ "type": "Feature", "properties": { "route_id": "056", "heat_score": 49.7, "heat_grade": "q2", "length": 104.93927250892878 }, "geometry": { "type": "LineString", "coordinates": [ [ 207234.333940372744109, 524058.981752030667849 ], [ 207216.547730751364725, 524023.107586083817296 ], [ 207199.543429854908027, 523984.903475038008764 ], [ 207190.351465724874288, 523963.86417643429013 ] ] } },
{ "type": "Feature", "properties": { "route_id": "056", "heat_score": 28.43, "heat_grade": "q1", "length": 10.875769449256902 }, "geometry": { "type": "LineString", "coordinates": [ [ 207234.333940372744109, 524058.981752030667849 ], [ 207244.265751940110931, 524054.506593152880669 ] ] } },
{ "type": "Feature", "properties": { "route_id": "056", "heat_score": 47.46, "heat_grade": "q1", "length": 50.837344709926064 }, "geometry": { "type": "LineString", "coordinates": [ [ 207244.265751940110931, 524054.506593152880669 ], [ 207257.098352216096828, 524047.525727021798957 ], [ 207290.493507500679698, 524033.271120784163941 ] ] } },
{ "type": "Feature", "properties": { "route_id": "056", "heat_score": 34.04, "heat_grade": "q1", "length": 185.97020938851955 }, "geometry": { "type": "LineString", "coordinates": [ [ 207290.493507500679698, 524033.271120784163941 ], [ 207332.497250391519628, 524078.34495644265553 ], [ 207341.12702019023709, 524103.112975254887715 ], [ 207348.94328094489174, 524125.549632727983408 ], [ 207355.265212471538689, 524143.71211379696615 ], [ 207374.270986444695154, 524162.662641114846338 ], [ 207400.890423610107973, 524172.164122886606492 ] ] } }
]
}
