{
"type": "FeatureCollection",
"name": "057_edges",
"crs": { "type": "name", "properties": { "name": "urn:ogc:def:crs:EPSG::5186" } },
"features": [
{ "type": "Feature", "properties": { "route_id": "057", "heat_score": 46.12, "heat_grade": "q1", "length": 200.58106745106704 }, "geometry": { "type": "LineString", "coordinates": [ [ 207179.774873922287952, 522775.665069967100862 ], [ 207336.373167118814308, 522901.223107286146842 ] ] } },
{ "type": "Feature", "properties": { "route_id": "057", "heat_score": 60.8, "heat_grade": "q3", "length": 184.91169404037097 }, "geometry": { "type": "LineString", "coordinates": [ [ 207450.763126264209859, 523042.028905455255881 ], [ 207442.462378139985958, 523015.252306294045411 ], [ 207429.469567886117147, 522990.99088150676107 ], [ 207340.403545858192956, 522905.111058345239144 ], [ 207336.373167118814308, 522901.223107286146842 ] ] } },
{ "type": "Feature", "properties": { "route_id": "057", "heat_score": 51.88, "heat_grade": "q2", "length": 122.05488345319775 }, "geometry": { "type": "LineString", "coordinates": [ [ 207450.763126264209859, 523042.028905455255881 ], [ 207452.23470396065386, 523062.040542282862589 ], [ 207455.288860940403538, 523096.847691579721868 ], [ 207463.043736484250985, 523159.071961774141528 ], [ 207463.554279576463159, 523163.156610624922905 ] ] } },
{ "type": "Feature", "properties": { "route_id": "057", "heat_score": 72.33, "heat_grade": "q5", "length": 85.250475158806722 }, "geometry": { "type": "LineString", "coordinates": [ [ 207541.636850906797918, 523155.479862710344605 ], [ 207527.750122540892335, 523149.884905534738209 ], [ 207512.897417597647291, 523143.900663062406238 ], [ 207505.549194008606719, 523142.750948399072513 ], [ 207498.641735789336963, 523144.387321301910561 ], [ 207490.80218502090429, 523147.421259261725936 ], [ 207463.554279576463159, 523163.156610624922905 ] ] } },
{ "type": "Feature", "properties": { "route_id": "057", "heat_score": 59.07, "heat_grade": "q3", "length": 263.04740863849952 }, "geometry": { "type": "LineString", "coordinates": [ [ 207541.636850906797918, 523155.479862710344605 ], [ 207546.802632279519457, 523099.326844527560752 ], [ 207547.523435950861312, 523086.464502665912732 ], [ 207549.912732705415692, 523002.696293415792752 ], [ 207552.439406325225718, 522914.100437028158922 ], [ 207552.458188068703748, 522893.257753249024972 ] ] } },
{ "type": "Feature", "properties": { "route_id": "057", "heat_score": 50.82, "heat_grade": "q2", "length": 40.083210260998122 }, "geometry": { "type": "LineString", "coordinates": [ [ 207571.523373707197607, 522858.914465541951358 ], [ 207565.400520351075102, 522865.179503699764609 ], [ 207558.174052492744522, 522876.215841215569526 ], [ 207554.363509500573855, 522884.25870899198344 ], [ 207552.458188068703748, 522893.257753249024972 ] ] } },
{ "type": "Feature", "properties": { "route_id": "057", "heat_score": 54.67, "heat_grade": "q2", "length": 117.01676776548605 }, "geometry": { "type": "LineString", "coordinates": [ [ 207632.209721306513529, 522759.395126882765908 ], [ 207614.181299458054127, 522784.017061492195353 ], [ 207598.228930802230025, 522807.087148589780554 ], [ 207584.776618201198289, 522830.281610545993317 ], [ 207571.523373707197607, 522858.914465541951358 ] ] } },
{ "type": "Feature", "properties": { "route_id": "057", "heat_score": 48.78, "heat_grade": "q2", "length": 377.00289897320175 }, "geometry": { "type": "LineString", "coordinates": [ [ 207632.209721306513529, 522759.395126882765908 ], [ 207631.629031229531392, 522735.044824177981354 ], [ 207625.03490890096873, 522703.708189708355349 ], [ 207596.504499205067987, 522665.337497748376336 ], [ 207557.206033071270213, 522622.429065585019998 ], [ 207517.075260402110871, 522587.755046367063187 ], [ 207490.126688519521849, 522573.991172150068451 ], [ 207448.492375963018276, 522554.587462078139652 ], [ 207370.948186727182474, 522518.438201158307493 ] ] } },
{ "type": "Feature", "properties": { "route_id": "057", "heat_score": 40.02, "heat_grade": "q1", "length": 66.198995119199509 }, "geometry": { "type": "LineString", "coordinates": [ [ 207370.948186727182474, 522518.438201158307493 ], [ 207355.501230481109815, 522511.321692883269861 ], [ 207310.098130403377581, 522492.104039101977833 ] ] } },
{ "type": "Feature", "properties": { "route_id": "057", "heat_score": 47.09, "heat_grade": "q1", "length": 58.191396489777176 }, "geometry": { "type": "LineString", "coordinates": [ [ 207310.098130403377581, 522492.104039101977833 ], [ 207304.630568037653575, 522489.013933653011918 ], [ 207298.684436775074573, 522485.701448244508356 ], [ 207293.934791070350911, 522482.856138476170599 ], [ 207288.707001287577441, 522479.300121776701417 ], [ 207277.778411731385859, 522465.550879377697129 ], [ 207268.03657922099228, 522453.234366508200765 ] ] } },
{ "type": "Feature", "properties": { "route_id": "057", "heat_score": 64.82, "heat_grade": "q3", "length": 130.1828557911723 }, "geometry": { "type": "LineString", "coordinates": [ [ 207318.863008673797594, 522364.092325371224433 ], [ 207322.521853921556612, 522367.32513758278219 ], [ 207336.014240135031287, 522379.4008300715941 ], [ 207338.861213455413235, 522388.404075969941914 ], [ 207328.853508461092133, 522406.385730089561548 ], [ 207304.586486675747437, 522427.684460955380928 ], [ 207287.266754376643803, 522443.073883425095119 ], [ 207268.03657922099228, 522453.234366508200765 ] ] } },
{ "type": "Feature", "properties": { "route_id": "057", "heat_score": 68.97, "heat_grade": "q4", "length": 51.324837504593418 }, "geometry": { "type": "LineString", "coordinates": [ [ 207281.558766698231921, 522328.867004036146682 ], [ 207297.813499103329377, 522345.517549802840222 ], [ 207301.436925430345582, 522348.717026828671806 ], [ 207318.863008673797594, 522364.092325371224433 ] ] } },
{ "type": "Feature", "properties": { "route_id": "057", "heat_score": 66.33, "heat_grade": "q4", "length": 38.246264175284225 }, "geometry": { "type": "LineString", "coordinates": [ [ 207281.558766698231921, 522328.867004036146682 ], [ 207262.646502889430849, 522309.495094538491685 ], [ 207256.173277345049428, 522300.388851156109013 ] ] } },
{ "type": "Feature", "properties": { "route_id": "057", "heat_score": 68.05, "heat_grade": "q4", "length": 31.381983219980814 }, "geometry": { "type": "LineString", "coordinates": [ [ 207256.173277345049428, 522300.388851156109013 ], [ 207233.965121365967207, 522278.206275703734718 ] ] } },
{ "type": "Feature", "properties": { "route_id": "057", "heat_score": 67.34, "heat_grade": "q4", "length": 51.991161271288505 }, "geometry": { "type": "LineString", "coordinates": [ [ 207215.653998428460909, 522229.712955568218604 ], [ 207217.359320033778204, 522236.506605989998206 ], [ 207224.94810640331707, 522257.833049377659336 ], [ 207233.965121365967207, 522278.206275703734718 ] ] } },
{ "type": "Feature", "properties": { "route_id": "057", "heat_score": 73.45, "heat_grade": "q5", "length": 51.464881187552983 }, "geometry": { "type": "LineString", "coordinates": [ [ 207215.653998428460909, 522229.712955568218604 ], [ 207210.246501964342315, 522208.088742362218909 ], [ 207202.18454987910809, 522180.1362007605494 ] ] } },
{ "type": "Feature", "properties": { "route_id": "057", "heat_score": 71.06, "heat_grade": "q5", "length": 19.527263296904572 }, "geometry": { "type": "LineString", "coordinates": [ [ 207197.040553322935011, 522161.331201580120251 ], [ 207202.18454987910809, 522180.1362007605494 ] ] } },
{ "type": "Feature", "properties": { "route_id": "057", "heat_score": 53.38, "heat_grade": "q2", "length": 84.009934825780832 }, "geometry": { "type": "LineString", "coordinates": [ [ 207197.040553322935011, 522161.331201580120251 ], [ 207128.88054565951461, 522177.887171739828773 ], [ 207115.232611739280401, 522181.205077727558091 ] ] } },
{ "type": "Feature", "properties": { "route_id": "057", "heat_score": 42.93, "heat_grade": "q1", "length": 75.596993007572166 }, "geometry": { "type": "LineString", "coordinates": [ [ 207096.373956939496566, 522108.128750727628358 ], [ 207102.260562523762928, 522129.786587238893844 ], [ 207106.069129793468164, 522144.883550692349672 ], [ 207113.05000213519088, 522172.546523445344064 ], [ 207115.232611739280401, 522181.205077727558091 ] ] } },
{ "type": "Feature", "properties": { "route_id": "057", "heat_score": 55.12, "heat_grade": "q2", "length": 31.918962799760493 }, "geometry": { "type": "LineString", "coordinates": [ [ 207126.961756946722744, 522098.787704036803916 ], [ 207096.373956939496566, 522108.128750727628358 ] ] } },
{ "type": "Feature", "properties": { "route_id": "057", "heat_score": 70.62, "heat_grade": "q4", "length": 172.7616238479138 }, "geometry": { "type": "LineString", "coordinates": [ [ 207126.961756946722744, 522098.787704036803916 ], [ 207111.821114714839496, 522032.528889972250909 ], [ 207110.877232761064079, 522026.84574258106295 ], [ 207112.31716654295451, 522012.174967397470027 ], [ 207112.455971808143659, 522005.327413610648364 ], [ 207112.461461054394022, 521998.857090114150196 ], [ 207111.380890801461646, 521987.069743955216836 ], [ 207107.132576007395983, 521957.22272534982767 ], [ 207106.186635884776479, 521943.493286663491745 ], [ 207105.037732329627033, 521928.620548200502526 ] ] } },
{ "type": "Feature", "properties": { "route_id": "057", "heat_score": 59.69, "heat_grade": "q3", "length": 98.355194393229539 }, "geometry": { "type": "LineString", "coordinates": [ [ 207105.037732329627033, 521928.620548200502526 ], [ 207107.216488019359531, 521858.23677865031641 ], [ 207101.507629839063156, 521856.811354840698186 ], [ 207079.675984029629035, 521859.378802286810242 ] ] } },
{ "type": "Feature", "properties": { "route_id": "057", "heat_score": 61.87, "heat_grade": "q3", "length": 64.607541240474063 }, "geometry": { "type": "LineString", "coordinates": [ [ 207068.486695632018382, 521795.909110695472918 ], [ 207071.754071424831636, 521811.649297250143718 ], [ 207076.575462605425855, 521835.081939701514784 ], [ 207079.675984029629035, 521859.378802286810242 ] ] } },
{ "type": "Feature", "properties": { "route_id": "057", "heat_score": 58.34, "heat_grade": "q2", "length": 635.73958513877403 }, "geometry": { "type": "LineString", "coordinates": [ [ 206517.020434550126083, 522055.129948140005581 ], [ 206603.793392169551225, 522035.187558194622397 ], [ 206625.218367993278662, 522030.354491060657892 ], [ 206644.11806065053679, 522023.488482198910788 ], [ 206657.217880636977497, 522018.238264867046382 ], [ 206669.609041515679564, 522012.188424310297705 ], [ 206682.214393824862782, 522004.407433042069897 ], [ 206694.102228543022648, 521995.8268079420086 ], [ 206704.163206120632822, 521987.744163601193577 ], [ 206711.47440271571395, 521981.168702714901883 ], [ 206764.835693231638288, 521922.368238593568094 ], [ 206805.596160265384242, 521877.197727173741441 ], [ 206821.960534970508888, 521859.409305576584302 ], [ 206836.193372958252439, 521846.069608108547982 ], [ 206852.04718080474413, 521834.762253855646122 ], [ 206865.859316019981634, 521826.383216417278163 ], [ 206875.305390699155396, 521822.539836971031036 ], [ 206886.073080050497083, 521818.109342086128891 ], [ 206899.278612279391382, 521814.269078214711044 ], [ 206911.675785953033483, 521812.259393025073223 ], [ 206924.365233618358616, 521810.649507391906809 ], [ 206990.489069320290582, 521804.03428291954333 ], [ 207048.012333847087575, 521797.478935446648393 ], [ 207050.406554352142848, 521797.203490207844879 ], [ 207068.486695632018382, 521795.909110695472918 ] ] } },
{ "type": "Feature", "properties": { "route_id": "057", "heat_score": 63.53, "heat_grade": "q3", "length": 91.867822164257277 }, "geometry": { "type": "LineString", "coordinates": [ [ 206497.158264187222812, 521965.595390763774049 ], [ 206517.020434550126083, 522055.129948140005581 ] ] } },
{ "type": "Feature", "properties": { "route_id": "057", "heat_score": 74.72, "heat_grade": "q5", "length": 22.12094412342201 }, "geometry": { "type": "LineString", "coordinates": [ [ 206497.158264187222812, 521965.595390763774049 ], [ 206475.405567995272577, 521969.873615218268242 ] ] } },
{ "type": "Feature", "properties": { "route_id": "057", "heat_score": 53.42, "heat_grade": "q2", "length": 246.66286548174594 }, "geometry": { "type": "LineString", "coordinates": [ [ 206475.405567995272577, 521969.873615218268242 ], [ 206465.513280459039379, 521931.931887611222919 ], [ 206463.028824790788349, 521922.818243178189732 ], [ 206458.627020500221988, 521916.533196407370269 ], [ 206442.466367063345388, 521901.12737941427622 ], [ 206436.287322145857615, 521899.935112283332273 ], [ 206351.368347181589343, 521917.394612457195763 ], [ 206279.002159474010114, 521938.193863264634274 ] ] } },
{ "type": "Feature", "properties": { "route_id": "057", "heat_score": 42.95, "heat_grade": "q1", "length": 208.18918379713523 }, "geometry": { "type": "LineString", "coordinates": [ [ 206352.07277867308585, 522122.780862053390592 ], [ 206347.272004428581567, 522104.797926879255101 ], [ 206339.398921656102175, 522034.19548022642266 ], [ 206332.193266304093413, 522018.874337583431043 ], [ 206325.885802286880789, 522011.711152403149754 ], [ 206319.514957622392103, 522006.279263895354234 ], [ 206312.681982073088875, 522002.267618637240957 ], [ 206302.614447248110082, 521996.01168392249383 ], [ 206297.838554646237753, 521991.879515933920629 ], [ 206292.568986882339232, 521983.951351153315045 ], [ 206287.665504721517209, 521972.594080325157847 ], [ 206281.096702874579933, 521947.284964184334967 ], [ 206279.002159474010114, 521938.193863264634274 ] ] } },
{ "type": "Feature", "properties": { "route_id": "057", "heat_score": 64.32, "heat_grade": "q3", "length": 184.60535625059862 }, "geometry": { "type": "LineString", "coordinates": [ [ 206352.07277867308585, 522122.780862053390592 ], [ 206327.621843072236516, 522131.530054113245569 ], [ 206299.431266838975716, 522137.790480000083335 ], [ 206234.954468179348623, 522151.504211085964926 ], [ 206172.463091390643967, 522166.340831186855212 ] ] } },
{ "type": "Feature", "properties": { "route_id": "057", "heat_score": 63.14, "heat_grade": "q3", "length": 156.65483559065359 }, "geometry": { "type": "LineString", "coordinates": [ [ 206205.332300392095931, 522319.23355640238151 ], [ 206191.751808150176657, 522256.062888674263377 ], [ 206183.46379830915248, 522217.523354289704002 ], [ 206178.215285554761067, 522193.103150190843735 ], [ 206176.969436485727783, 522187.286705339967739 ], [ 206172.463091390643967, 522166.340831186855212 ] ] } },
{ "type": "Feature", "properties": { "route_id": "057", "heat_score": 70.96, "heat_grade": "q5", "length": 59.670073202983254 }, "geometry": { "type": "LineString", "coordinates": [ [ 206218.136083416815381, 522377.409424854791723 ], [ 206215.741460988530889, 522366.531278902024496 ], [ 206205.332300392095931, 522319.23355640238151 ] ] } },
{ "type": "Feature", "properties": { "route_id": "057", "heat_score": 73.62, "heat_grade": "q5", "length": 32.193273890800143 }, "geometry": { "type": "LineString", "coordinates": [ [ 206218.136083416815381, 522377.409424854791723 ], [ 206209.419645301561104, 522390.931836327712517 ], [ 206200.694377499748953, 522404.443152218475007 ] ] } },
{ "type": "Feature", "properties": { "route_id": "057", "heat_score": 73.01, "heat_grade": "q5", "length": 39.990671471360933 }, "geometry": { "type": "LineString", "coordinates": [ [ 206234.271391061018221, 522426.209700055420399 ], [ 206213.748226095747668, 522412.188359627733007 ], [ 206200.694377499748953, 522404.443152218475007 ] ] } },
{ "type": "Feature", "properties": { "route_id": "057", "heat_score": 63.54, "heat_grade": "q3", "length": 276.46944008198705 }, "geometry": { "type": "LineString", "coordinates": [ [ 206234.271391061018221, 522426.209700055420399 ], [ 206226.125736047833925, 522435.237692808033898 ], [ 206220.606572872173274, 522441.359877732465975 ], [ 206211.840274701418821, 522462.429120845685247 ], [ 206212.978532070526853, 522469.777064399793744 ], [ 206220.112424758612178, 522474.044117005192675 ], [ 206235.798731319984654, 522482.579295702162199 ], [ 206266.700652046391042, 522500.592748600232881 ], [ 206292.843242073635338, 522516.24989388405811 ], [ 206316.613979455723893, 522526.21188532654196 ], [ 206355.595815868175123, 522551.334698215767276 ], [ 206378.893602951313369, 522565.092140990425833 ], [ 206396.700854744616663, 522535.695109826163389 ] ] } },
{ "type": "Feature", "properties": { "route_id": "057", "heat_score": 58.13, "heat_grade": "q2", "length": 31.796712210196659 }, "geometry": { "type": "LineString", "coordinates": [ [ 206415.445159245922696, 522510.027876777225174 ], [ 206396.700854744616663, 522535.695109826163389 ] ] } },
{ "type": "Feature", "properties": { "route_id": "057", "heat_score": 38.26, "heat_grade": "q1", "length": 197.10807189886197 }, "geometry": { "type": "LineString", "coordinates": [ [ 206415.445159245922696, 522510.027876777225174 ], [ 206468.017268628376769, 522547.736044413293712 ], [ 206542.79020669858437, 522606.415513455111068 ], [ 206572.792030534386868, 522628.946423171495553 ] ] } },
{ "type": "Feature", "properties": { "route_id": "057", "heat_score": 58.03, "heat_grade": "q2", "length": 45.056049549349225 }, "geometry": { "type": "LineString", "coordinates": [ [ 206572.792030534386868, 522628.946423171495553 ], [ 206590.077673906082055, 522632.200711636862252 ], [ 206616.477233047393383, 522624.286194543819875 ] ] } },
{ "type": "Feature", "properties": { "route_id": "057", "heat_score": 76.45, "heat_grade": "q5", "length": 45.831104399956985 }, "geometry": { "type": "LineString", "coordinates": [ [ 206616.477233047393383, 522624.286194543819875 ], [ 206615.279413082491374, 522636.715392371348571 ], [ 206616.572758190624882, 522649.279736839758698 ], [ 206623.596807626367081, 522668.685187555733137 ] ] } },
{ "type": "Feature", "properties": { "route_id": "057", "heat_score": 65.1, "heat_grade": "q4", "length": 35.381265085056462 }, "geometry": { "type": "LineString", "coordinates": [ [ 206595.598243002139498, 522647.010242493532132 ], [ 206597.963948771706782, 522648.843330873874947 ], [ 206607.231847100541927, 522656.009062354511116 ], [ 206609.535522832593415, 522657.797711771156173 ], [ 206623.596807626367081, 522668.685187555733137 ] ] } },
{ "type": "Feature", "properties": { "route_id": "057", "heat_score": 46.88, "heat_grade": "q1", "length": 19.708823947511256 }, "geometry": { "type": "LineString", "coordinates": [ [ 206590.06891373268445, 522665.895272418158129 ], [ 206590.91342425433686, 522663.010367336100899 ], [ 206592.833575267577544, 522656.452756935730577 ], [ 206595.598243002139498, 522647.010242493532132 ] ] } },
{ "type": "Feature", "properties": { "route_id": "057", "heat_score": 70.84, "heat_grade": "q4", "length": 68.445001963934118 }, "geometry": { "type": "LineString", "coordinates": [ [ 206644.214013427641476, 522707.812066974758636 ], [ 206622.949681438534753, 522691.036739126313478 ], [ 206596.085597362485714, 522669.873211804078892 ], [ 206590.06891373268445, 522665.895272418158129 ] ] } },
{ "type": "Feature", "properties": { "route_id": "057", "heat_score": 77.34, "heat_grade": "q5", "length": 73.491944445220497 }, "geometry": { "type": "LineString", "coordinates": [ [ 206644.214013427641476, 522707.812066974758636 ], [ 206630.954864376806654, 522702.907197405234911 ], [ 206623.794699291116558, 522698.739657133526634 ], [ 206615.339245848212158, 522695.703131624264643 ], [ 206609.425967430841411, 522695.543089822866023 ], [ 206604.894368834677152, 522697.115482405293733 ], [ 206601.556813371484168, 522702.273582697787788 ], [ 206601.790696567273699, 522709.243526591220871 ], [ 206602.902261125767836, 522727.490079151990358 ] ] } },
{ "type": "Feature", "properties": { "route_id": "057", "heat_score": 69.26, "heat_grade": "q4", "length": 226.4491117835687 }, "geometry": { "type": "LineString", "coordinates": [ [ 206602.902261125767836, 522727.490079151990358 ], [ 206609.777328609518008, 522744.653537794190925 ], [ 206620.698467228387017, 522768.756662962958217 ], [ 206628.768534754781285, 522788.174046463915147 ], [ 206635.408953099919017, 522810.442581187176984 ], [ 206638.471031156688696, 522828.457620628527366 ], [ 206639.19464615630568, 522832.69776184076909 ], [ 206641.323147564457031, 522854.097059040504973 ], [ 206643.180395504605258, 522882.155150392383803 ], [ 206642.351129223243333, 522910.555162559146993 ], [ 206641.47133213779307, 522946.790569369448349 ] ] } },
{ "type": "Feature", "properties": { "route_id": "057", "heat_score": 70.93, "heat_grade": "q5", "length": 162.83152168218132 }, "geometry": { "type": "LineString", "coordinates": [ [ 206773.346410258352989, 523031.920559309888631 ], [ 206770.746463823976228, 523023.927646894997451 ], [ 206765.516322570008924, 523012.447730111773126 ], [ 206761.780175052001141, 523006.218541106791236 ], [ 206758.901517160207732, 523003.019894580007531 ], [ 206751.289253442257177, 522999.207025360199623 ], [ 206731.492089283594396, 522989.202587225590833 ], [ 206659.685140726331156, 522952.587261633598246 ], [ 206641.47133213779307, 522946.790569369448349 ] ] } },
{ "type": "Feature", "properties": { "route_id": "057", "heat_score": 67.63, "heat_grade": "q4", "length": 29.543377022656745 }, "geometry": { "type": "LineString", "coordinates": [ [ 206773.346410258352989, 523031.920559309888631 ], [ 206773.832800467382185, 523033.408131251984742 ], [ 206774.660972243291326, 523039.801450001075864 ], [ 206775.010802434640937, 523045.71715315640904 ], [ 206773.216083485429408, 523050.576779687195085 ], [ 206769.103752485156292, 523060.106939691584557 ] ] } },
{ "type": "Feature", "properties": { "route_id": "057", "heat_score": 73.15, "heat_grade": "q5", "length": 142.20746967031641 }, "geometry": { "type": "LineString", "coordinates": [ [ 206769.103752485156292, 523060.106939691584557 ], [ 206761.017530720564537, 523061.44331272499403 ], [ 206749.003357734472957, 523063.564512309618294 ], [ 206736.874798714386998, 523064.620195568189956 ], [ 206726.892584185989108, 523064.501193796866573 ], [ 206717.735801099159289, 523063.18424373382004 ], [ 206706.204629476851551, 523059.978683921217453 ], [ 206700.266974745347397, 523057.365822590771131 ], [ 206700.027718491415726, 523057.232451117422897 ], [ 206694.320823363319505, 523054.286828013544437 ], [ 206689.093704136670567, 523050.020888141472824 ], [ 206685.053865618538111, 523046.588274743582588 ], [ 206681.013652203371748, 523043.621793692524079 ], [ 206676.264680203428725, 523040.06653745949734 ], [ 206669.963807112799259, 523037.098261215374805 ], [ 206664.610758800467011, 523035.085201437119395 ], [ 206652.486591881694039, 523030.569639068446122 ], [ 206636.320133969449671, 523025.662450250121765 ] ] } },
{ "type": "Feature", "properties": { "route_id": "057", "heat_score": 55.57, "heat_grade": "q2", "length": 383.00315027658002 }, "geometry": { "type": "LineString", "coordinates": [ [ 206636.320133969449671, 523025.662450250121765 ], [ 206636.2485435201379, 523026.505868083389942 ], [ 206636.709405798406806, 523037.8709424699191 ], [ 206639.086295784538379, 523047.816945985308848 ], [ 206642.880878057243535, 523058.707433635601774 ], [ 206647.931713331694482, 523072.884031155495904 ], [ 206650.470382798084756, 523080.022284275386482 ], [ 206656.698542353900848, 523096.375098579446785 ], [ 206672.304229068482528, 523137.340422332519665 ], [ 206687.522069235244999, 523175.331110282742884 ], [ 206694.131179979565786, 523191.817439323989674 ], [ 206702.535873189044651, 523213.321665180905256 ], [ 206716.98298488088767, 523250.301845113455784 ], [ 206729.129789627331775, 523281.386979123286437 ], [ 206740.542216258356348, 523310.595919838175178 ], [ 206770.607128836680204, 523382.925938008236699 ] ] } },
{ "type": "Feature", "properties": { "route_id": "057", "heat_score": 50.25, "heat_grade": "q2", "length": 21.9818519338281 }, "geometry": { "type": "LineString", "coordinates": [ [ 206779.526765397808049, 523402.987878024403471 ], [ 206777.367656259943033, 523398.125051714596339 ], [ 206770.607128836680204, 523382.925938008236699 ] ] } },
{ "type": "Feature", "properties": { "route_id": "057", "heat_score": 71.21, "heat_grade": "q5", "length": 77.9431086124481 }, "geometry": { "type": "LineString", "coordinates": [ [ 206779.526765397808049, 523402.987878024403471 ], [ 206800.963496852171374, 523477.797072580840904 ] ] } },
{ "type": "Feature", "properties": { "route_id": "057", "heat_score": 63.84, "heat_grade": "q3", "length": 32.458900921145194 }, "geometry": { "type": "LineString", "coordinates": [ [ 206811.851306314725662, 523508.326399090408813 ], [ 206809.569380461121909, 523501.931890421954449 ], [ 206800.963496852171374, 523477.797072580840904 ] ] } },
{ "type": "Feature", "properties": { "route_id": "057", "heat_score": 57.35, "heat_grade": "q2", "length": 10.740704025009894 }, "geometry": { "type": "LineString", "coordinates": [ [ 206811.851306314725662, 523508.326399090408813 ], [ 206814.83037092135055, 523518.628097327775322 ] ] } },
{ "type": "Feature", "properties": { "route_id": "057", "heat_score": 66.63, "heat_grade": "q4", "length": 64.836059448065896 }, "geometry": { "type": "LineString", "coordinates": [ [ 206814.83037092135055, 523518.628097327775322 ], [ 206802.749902217939962, 523526.764475981006399 ], [ 206788.291681691334816, 523537.384977721958421 ], [ 206761.868371103308164, 523556.119838833401445 ] ] } },
{ "type": "Feature", "properties": { "route_id": "057", "heat_score": 65.52, "heat_grade": "q4", "length": 82.311089303466474 }, "geometry": { "type": "LineString", "coordinates": [ [ 206839.173833416803973, 523572.064329315559007 ], [ 206821.222729354311014, 523561.16220714134397 ], [ 206805.351057747844607, 523554.867630986846052 ], [ 206803.516647161683068, 523554.133649714058265 ], [ 206795.548856324865483, 523552.118381332198624 ], [ 206785.567618621164002, 523551.510981332277879 ], [ 206774.866790216095978, 523552.811929019168019 ], [ 206761.868371103308164, 523556.119838833401445 ] ] } },
{ "type": "Feature", "properties": { "route_id": "057", "heat_score": 75.27, "heat_grade": "q5", "length": 23.012022576848295 }, "geometry": { "type": "LineString", "coordinates": [ [ 206854.069994823861634, 523589.600809549039695 ], [ 206845.373186885903124, 523579.37211162148742 ], [ 206839.173833416803973, 523572.064329315559007 ] ] } },
{ "type": "Feature", "properties": { "route_id": "057", "heat_score": 73.12, "heat_grade": "q5", "length": 132.95531857136365 }, "geometry": { "type": "LineString", "coordinates": [ [ 206854.069994823861634, 523589.600809549039695 ], [ 206875.836112550809048, 523607.298328415723518 ], [ 206878.484937342931516, 523609.398092352086678 ], [ 206892.978150311886566, 523620.885706199565902 ], [ 206910.209923331014579, 523633.085898453602567 ], [ 206959.350902315316489, 523670.916486003727186 ] ] } },
{ "type": "Feature", "properties": { "route_id": "057", "heat_score": 65.31, "heat_grade": "q4", "length": 20.093226273590233 }, "geometry": { "type": "LineString", "coordinates": [ [ 206975.811789456114639, 523682.472469369880855 ], [ 206959.350902315316489, 523670.916486003727186 ] ] } },
{ "type": "Feature", "properties": { "route_id": "057", "heat_score": 65.22, "heat_grade": "q4", "length": 41.547711416807644 }, "geometry": { "type": "LineString", "coordinates": [ [ 206970.757949267106596, 523715.641265483689494 ], [ 206976.576142159086885, 523712.0169436140568 ], [ 206980.284787697513821, 523708.124507450091187 ], [ 206983.213878907845356, 523703.598816609359346 ], [ 206984.468237757537281, 523698.261550267867278 ], [ 206984.080886934476439, 523695.031604243500624 ], [ 206982.789493018120993, 523691.623331026406959 ], [ 206981.09859839497949, 523688.925020287977532 ], [ 206975.811789456114639, 523682.472469369880855 ] ] } },
{ "type": "Feature", "properties": { "route_id": "057", "heat_score": 58.2, "heat_grade": "q2", "length": 6.7960392762307 }, "geometry": { "type": "LineString", "coordinates": [ [ 206970.757949267106596, 523715.641265483689494 ], [ 206977.566148599784356, 523715.413866632676218 ] ] } },
{ "type": "Feature", "properties": { "route_id": "057", "heat_score": 73.74, "heat_grade": "q5", "length": 67.617039913262275 }, "geometry": { "type": "LineString", "coordinates": [ [ 207040.564005639811512, 523739.882961247465573 ], [ 207012.855473007977707, 523726.763657121045981 ], [ 207003.48836869513616, 523723.459608966251835 ], [ 206999.491619678447023, 523722.046777309617028 ], [ 206993.828670110902749, 523720.221917254268192 ], [ 206977.566148599784356, 523715.413866632676218 ] ] } },
{ "type": "Feature", "properties": { "route_id": "057", "heat_score": 74.39, "heat_grade": "q5", "length": 85.486837511386454 }, "geometry": { "type": "LineString", "coordinates": [ [ 207104.287560092838248, 523796.69377670326503 ], [ 207092.446774762211135, 523783.620971793192439 ], [ 207073.924840537569253, 523767.290720341843553 ], [ 207065.127821828995366, 523760.801854140416253 ], [ 207040.564005639811512, 523739.882961247465573 ] ] } },
{ "type": "Feature", "properties": { "route_id": "057", "heat_score": 78.9, "heat_grade": "q5", "length": 47.27426896456906 }, "geometry": { "type": "LineString", "coordinates": [ [ 207132.302570925385226, 523834.64068642386701 ], [ 207128.257600781274959, 523827.478799311211333 ], [ 207122.936468864179915, 523819.927386515133549 ], [ 207117.915626247529872, 523813.663642497791443 ], [ 207114.329306838713819, 523809.187956034322269 ], [ 207104.287560092838248, 523796.69377670326503 ] ] } },
{ "type": "Feature", "properties": { "route_id": "057", "heat_score": 58.56, "heat_grade": "q3", "length": 142.0643759549142 }, "geometry": { "type": "LineString", "coordinates": [ [ 207190.351465724874288, 523963.86417643429013 ], [ 207185.546597503009252, 523953.993606487638317 ], [ 207170.339545375783928, 523918.055167548591271 ], [ 207155.047035417868756, 523878.23225776583422 ], [ 207151.578871403413359, 523870.393851169443224 ], [ 207146.987076105287997, 523860.024060438736342 ], [ 207135.993617525469745, 523841.025388643553015 ], [ 207132.302570925385226, 523834.64068642386701 ] ] } },
{ "type": "Feature", "properties": { "route_id": "057", "heat_score": 60.8, "heat_grade": "q3", "length": 11.407869974804932 }, "geometry": { "type": "LineString", "coordinates": [ [ 207190.351465724874288, 523963.86417643429013 ], [ 207200.903793246659916, 523959.478286081808619 ] ] } },
{ "type": "Feature", "properties": { "route_id": "057", "heat_score": 56.95, "heat_grade": "q2", "length": 99.237808277441317 }, "geometry": { "type": "LineString", "coordinates": [ [ 207164.142288338305661, 523867.452419156674296 ], [ 207165.451348040369339, 523870.816343119135126 ], [ 207166.972687651636079, 523874.724268766934983 ], [ 207182.956569079193287, 523914.547792914963793 ], [ 207196.320953384623863, 523949.130671079852618 ], [ 207200.903793246659916, 523959.478286081808619 ] ] } },
{ "type": "Feature", "properties": { "route_id": "057", "heat_score": 77.35, "heat_grade": "q5", "length": 37.258050742887846 }, "geometry": { "type": "LineString", "coordinates": [ [ 207146.796084014698863, 523834.5198561581783 ], [ 207164.142288338305661, 523867.452419156674296 ] ] } },
{ "type": "Feature", "properties": { "route_id": "057", "heat_score": 76.18, "heat_grade": "q5", "length": 100.47517413986247 }, "geometry": { "type": "LineString", "coordinates": [ [ 207144.67284092947375, 523735.997874051565304 ], [ 207139.504354119679192, 523767.723687597783282 ], [ 207137.829955265071476, 523776.95609911927022 ], [ 207137.115716607455397, 523782.915311744669452 ], [ 207137.163675802585203, 523789.052747513807844 ], [ 207137.760591390717309, 523795.945339690428227 ], [ 207138.410182377323508, 523803.437288494722452 ], [ 207146.796084014698863, 523834.5198561581783 ] ] } },
{ "type": "Feature", "properties": { "route_id": "057", "heat_score": 72.73, "heat_grade": "q5", "length": 63.10149146848255 }, "geometry": { "type": "LineString", "coordinates": [ [ 207144.67284092947375, 523735.997874051565304 ], [ 207131.148002099827863, 523753.88801126886392 ], [ 207123.301210151490523, 523766.26710956468014 ], [ 207119.253379951755051, 523772.856096875912044 ], [ 207109.763966034195619, 523788.441239570383914 ] ] } },
{ "type": "Feature", "properties": { "route_id": "057", "heat_score": 69.08, "heat_grade": "q4", "length": 50.101290386548236 }, "geometry": { "type": "LineString", "coordinates": [ [ 207071.03508196331677, 523756.689344736980274 ], [ 207077.722996155585861, 523762.399549854919314 ], [ 207091.631589472934138, 523772.732787645305507 ], [ 207096.397708078700816, 523776.277200729411561 ], [ 207109.763966034195619, 523788.441239570383914 ] ] } },
{ "type": "Feature", "properties": { "route_id": "057", "heat_score": 69.09, "heat_grade": "q4", "length": 53.937886692696672 }, "geometry": { "type": "LineString", "coordinates": [ [ 207030.190221535187447, 523721.41767475992674 ], [ 207071.03508196331677, 523756.689344736980274 ] ] } },
{ "type": "Feature", "properties": { "route_id": "057", "heat_score": 46.56, "heat_grade": "q1", "length": 60.645200561569993 }, "geometry": { "type": "LineString", "coordinates": [ [ 207029.68071131396573, 523684.193342526210472 ], [ 207017.809837093227543, 523685.548490195709746 ], [ 207011.931459578394424, 523686.897568941873033 ], [ 207010.44040190812666, 523689.049403384153266 ], [ 207009.569738143880386, 523691.357134128804319 ], [ 207009.619453431078, 523695.507962870760821 ], [ 207010.078389070229605, 523697.927789602661505 ], [ 207012.318525180889992, 523701.048303627467249 ], [ 207022.530690559011418, 523711.467119521577843 ], [ 207030.190221535187447, 523721.41767475992674 ] ] } },
{ "type": "Feature", "properties": { "route_id": "057", "heat_score": 70.49, "heat_grade": "q4", "length": 150.17720559247533 }, "geometry": { "type": "LineString", "coordinates": [ [ 207029.68071131396573, 523684.193342526210472 ], [ 207066.874771526490804, 523686.477596716256812 ], [ 207078.123703910008771, 523686.808944077929482 ], [ 207087.165814292733558, 523686.583521604770795 ], [ 207101.916873020265484, 523686.207568672602065 ], [ 207105.764137578487862, 523686.188633697922342 ], [ 207111.916222601052141, 523686.149459719890729 ], [ 207140.026088983053342, 523685.995791994268075 ], [ 207147.126603705110028, 523686.057337361155078 ], [ 207161.671285193471704, 523688.6001827159198 ], [ 207179.806698149885051, 523690.480227687279694 ] ] } },
{ "type": "Feature", "properties": { "route_id": "057", "heat_score": 70.56, "heat_grade": "q4", "length": 133.55653813298443 }, "geometry": { "type": "LineString", "coordinates": [ [ 207272.454562762082787, 523594.315138472942635 ], [ 207245.337735167704523, 523624.645663882547524 ], [ 207179.806698149885051, 523690.480227687279694 ] ] } },
{ "type": "Feature", "properties": { "route_id": "057", "heat_score": 67.32, "heat_grade": "q4", "length": 204.96027160856676 }, "geometry": { "type": "LineString", "coordinates": [ [ 207265.930507864337415, 523430.2979282225715 ], [ 207256.129929281916702, 523435.916303407982923 ], [ 207220.320225330302492, 523471.888444983866066 ], [ 207216.085929575841874, 523478.577107623568736 ], [ 207212.263683577475604, 523490.615535891323816 ], [ 207212.626606429519597, 523501.536633168405388 ], [ 207215.223688622296322, 523512.193293465476017 ], [ 207223.135163613100303, 523528.048566175799351 ], [ 207232.520823817671044, 523540.819775150390342 ], [ 207237.876497280842159, 523549.525513372558635 ], [ 207272.454562762082787, 523594.315138472942635 ] ] } },
{ "type": "Feature", "properties": { "route_id": "057", "heat_score": 53.44, "heat_grade": "q2", "length": 190.63788038891053 }, "geometry": { "type": "LineString", "coordinates": [ [ 207118.33188459239318, 523323.649223902961239 ], [ 207119.367119580245344, 523325.969659623224288 ], [ 207124.117964490316808, 523337.338413231715094 ], [ 207129.816943142359378, 523349.185205693764146 ], [ 207135.98817768425215, 523358.180126910330728 ], [ 207142.640518967702519, 523364.345382046652958 ], [ 207150.242612838454079, 523369.090863268706016 ], [ 207161.657443191623315, 523372.885150376241654 ], [ 207180.199273386766436, 523377.162786049710121 ], [ 207185.428374943759991, 523378.587857804843225 ], [ 207203.968548993987497, 523384.763363745820243 ], [ 207221.478737535857363, 523392.824743830598891 ], [ 207228.691929689870449, 523396.14937175862724 ], [ 207235.47740527705173, 523402.015160384471528 ], [ 207246.301712604094064, 523412.001936672255397 ], [ 207256.513566308625741, 523422.85386865970213 ], [ 207265.930507864337415, 523430.2979282225715 ] ] } },
{ "type": "Feature", "properties": { "route_id": "057", "heat_score": 39.62, "heat_grade": "q1", "length": 265.95487631177792 }, "geometry": { "type": "LineString", "coordinates": [ [ 207347.988661646144465, 523243.018127369112335 ], [ 207336.792871904501226, 523252.197755934204906 ], [ 207329.272351839637849, 523255.542878366308287 ], [ 207314.989123284030939, 523257.350528754701372 ], [ 207266.004240446171025, 523263.467500558588654 ], [ 207262.369100502430229, 523263.997070555749815 ], [ 207258.636137661524117, 523264.881704751867801 ], [ 207253.404105214169249, 523266.774993263126817 ], [ 207242.220548352896003, 523272.214613151096273 ], [ 207228.899101567571051, 523279.306058409682009 ], [ 207221.28982645936776, 523282.850971556443255 ], [ 207215.579110762133496, 523284.732772860908881 ], [ 207208.441927400737768, 523285.681089087913278 ], [ 207201.545131911349017, 523285.430995620205067 ], [ 207194.888702299882425, 523284.004688565502875 ], [ 207189.420586847496452, 523282.113275281968527 ], [ 207181.578271125792526, 523278.310913575696759 ], [ 207173.080228559265379, 523274.163948950357735 ], [ 207171.361119707435137, 523273.330101034720428 ], [ 207166.840547378000338, 523272.615939058887307 ], [ 207163.27597774201422, 523273.567349853867199 ], [ 207160.658765657048207, 523275.929062658571638 ], [ 207156.851609578967327, 523280.664807890716475 ], [ 207153.515925244399114, 523283.503138637403026 ], [ 207149.471645586483646, 523285.630571444518864 ], [ 207144.239660363004077, 523287.512829769519158 ], [ 207139.956028893328039, 523289.640063121682033 ], [ 207135.910338064510142, 523293.432254519779235 ], [ 207132.102807208604645, 523298.634141661750618 ], [ 207128.773784774413798, 523304.080601421708707 ], [ 207126.62402196630137, 523309.283901511109434 ], [ 207124.961431881936733, 523314.964845659851562 ], [ 207122.573318872600794, 523318.991518544848077 ], [ 207118.33188459239318, 523323.649223902961239 ] ] } },
{ "type": "Feature", "properties": { "route_id": "057", "heat_score": 38.99, "heat_grade": "q1", "length": 418.91487096426835 }, "geometry": { "type": "LineString", "coordinates": [ [ 207347.988661646144465, 523243.018127369112335 ], [ 207344.817595193075249, 523240.007693375810049 ], [ 207329.25450558681041, 523225.266551208624151 ], [ 207305.018556592782261, 523203.459320757188834 ], [ 207286.956138980895048, 523187.817113406141289 ], [ 207270.799664533900796, 523172.176598880090751 ], [ 207256.079836984019494, 523155.904753661714494 ], [ 207253.227976097521605, 523152.75035267835483 ], [ 207235.648164998972788, 523132.369678753602784 ], [ 207222.813498183095362, 523119.573305361089297 ], [ 207209.986845805949997, 523107.720318783714902 ], [ 207195.733662484009983, 523094.922767277574167 ], [ 207166.739575152925681, 523069.327320954645984 ], [ 207038.42562388360966, 522961.24272947490681 ] ] } },
{ "type": "Feature", "properties": { "route_id": "057", "heat_score": 42.18, "heat_grade": "q1", "length": 233.35993332336776 }, "geometry": { "type": "LineString", "coordinates": [ [ 207038.42562388360966, 522961.24272947490681 ], [ 207079.109710181044647, 522907.827347469399683 ], [ 207106.703113429539371, 522871.60349478921853 ], [ 207179.774873922287952, 522775.665069967100862 ] ] } }
]
}
