{
"type": "FeatureCollection",
"name": "059_edges",
"crs": { "type": "name", "properties": { "name": "urn:ogc:def:crs:EPSG::5186" } },
"features": [
{ "type": "Feature", "properties": { "route_id": "059", "heat_score": 52.81, "heat_grade": "q2", "length": 253.84369903936658 }, "geometry": { "type": "LineString", "coordinates": [ [ 211304.148354450240731, 525555.264448323985562 ], [ 211291.334957789513282, 525540.619457227294333 ], [ 211271.221245255175745, 525517.463275671005249 ], [ 211248.941116838162998, 525497.134327403502539 ], [ 211230.734574595349841, 525485.778415422071703 ], [ 211189.587788651871961, 525463.692994085722603 ], [ 211138.002640008606249, 525439.940223989542574 ], [ 211125.729790901590604, 525431.677793427254073 ], [ 211097.651380975323264, 525412.418096572626382 ] ] } },
{ "type": "Feature", "properties": { "route_id": "059", "heat_score": 53.31, "heat_grade": "q2", "length": 113.84027254886718 }, "geometry": { "type": "LineString", "coordinates": [ [ 211359.252829201577697, 525584.050603595911525 ], [ 211361.870080266497098, 525575.475083016324788 ], [ 211361.164138961292338, 525560.147220593411475 ], [ 211351.626076316111721, 525541.888499489286914 ], [ 211336.133432418224402, 525529.293014182127081 ], [ 211327.875186445569852, 525527.972226541955024 ], [ 211314.665712724963669, 525530.97313535772264 ], [ 211309.675804315687856, 525537.69203081051819 ], [ 211308.307346196466824, 525546.924059516284615 ], [ 211304.148354450240731, 525555.264448323985562 ] ] } },
{ "type": "Feature", "properties": { "route_id": "059", "heat_score": 50.63, "heat_grade": "q2", "length": 201.08902559136519 }, "geometry": { "type": "LineString", "coordinates": [ [ 211359.252829201577697, 525584.050603595911525 ], [ 211352.150829864578554, 525586.282851602416486 ], [ 211345.465572815941414, 525588.371390908258036 ], [ 211304.912274255708326, 525599.936580588924699 ], [ 211259.68262412364129, 525609.275995075004175 ], [ 211239.429300709452946, 525610.957941531552933 ], [ 211216.686905695940368, 525611.659942360129207 ], [ 211175.643366991600487, 525612.259871436865069 ], [ 211161.089305315399542, 525613.505679040681571 ] ] } },
{ "type": "Feature", "properties": { "route_id": "059", "heat_score": 52.32, "heat_grade": "q2", "length": 255.58077717319779 }, "geometry": { "type": "LineString", "coordinates": [ [ 210908.050735599856125, 525635.702008004300296 ], [ 210960.173241703567328, 525620.887100613908842 ], [ 211013.326595199730946, 525610.835090649197809 ], [ 211029.4756862570066, 525609.757603161851875 ], [ 211101.07558178412728, 525610.606908199028112 ], [ 211161.089305315399542, 525613.505679040681571 ] ] } },
{ "type": "Feature", "properties": { "route_id": "059", "heat_score": 58.37, "heat_grade": "q2", "length": 49.826212813718193 }, "geometry": { "type": "LineString", "coordinates": [ [ 210916.778578212397406, 525684.668467214680277 ], [ 210908.050735599856125, 525635.702008004300296 ] ] } },
{ "type": "Feature", "properties": { "route_id": "059", "heat_score": 56.76, "heat_grade": "q2", "length": 96.397785040379958 }, "geometry": { "type": "LineString", "coordinates": [ [ 210924.267476815904956, 525779.725025659310631 ], [ 210924.750375492061721, 525762.822774736443534 ], [ 210924.623543555266224, 525710.593486774014309 ], [ 210916.778578212397406, 525684.668467214680277 ] ] } },
{ "type": "Feature", "properties": { "route_id": "059", "heat_score": 58.7, "heat_grade": "q3", "length": 60.869376159629773 }, "geometry": { "type": "LineString", "coordinates": [ [ 210924.569296578731155, 525840.47812842798885 ], [ 210924.267476815904956, 525779.725025659310631 ] ] } },
{ "type": "Feature", "properties": { "route_id": "059", "heat_score": 67.34, "heat_grade": "q4", "length": 83.880502302054055 }, "geometry": { "type": "LineString", "coordinates": [ [ 210924.569296578731155, 525840.47812842798885 ], [ 211008.645909671555273, 525840.965592179913074 ] ] } },
{ "type": "Feature", "properties": { "route_id": "059", "heat_score": 60.9, "heat_grade": "q3", "length": 327.60990111701977 }, "geometry": { "type": "LineString", "coordinates": [ [ 211008.645909671555273, 525840.965592179913074 ], [ 211110.355895135202445, 525843.508289033663459 ], [ 211218.404823106451659, 525837.637015725835226 ], [ 211296.249506906635361, 525819.684553740895353 ], [ 211334.764295361062977, 525820.535688077565283 ] ] } },
{ "type": "Feature", "properties": { "route_id": "059", "heat_score": 51.97, "heat_grade": "q2", "length": 85.442016233640715 }, "geometry": { "type": "LineString", "coordinates": [ [ 211338.025470890745055, 525905.753735146019608 ], [ 211334.764295361062977, 525820.535688077565283 ] ] } },
{ "type": "Feature", "properties": { "route_id": "059", "heat_score": 41.23, "heat_grade": "q1", "length": 96.128199078636769 }, "geometry": { "type": "LineString", "coordinates": [ [ 211337.798063990543596, 526001.699239777284674 ], [ 211338.025470890745055, 525905.753735146019608 ] ] } },
{ "type": "Feature", "properties": { "route_id": "059", "heat_score": 32.73, "heat_grade": "q1", "length": 187.82040793877459 }, "geometry": { "type": "LineString", "coordinates": [ [ 211337.798063990543596, 526001.699239777284674 ], [ 211337.675837321439758, 526006.882035276270472 ], [ 211338.3450377494446, 526042.79742190183606 ], [ 211339.937670254119439, 526142.829630081425421 ], [ 211335.329044550686376, 526188.915128727210686 ] ] } },
{ "type": "Feature", "properties": { "route_id": "059", "heat_score": 14.08, "heat_grade": "q1", "length": 72.181582596524933 }, "geometry": { "type": "LineString", "coordinates": [ [ 211340.531182775448542, 526260.773353319615126 ], [ 211335.329044550686376, 526188.915128727210686 ] ] } },
{ "type": "Feature", "properties": { "route_id": "059", "heat_score": 46.83, "heat_grade": "q1", "length": 357.42956747193887 }, "geometry": { "type": "LineString", "coordinates": [ [ 211340.531182775448542, 526260.773353319615126 ], [ 211340.769539924309356, 526307.242770511657 ], [ 211079.152175860304851, 526311.809066313435324 ], [ 211081.096668984973803, 526262.11290999117773 ] ] } },
{ "type": "Feature", "properties": { "route_id": "059", "heat_score": 9.26, "heat_grade": "q1", "length": 28.823883677532475 }, "geometry": { "type": "LineString", "coordinates": [ [ 211081.096668984973803, 526262.11290999117773 ], [ 211082.322214293206343, 526233.36962316359859 ] ] } },
{ "type": "Feature", "properties": { "route_id": "059", "heat_score": 5.04, "heat_grade": "q1", "length": 192.00109791507126 }, "geometry": { "type": "LineString", "coordinates": [ [ 211082.322214293206343, 526233.36962316359859 ], [ 211054.008335459831869, 526233.332191409426741 ], [ 210938.697975188784767, 526117.013589797890745 ] ] } },
{ "type": "Feature", "properties": { "route_id": "059", "heat_score": 20.75, "heat_grade": "q1", "length": 34.191254125498737 }, "geometry": { "type": "LineString", "coordinates": [ [ 210922.072630557318917, 526137.468465655576438 ], [ 210932.929246684507234, 526137.005403591901995 ], [ 210940.498134793248028, 526129.690334935788997 ], [ 210938.697975188784767, 526117.013589797890745 ] ] } },
{ "type": "Feature", "properties": { "route_id": "059", "heat_score": 25.78, "heat_grade": "q1", "length": 112.9003989285802 }, "geometry": { "type": "LineString", "coordinates": [ [ 210922.072630557318917, 526137.468465655576438 ], [ 210912.025040035689017, 526149.552639738074504 ], [ 210865.152436293283245, 526150.5460295638768 ], [ 210817.958733352686977, 526132.572071458329447 ] ] } },
{ "type": "Feature", "properties": { "route_id": "059", "heat_score": 15.63, "heat_grade": "q1", "length": 121.4649756445171 }, "geometry": { "type": "LineString", "coordinates": [ [ 210817.958733352686977, 526132.572071458329447 ], [ 210808.526269717345713, 526121.350487770629115 ], [ 210773.061623788235011, 526072.094400521717034 ], [ 210768.680592027900275, 526026.307800033828244 ] ] } },
{ "type": "Feature", "properties": { "route_id": "059", "heat_score": 13.3, "heat_grade": "q1", "length": 64.559678333161543 }, "geometry": { "type": "LineString", "coordinates": [ [ 210768.680592027900275, 526026.307800033828244 ], [ 210766.739340122672729, 526005.9730070726946 ], [ 210786.552702500019222, 525966.632432327372953 ] ] } },
{ "type": "Feature", "properties": { "route_id": "059", "heat_score": 46.49, "heat_grade": "q1", "length": 139.41368437777194 }, "geometry": { "type": "LineString", "coordinates": [ [ 210786.552702500019222, 525966.632432327372953 ], [ 210926.27747887710575, 525964.449640383129008 ] ] } },
{ "type": "Feature", "properties": { "route_id": "059", "heat_score": 25.5, "heat_grade": "q1", "length": 87.790869909424245 }, "geometry": { "type": "LineString", "coordinates": [ [ 210924.30914937457419, 525876.847288854653016 ], [ 210926.27747887710575, 525964.449640383129008 ] ] } },
{ "type": "Feature", "properties": { "route_id": "059", "heat_score": 30.8, "heat_grade": "q1", "length": 156.84869159074901 }, "geometry": { "type": "LineString", "coordinates": [ [ 210767.131257206754526, 525880.383860115893185 ], [ 210924.30914937457419, 525876.847288854653016 ] ] } },
{ "type": "Feature", "properties": { "route_id": "059", "heat_score": 43.82, "heat_grade": "q1", "length": 43.721906920075696 }, "geometry": { "type": "LineString", "coordinates": [ [ 210767.131257206754526, 525880.383860115893185 ], [ 210767.187373242195463, 525836.744974720641039 ] ] } },
{ "type": "Feature", "properties": { "route_id": "059", "heat_score": 40.25, "heat_grade": "q1", "length": 108.07854582972138 }, "geometry": { "type": "LineString", "coordinates": [ [ 210767.187373242195463, 525836.744974720641039 ], [ 210670.809808380407048, 525836.210955055546947 ], [ 210659.007541419588961, 525834.320290997158736 ] ] } },
{ "type": "Feature", "properties": { "route_id": "059", "heat_score": 70.72, "heat_grade": "q4", "length": 40.551490891650715 }, "geometry": { "type": "LineString", "coordinates": [ [ 210657.924580761347897, 525793.920695902896114 ], [ 210657.274345541431103, 525810.423205345403403 ], [ 210659.007541419588961, 525834.320290997158736 ] ] } },
{ "type": "Feature", "properties": { "route_id": "059", "heat_score": 48.3, "heat_grade": "q1", "length": 127.95416137239326 }, "geometry": { "type": "LineString", "coordinates": [ [ 210657.924580761347897, 525793.920695902896114 ], [ 210660.040194046159741, 525740.195984488585964 ], [ 210661.68628210213501, 525707.224705238011666 ], [ 210666.630148191499757, 525666.588627659832127 ] ] } },
{ "type": "Feature", "properties": { "route_id": "059", "heat_score": 39.07, "heat_grade": "q1", "length": 146.18455922468539 }, "geometry": { "type": "LineString", "coordinates": [ [ 210666.630148191499757, 525666.588627659832127 ], [ 210528.151878293108894, 525632.119294614996761 ], [ 210524.47505596850533, 525631.204603212187067 ] ] } },
{ "type": "Feature", "properties": { "route_id": "059", "heat_score": 51.51, "heat_grade": "q2", "length": 161.67903552040531 }, "geometry": { "type": "LineString", "coordinates": [ [ 210524.47505596850533, 525631.204603212187067 ], [ 210487.181057002278976, 525702.165427161962725 ], [ 210480.156725041073514, 525720.502302124164999 ], [ 210474.373417403112398, 525738.64096433413215 ], [ 210472.824742695054738, 525743.921869954559952 ], [ 210451.499096714891493, 525774.371456585358828 ] ] } },
{ "type": "Feature", "properties": { "route_id": "059", "heat_score": 71.08, "heat_grade": "q5", "length": 37.025423060242957 }, "geometry": { "type": "LineString", "coordinates": [ [ 210450.752880167070543, 525811.294934752047993 ], [ 210450.494590940594207, 525791.017817343003117 ], [ 210451.499096714891493, 525774.371456585358828 ] ] } },
{ "type": "Feature", "properties": { "route_id": "059", "heat_score": 70.59, "heat_grade": "q4", "length": 166.16401727805038 }, "geometry": { "type": "LineString", "coordinates": [ [ 210450.752880167070543, 525811.294934752047993 ], [ 210428.959833607194014, 525811.634010510635562 ], [ 210340.237902201799443, 525812.056700329645537 ], [ 210319.562315998336999, 525811.753733077668585 ], [ 210311.063090108538745, 525811.909738720860332 ], [ 210284.209443467203528, 525812.398338690050878 ] ] } },
{ "type": "Feature", "properties": { "route_id": "059", "heat_score": 59.2, "heat_grade": "q3", "length": 81.618161687753073 }, "geometry": { "type": "LineString", "coordinates": [ [ 210202.40147136937594, 525811.776634810259566 ], [ 210284.209443467203528, 525812.398338690050878 ] ] } },
{ "type": "Feature", "properties": { "route_id": "059", "heat_score": 73.85, "heat_grade": "q5", "length": 20.496007882738983 }, "geometry": { "type": "LineString", "coordinates": [ [ 210202.089622731349664, 525791.321887263911776 ], [ 210202.40147136937594, 525811.776634810259566 ] ] } },
{ "type": "Feature", "properties": { "route_id": "059", "heat_score": 62.78, "heat_grade": "q3", "length": 23.451324836228924 }, "geometry": { "type": "LineString", "coordinates": [ [ 210202.089622731349664, 525791.321887263911776 ], [ 210202.233352800947614, 525767.915518823312595 ] ] } },
{ "type": "Feature", "properties": { "route_id": "059", "heat_score": 59.97, "heat_grade": "q3", "length": 15.162382822638634 }, "geometry": { "type": "LineString", "coordinates": [ [ 210216.808432951482246, 525763.627107542357408 ], [ 210202.233352800947614, 525767.915518823312595 ] ] } },
{ "type": "Feature", "properties": { "route_id": "059", "heat_score": 60.64, "heat_grade": "q3", "length": 14.25289837405229 }, "geometry": { "type": "LineString", "coordinates": [ [ 210231.094573766866233, 525763.722239856957458 ], [ 210216.808432951482246, 525763.627107542357408 ] ] } },
{ "type": "Feature", "properties": { "route_id": "059", "heat_score": 68.56, "heat_grade": "q4", "length": 37.135570807126868 }, "geometry": { "type": "LineString", "coordinates": [ [ 210231.094573766866233, 525763.722239856957458 ], [ 210260.987288573931437, 525763.969687644625083 ], [ 210268.31649001504411, 525764.000869083101861 ] ] } },
{ "type": "Feature", "properties": { "route_id": "059", "heat_score": 43.51, "heat_grade": "q1", "length": 254.92787913553769 }, "geometry": { "type": "LineString", "coordinates": [ [ 210268.31649001504411, 525764.000869083101861 ], [ 210211.4985568356351, 525590.252417470677756 ], [ 210197.052002725220518, 525546.973230719333515 ], [ 210204.086401940468932, 525534.529389688046649 ], [ 210208.823438319697743, 525523.680923901731148 ] ] } },
{ "type": "Feature", "properties": { "route_id": "059", "heat_score": 46.69, "heat_grade": "q1", "length": 140.42382488338941 }, "geometry": { "type": "LineString", "coordinates": [ [ 210339.724666910071392, 525574.57233941112645 ], [ 210272.104560897278134, 525551.382238593418151 ], [ 210247.654189178399974, 525542.728821208118461 ], [ 210225.191688930499367, 525531.880418496439233 ], [ 210208.823438319697743, 525523.680923901731148 ] ] } },
{ "type": "Feature", "properties": { "route_id": "059", "heat_score": 38.41, "heat_grade": "q1", "length": 297.38821523142957 }, "geometry": { "type": "LineString", "coordinates": [ [ 210339.724666910071392, 525574.57233941112645 ], [ 210376.703921095264377, 525478.117449963581748 ], [ 210403.951310952339554, 525439.784074882278219 ], [ 210470.709673649282195, 525309.105897334869951 ] ] } },
{ "type": "Feature", "properties": { "route_id": "059", "heat_score": 55.12, "heat_grade": "q2", "length": 105.50793196024628 }, "geometry": { "type": "LineString", "coordinates": [ [ 210470.709673649282195, 525309.105897334869951 ], [ 210441.489390318689402, 525294.26414692401886 ], [ 210439.315797465795185, 525281.786834193626419 ], [ 210441.387702603504295, 525226.541578594595194 ], [ 210441.234021582786227, 525221.846763725974597 ] ] } },
{ "type": "Feature", "properties": { "route_id": "059", "heat_score": 68.73, "heat_grade": "q4", "length": 226.38978485898855 }, "geometry": { "type": "LineString", "coordinates": [ [ 210441.234021582786227, 525221.846763725974597 ], [ 210418.684359450562624, 525230.697400718228891 ], [ 210368.285380249726586, 525241.022956168977544 ], [ 210341.85614448931301, 525240.845998435397632 ], [ 210282.995267182297539, 525227.810588628752157 ], [ 210221.847723497368861, 525207.370169997564517 ] ] } },
{ "type": "Feature", "properties": { "route_id": "059", "heat_score": 74.47, "heat_grade": "q5", "length": 113.2523425188292 }, "geometry": { "type": "LineString", "coordinates": [ [ 210183.580870444013271, 525313.646219988586381 ], [ 210190.778136764012743, 525298.60554400109686 ], [ 210207.450682502763811, 525253.854903103783727 ], [ 210221.847723497368861, 525207.370169997564517 ] ] } },
{ "type": "Feature", "properties": { "route_id": "059", "heat_score": 73.04, "heat_grade": "q5", "length": 71.724054913354934 }, "geometry": { "type": "LineString", "coordinates": [ [ 210159.365373276581522, 525381.050693306722678 ], [ 210183.580870444013271, 525313.646219988586381 ] ] } },
{ "type": "Feature", "properties": { "route_id": "059", "heat_score": 78.21, "heat_grade": "q5", "length": 36.93234366863279 }, "geometry": { "type": "LineString", "coordinates": [ [ 210159.365373276581522, 525381.050693306722678 ], [ 210153.977555924328044, 525373.08660499274265 ], [ 210135.496253447257914, 525352.97611080063507 ] ] } },
{ "type": "Feature", "properties": { "route_id": "059", "heat_score": 79.47, "heat_grade": "q5", "length": 8.249879945207752 }, "geometry": { "type": "LineString", "coordinates": [ [ 210135.496253447257914, 525352.97611080063507 ], [ 210127.780269530165242, 525350.014601207221858 ] ] } },
{ "type": "Feature", "properties": { "route_id": "059", "heat_score": 76.56, "heat_grade": "q5", "length": 79.712229005006662 }, "geometry": { "type": "LineString", "coordinates": [ [ 210127.780269530165242, 525350.014601207221858 ], [ 210112.835502151050605, 525344.291962969815359 ], [ 210048.990070954343537, 525341.962133198743686 ] ] } },
{ "type": "Feature", "properties": { "route_id": "059", "heat_score": 58.43, "heat_grade": "q3", "length": 61.605548574661952 }, "geometry": { "type": "LineString", "coordinates": [ [ 209995.029341942630708, 525367.146418039570563 ], [ 210000.533611692982959, 525359.361912049469538 ], [ 210006.433710295386845, 525354.097219589282759 ], [ 210048.990070954343537, 525341.962133198743686 ] ] } },
{ "type": "Feature", "properties": { "route_id": "059", "heat_score": 57.12, "heat_grade": "q2", "length": 114.36302680913275 }, "geometry": { "type": "LineString", "coordinates": [ [ 209898.070605705055641, 525306.345208359067328 ], [ 209933.833519495092332, 525327.907349961576983 ], [ 209938.713639358291402, 525330.721035266062245 ], [ 209944.532654923357768, 525334.013069487991743 ], [ 209953.956259241851512, 525339.495776200899854 ], [ 209995.029341942630708, 525367.146418039570563 ] ] } },
{ "type": "Feature", "properties": { "route_id": "059", "heat_score": 65.99, "heat_grade": "q4", "length": 91.322859226537417 }, "geometry": { "type": "LineString", "coordinates": [ [ 209898.070605705055641, 525306.345208359067328 ], [ 209901.722534516826272, 525291.011537897516973 ], [ 209913.345812220708467, 525250.22757523029577 ], [ 209936.036991022439906, 525226.182040143990889 ] ] } },
{ "type": "Feature", "properties": { "route_id": "059", "heat_score": 75.92, "heat_grade": "q5", "length": 73.182869088438451 }, "geometry": { "type": "LineString", "coordinates": [ [ 209936.036991022439906, 525226.182040143990889 ], [ 209968.700638174719643, 525215.832755863317288 ], [ 210007.15668328240281, 525208.919923171633855 ] ] } },
{ "type": "Feature", "properties": { "route_id": "059", "heat_score": 78.09, "heat_grade": "q5", "length": 148.55844944072103 }, "geometry": { "type": "LineString", "coordinates": [ [ 210007.15668328240281, 525208.919923171633855 ], [ 210084.500388622487662, 525182.753888272447512 ], [ 210105.237261139438488, 525177.629227059776895 ], [ 210107.905842594336718, 525176.966543516842648 ], [ 210150.869751323771197, 525180.447912561474368 ] ] } },
{ "type": "Feature", "properties": { "route_id": "059", "heat_score": 51.93, "heat_grade": "q2", "length": 133.6292396113239 }, "geometry": { "type": "LineString", "coordinates": [ [ 210150.869751323771197, 525180.447912561474368 ], [ 210187.588008208665997, 525159.738492830307223 ], [ 210208.867724590323633, 525123.827793140197173 ], [ 210243.779202520439867, 525116.867332411697134 ], [ 210245.896949406043859, 525102.819351874059066 ] ] } },
{ "type": "Feature", "properties": { "route_id": "059", "heat_score": 43.75, "heat_grade": "q1", "length": 13.694347871754083 }, "geometry": { "type": "LineString", "coordinates": [ [ 210257.770958515204256, 525097.706426986726001 ], [ 210254.673620891437167, 525101.054349965997972 ], [ 210250.470269394892966, 525102.869341543060727 ], [ 210245.896949406043859, 525102.819351874059066 ] ] } },
{ "type": "Feature", "properties": { "route_id": "059", "heat_score": 40.58, "heat_grade": "q1", "length": 28.946498366549431 }, "geometry": { "type": "LineString", "coordinates": [ [ 210242.571199442871148, 525082.771578856161796 ], [ 210246.135896413354203, 525081.37754108151421 ], [ 210249.956023251754232, 525081.293428254197352 ], [ 210254.234968625300098, 525082.896835244842805 ], [ 210257.49269301208551, 525086.097162805846892 ], [ 210259.004008707270259, 525089.595008980599232 ], [ 210259.229800934001105, 525093.390937370830216 ], [ 210257.770958515204256, 525097.706426986726001 ] ] } },
{ "type": "Feature", "properties": { "route_id": "059", "heat_score": 42.0, "heat_grade": "q1", "length": 24.432800200149988 }, "geometry": { "type": "LineString", "coordinates": [ [ 210242.202176023041829, 525058.387950067641214 ], [ 210242.571199442871148, 525082.771578856161796 ] ] } },
{ "type": "Feature", "properties": { "route_id": "059", "heat_score": 33.06, "heat_grade": "q1", "length": 54.764018667221087 }, "geometry": { "type": "LineString", "coordinates": [ [ 210242.202176023041829, 525058.387950067641214 ], [ 210248.456123556039529, 525068.46184608025942 ], [ 210261.816932282061316, 525079.665389752713963 ], [ 210277.380190472933464, 525087.264678350184113 ], [ 210283.977291844203137, 525092.111677528358996 ] ] } },
{ "type": "Feature", "properties": { "route_id": "059", "heat_score": 34.23, "heat_grade": "q1", "length": 124.85916112533722 }, "geometry": { "type": "LineString", "coordinates": [ [ 210407.031320296111517, 525072.31985974649433 ], [ 210337.668796585610835, 525078.948488081805408 ], [ 210317.407616573094856, 525086.126363781397231 ], [ 210283.977291844203137, 525092.111677528358996 ] ] } },
{ "type": "Feature", "properties": { "route_id": "059", "heat_score": 39.32, "heat_grade": "q1", "length": 142.27267643117676 }, "geometry": { "type": "LineString", "coordinates": [ [ 210407.031320296111517, 525072.31985974649433 ], [ 210419.874869307386689, 525071.669925012160093 ], [ 210442.631151634996058, 525075.160967605188489 ], [ 210450.772128660872113, 525078.58942856581416 ], [ 210472.002443600271363, 525111.611484577762894 ], [ 210503.555711642722599, 525160.672625243547373 ] ] } },
{ "type": "Feature", "properties": { "route_id": "059", "heat_score": 67.23, "heat_grade": "q4", "length": 81.005683478955888 }, "geometry": { "type": "LineString", "coordinates": [ [ 210459.104309009155259, 525226.985424810322002 ], [ 210489.769089867389994, 525171.36530149995815 ], [ 210503.555711642722599, 525160.672625243547373 ] ] } },
{ "type": "Feature", "properties": { "route_id": "059", "heat_score": 62.77, "heat_grade": "q3", "length": 45.72249080286565 }, "geometry": { "type": "LineString", "coordinates": [ [ 210500.11450994972256, 525247.357913236133754 ], [ 210459.104309009155259, 525226.985424810322002 ] ] } },
{ "type": "Feature", "properties": { "route_id": "059", "heat_score": 40.74, "heat_grade": "q1", "length": 462.21261007021968 }, "geometry": { "type": "LineString", "coordinates": [ [ 210916.295951434440212, 525449.825521427672356 ], [ 210781.661902721709339, 525387.555524650146253 ], [ 210649.4633507951512, 525318.165627415757626 ], [ 210555.430825797608122, 525273.586382017936558 ], [ 210500.11450994972256, 525247.357913236133754 ] ] } },
{ "type": "Feature", "properties": { "route_id": "059", "heat_score": 39.12, "heat_grade": "q1", "length": 200.86712426080794 }, "geometry": { "type": "LineString", "coordinates": [ [ 210916.295951434440212, 525449.825521427672356 ], [ 210986.730837575683836, 525461.515468348748982 ], [ 211017.312101721676299, 525464.663199867354706 ], [ 211038.994668449944584, 525461.439920822973363 ], [ 211059.819299581839005, 525450.191416554967873 ], [ 211097.651380975323264, 525412.418096572626382 ] ] } }
]
}
