{
"type": "FeatureCollection",
"name": "060_edges",
"crs": { "type": "name", "properties": { "name": "urn:ogc:def:crs:EPSG::5186" } },
"features": [
{ "type": "Feature", "properties": { "route_id": "060", "heat_score": 46.74, "heat_grade": "q1", "length": 153.1366129197734 }, "geometry": { "type": "LineString", "coordinates": [ [ 207901.909987096762052, 524282.795257012126967 ], [ 207932.54834643934737, 524240.728079907654319 ], [ 207992.015354884322733, 524159.056179673119914 ] ] } },
{ "type": "Feature", "properties": { "route_id": "060", "heat_score": 74.79, "heat_grade": "q5", "length": 167.090007261469 }, "geometry": { "type": "LineString", "coordinates": [ [ 207858.687139264191501, 524058.123546574846841 ], [ 207992.015354884322733, 524159.056179673119914 ] ] } },
{ "type": "Feature", "properties": { "route_id": "060", "heat_score": 75.64, "heat_grade": "q5", "length": 10.958986090041877 }, "geometry": { "type": "LineString", "coordinates": [ [ 207849.953217301139375, 524051.489631625940092 ], [ 207858.687139264191501, 524058.123546574846841 ] ] } },
{ "type": "Feature", "properties": { "route_id": "060", "heat_score": 77.05, "heat_grade": "q5", "length": 11.587357138010814 }, "geometry": { "type": "LineString", "coordinates": [ [ 207849.953217301139375, 524051.489631625940092 ], [ 207840.776495197496843, 524044.400278298300691 ] ] } },
{ "type": "Feature", "properties": { "route_id": "060", "heat_score": 74.64, "heat_grade": "q5", "length": 85.881693313548709 }, "geometry": { "type": "LineString", "coordinates": [ [ 207840.776495197496843, 524044.400278298300691 ], [ 207817.930917217861861, 524027.975538503727876 ], [ 207771.354370498069329, 523993.715933559229597 ] ] } },
{ "type": "Feature", "properties": { "route_id": "060", "heat_score": 73.33, "heat_grade": "q5", "length": 49.65377481931904 }, "geometry": { "type": "LineString", "coordinates": [ [ 207771.354370498069329, 523993.715933559229597 ], [ 207755.188163988292217, 523981.670322227815632 ], [ 207733.657650883484166, 523961.473586821521167 ] ] } },
{ "type": "Feature", "properties": { "route_id": "060", "heat_score": 77.69, "heat_grade": "q5", "length": 25.839444516738379 }, "geometry": { "type": "LineString", "coordinates": [ [ 207755.069028706522658, 523947.576024463400245 ], [ 207743.159360424557235, 523952.814537308178842 ], [ 207733.657650883484166, 523961.473586821521167 ] ] } },
{ "type": "Feature", "properties": { "route_id": "060", "heat_score": 72.69, "heat_grade": "q5", "length": 36.250100582792243 }, "geometry": { "type": "LineString", "coordinates": [ [ 207790.904309007310076, 523941.593955062853638 ], [ 207755.069028706522658, 523947.576024463400245 ] ] } },
{ "type": "Feature", "properties": { "route_id": "060", "heat_score": 72.11, "heat_grade": "q5", "length": 83.667217848112969 }, "geometry": { "type": "LineString", "coordinates": [ [ 207790.904309007310076, 523941.593955062853638 ], [ 207874.194141807442065, 523931.838664736715145 ] ] } },
{ "type": "Feature", "properties": { "route_id": "060", "heat_score": 65.04, "heat_grade": "q4", "length": 80.030080056458942 }, "geometry": { "type": "LineString", "coordinates": [ [ 207867.088673568796366, 523852.312186947034206 ], [ 207871.570732849300839, 523893.624519151053391 ], [ 207873.26058916002512, 523925.378537174488883 ], [ 207874.194141807442065, 523931.838664736715145 ] ] } },
{ "type": "Feature", "properties": { "route_id": "060", "heat_score": 50.28, "heat_grade": "q2", "length": 460.54786157608163 }, "geometry": { "type": "LineString", "coordinates": [ [ 207714.394195236265659, 523423.640227038180456 ], [ 207733.832226149505004, 523464.999533091438934 ], [ 207747.796921971719712, 523529.37182499730261 ], [ 207750.886426872923039, 523543.613879406242631 ], [ 207763.06467999832239, 523593.567780380195472 ], [ 207769.829348625353305, 523621.29775936040096 ], [ 207775.518003585457336, 523643.078023960930295 ], [ 207789.269104318838799, 523679.082787850755267 ], [ 207791.64622824898106, 523687.109114926075563 ], [ 207796.860027629969409, 523704.660478180099744 ], [ 207804.913676322379615, 523737.807692159840371 ], [ 207815.343835621868493, 523770.013771026802715 ], [ 207831.493264358781744, 523790.871580294391606 ], [ 207858.088513126160251, 523826.877383310347795 ], [ 207867.088673568796366, 523852.312186947034206 ] ] } },
{ "type": "Feature", "properties": { "route_id": "060", "heat_score": 62.22, "heat_grade": "q3", "length": 127.2221264690959 }, "geometry": { "type": "LineString", "coordinates": [ [ 207714.394195236265659, 523423.640227038180456 ], [ 207713.606761739472859, 523421.963649956334848 ], [ 207712.00533993501449, 523418.566078155301511 ], [ 207646.471773269819096, 523316.223557246674318 ] ] } },
{ "type": "Feature", "properties": { "route_id": "060", "heat_score": 59.48, "heat_grade": "q3", "length": 129.48392877619429 }, "geometry": { "type": "LineString", "coordinates": [ [ 207522.907239496766124, 523350.161479369795416 ], [ 207540.396532257640501, 523351.631082991953008 ], [ 207553.225323166174348, 523350.344128517666832 ], [ 207627.804686262039468, 523323.054231316433288 ], [ 207646.471773269819096, 523316.223557246674318 ] ] } },
{ "type": "Feature", "properties": { "route_id": "060", "heat_score": 61.93, "heat_grade": "q3", "length": 198.4104238423169 }, "geometry": { "type": "LineString", "coordinates": [ [ 207463.554279576463159, 523163.156610624922905 ], [ 207465.679397147934651, 523175.943807198025752 ], [ 207468.517946437903447, 523193.936768507352099 ], [ 207472.784609547146829, 523210.987644490785897 ], [ 207499.953884966293117, 523273.051721286203247 ], [ 207520.833352131739957, 523319.949890394462273 ], [ 207522.907239496766124, 523350.161479369795416 ] ] } },
{ "type": "Feature", "properties": { "route_id": "060", "heat_score": 72.33, "heat_grade": "q5", "length": 85.250475158806722 }, "geometry": { "type": "LineString", "coordinates": [ [ 207541.636850906797918, 523155.479862710344605 ], [ 207527.750122540892335, 523149.884905534738209 ], [ 207512.897417597647291, 523143.900663062406238 ], [ 207505.549194008606719, 523142.750948399072513 ], [ 207498.641735789336963, 523144.387321301910561 ], [ 207490.80218502090429, 523147.421259261725936 ], [ 207463.554279576463159, 523163.156610624922905 ] ] } },
{ "type": "Feature", "properties": { "route_id": "060", "heat_score": 59.07, "heat_grade": "q3", "length": 263.04740863849952 }, "geometry": { "type": "LineString", "coordinates": [ [ 207541.636850906797918, 523155.479862710344605 ], [ 207546.802632279519457, 523099.326844527560752 ], [ 207547.523435950861312, 523086.464502665912732 ], [ 207549.912732705415692, 523002.696293415792752 ], [ 207552.439406325225718, 522914.100437028158922 ], [ 207552.458188068703748, 522893.257753249024972 ] ] } },
{ "type": "Feature", "properties": { "route_id": "060", "heat_score": 50.82, "heat_grade": "q2", "length": 40.083210260998122 }, "geometry": { "type": "LineString", "coordinates": [ [ 207571.523373707197607, 522858.914465541951358 ], [ 207565.400520351075102, 522865.179503699764609 ], [ 207558.174052492744522, 522876.215841215569526 ], [ 207554.363509500573855, 522884.25870899198344 ], [ 207552.458188068703748, 522893.257753249024972 ] ] } },
{ "type": "Feature", "properties": { "route_id": "060", "heat_score": 54.67, "heat_grade": "q2", "length": 117.01676776548605 }, "geometry": { "type": "LineString", "coordinates": [ [ 207632.209721306513529, 522759.395126882765908 ], [ 207614.181299458054127, 522784.017061492195353 ], [ 207598.228930802230025, 522807.087148589780554 ], [ 207584.776618201198289, 522830.281610545993317 ], [ 207571.523373707197607, 522858.914465541951358 ] ] } },
{ "type": "Feature", "properties": { "route_id": "060", "heat_score": 48.78, "heat_grade": "q2", "length": 377.00289897320175 }, "geometry": { "type": "LineString", "coordinates": [ [ 207632.209721306513529, 522759.395126882765908 ], [ 207631.629031229531392, 522735.044824177981354 ], [ 207625.03490890096873, 522703.708189708355349 ], [ 207596.504499205067987, 522665.337497748376336 ], [ 207557.206033071270213, 522622.429065585019998 ], [ 207517.075260402110871, 522587.755046367063187 ], [ 207490.126688519521849, 522573.991172150068451 ], [ 207448.492375963018276, 522554.587462078139652 ], [ 207370.948186727182474, 522518.438201158307493 ] ] } },
{ "type": "Feature", "properties": { "route_id": "060", "heat_score": 40.02, "heat_grade": "q1", "length": 66.198995119199509 }, "geometry": { "type": "LineString", "coordinates": [ [ 207370.948186727182474, 522518.438201158307493 ], [ 207355.501230481109815, 522511.321692883269861 ], [ 207310.098130403377581, 522492.104039101977833 ] ] } },
{ "type": "Feature", "properties": { "route_id": "060", "heat_score": 47.09, "heat_grade": "q1", "length": 58.191396489777176 }, "geometry": { "type": "LineString", "coordinates": [ [ 207310.098130403377581, 522492.104039101977833 ], [ 207304.630568037653575, 522489.013933653011918 ], [ 207298.684436775074573, 522485.701448244508356 ], [ 207293.934791070350911, 522482.856138476170599 ], [ 207288.707001287577441, 522479.300121776701417 ], [ 207277.778411731385859, 522465.550879377697129 ], [ 207268.03657922099228, 522453.234366508200765 ] ] } },
{ "type": "Feature", "properties": { "route_id": "060", "heat_score": 64.82, "heat_grade": "q3", "length": 130.1828557911723 }, "geometry": { "type": "LineString", "coordinates": [ [ 207318.863008673797594, 522364.092325371224433 ], [ 207322.521853921556612, 522367.32513758278219 ], [ 207336.014240135031287, 522379.4008300715941 ], [ 207338.861213455413235, 522388.404075969941914 ], [ 207328.853508461092133, 522406.385730089561548 ], [ 207304.586486675747437, 522427.684460955380928 ], [ 207287.266754376643803, 522443.073883425095119 ], [ 207268.03657922099228, 522453.234366508200765 ] ] } },
{ "type": "Feature", "properties": { "route_id": "060", "heat_score": 68.97, "heat_grade": "q4", "length": 51.324837504593418 }, "geometry": { "type": "LineString", "coordinates": [ [ 207281.558766698231921, 522328.867004036146682 ], [ 207297.813499103329377, 522345.517549802840222 ], [ 207301.436925430345582, 522348.717026828671806 ], [ 207318.863008673797594, 522364.092325371224433 ] ] } },
{ "type": "Feature", "properties": { "route_id": "060", "heat_score": 66.33, "heat_grade": "q4", "length": 38.246264175284225 }, "geometry": { "type": "LineString", "coordinates": [ [ 207281.558766698231921, 522328.867004036146682 ], [ 207262.646502889430849, 522309.495094538491685 ], [ 207256.173277345049428, 522300.388851156109013 ] ] } },
{ "type": "Feature", "properties": { "route_id": "060", "heat_score": 68.05, "heat_grade": "q4", "length": 31.381983219980814 }, "geometry": { "type": "LineString", "coordinates": [ [ 207256.173277345049428, 522300.388851156109013 ], [ 207233.965121365967207, 522278.206275703734718 ] ] } },
{ "type": "Feature", "properties": { "route_id": "060", "heat_score": 67.34, "heat_grade": "q4", "length": 51.991161271288505 }, "geometry": { "type": "LineString", "coordinates": [ [ 207215.653998428460909, 522229.712955568218604 ], [ 207217.359320033778204, 522236.506605989998206 ], [ 207224.94810640331707, 522257.833049377659336 ], [ 207233.965121365967207, 522278.206275703734718 ] ] } },
{ "type": "Feature", "properties": { "route_id": "060", "heat_score": 73.45, "heat_grade": "q5", "length": 51.464881187552983 }, "geometry": { "type": "LineString", "coordinates": [ [ 207215.653998428460909, 522229.712955568218604 ], [ 207210.246501964342315, 522208.088742362218909 ], [ 207202.18454987910809, 522180.1362007605494 ] ] } },
{ "type": "Feature", "properties": { "route_id": "060", "heat_score": 71.06, "heat_grade": "q5", "length": 19.527263296904572 }, "geometry": { "type": "LineString", "coordinates": [ [ 207197.040553322935011, 522161.331201580120251 ], [ 207202.18454987910809, 522180.1362007605494 ] ] } },
{ "type": "Feature", "properties": { "route_id": "060", "heat_score": 53.38, "heat_grade": "q2", "length": 84.009934825780832 }, "geometry": { "type": "LineString", "coordinates": [ [ 207197.040553322935011, 522161.331201580120251 ], [ 207128.88054565951461, 522177.887171739828773 ], [ 207115.232611739280401, 522181.205077727558091 ] ] } },
{ "type": "Feature", "properties": { "route_id": "060", "heat_score": 42.93, "heat_grade": "q1", "length": 75.596993007572166 }, "geometry": { "type": "LineString", "coordinates": [ [ 207096.373956939496566, 522108.128750727628358 ], [ 207102.260562523762928, 522129.786587238893844 ], [ 207106.069129793468164, 522144.883550692349672 ], [ 207113.05000213519088, 522172.546523445344064 ], [ 207115.232611739280401, 522181.205077727558091 ] ] } },
{ "type": "Feature", "properties": { "route_id": "060", "heat_score": 55.12, "heat_grade": "q2", "length": 31.918962799760493 }, "geometry": { "type": "LineString", "coordinates": [ [ 207126.961756946722744, 522098.787704036803916 ], [ 207096.373956939496566, 522108.128750727628358 ] ] } },
{ "type": "Feature", "properties": { "route_id": "060", "heat_score": 70.62, "heat_grade": "q4", "length": 172.7616238479138 }, "geometry": { "type": "LineString", "coordinates": [ [ 207126.961756946722744, 522098.787704036803916 ], [ 207111.821114714839496, 522032.528889972250909 ], [ 207110.877232761064079, 522026.84574258106295 ], [ 207112.31716654295451, 522012.174967397470027 ], [ 207112.455971808143659, 522005.327413610648364 ], [ 207112.461461054394022, 521998.857090114150196 ], [ 207111.380890801461646, 521987.069743955216836 ], [ 207107.132576007395983, 521957.22272534982767 ], [ 207106.186635884776479, 521943.493286663491745 ], [ 207105.037732329627033, 521928.620548200502526 ] ] } },
{ "type": "Feature", "properties": { "route_id": "060", "heat_score": 59.69, "heat_grade": "q3", "length": 98.355194393229539 }, "geometry": { "type": "LineString", "coordinates": [ [ 207105.037732329627033, 521928.620548200502526 ], [ 207107.216488019359531, 521858.23677865031641 ], [ 207101.507629839063156, 521856.811354840698186 ], [ 207079.675984029629035, 521859.378802286810242 ] ] } },
{ "type": "Feature", "properties": { "route_id": "060", "heat_score": 61.87, "heat_grade": "q3", "length": 64.607541240474063 }, "geometry": { "type": "LineString", "coordinates": [ [ 207068.486695632018382, 521795.909110695472918 ], [ 207071.754071424831636, 521811.649297250143718 ], [ 207076.575462605425855, 521835.081939701514784 ], [ 207079.675984029629035, 521859.378802286810242 ] ] } },
{ "type": "Feature", "properties": { "route_id": "060", "heat_score": 58.34, "heat_grade": "q2", "length": 635.73958513877403 }, "geometry": { "type": "LineString", "coordinates": [ [ 206517.020434550126083, 522055.129948140005581 ], [ 206603.793392169551225, 522035.187558194622397 ], [ 206625.218367993278662, 522030.354491060657892 ], [ 206644.11806065053679, 522023.488482198910788 ], [ 206657.217880636977497, 522018.238264867046382 ], [ 206669.609041515679564, 522012.188424310297705 ], [ 206682.214393824862782, 522004.407433042069897 ], [ 206694.102228543022648, 521995.8268079420086 ], [ 206704.163206120632822, 521987.744163601193577 ], [ 206711.47440271571395, 521981.168702714901883 ], [ 206764.835693231638288, 521922.368238593568094 ], [ 206805.596160265384242, 521877.197727173741441 ], [ 206821.960534970508888, 521859.409305576584302 ], [ 206836.193372958252439, 521846.069608108547982 ], [ 206852.04718080474413, 521834.762253855646122 ], [ 206865.859316019981634, 521826.383216417278163 ], [ 206875.305390699155396, 521822.539836971031036 ], [ 206886.073080050497083, 521818.109342086128891 ], [ 206899.278612279391382, 521814.269078214711044 ], [ 206911.675785953033483, 521812.259393025073223 ], [ 206924.365233618358616, 521810.649507391906809 ], [ 206990.489069320290582, 521804.03428291954333 ], [ 207048.012333847087575, 521797.478935446648393 ], [ 207050.406554352142848, 521797.203490207844879 ], [ 207068.486695632018382, 521795.909110695472918 ] ] } },
{ "type": "Feature", "properties": { "route_id": "060", "heat_score": 63.53, "heat_grade": "q3", "length": 91.867822164257277 }, "geometry": { "type": "LineString", "coordinates": [ [ 206497.158264187222812, 521965.595390763774049 ], [ 206517.020434550126083, 522055.129948140005581 ] ] } },
{ "type": "Feature", "properties": { "route_id": "060", "heat_score": 74.72, "heat_grade": "q5", "length": 22.12094412342201 }, "geometry": { "type": "LineString", "coordinates": [ [ 206497.158264187222812, 521965.595390763774049 ], [ 206475.405567995272577, 521969.873615218268242 ] ] } },
{ "type": "Feature", "properties": { "route_id": "060", "heat_score": 53.42, "heat_grade": "q2", "length": 246.66286548174594 }, "geometry": { "type": "LineString", "coordinates": [ [ 206475.405567995272577, 521969.873615218268242 ], [ 206465.513280459039379, 521931.931887611222919 ], [ 206463.028824790788349, 521922.818243178189732 ], [ 206458.627020500221988, 521916.533196407370269 ], [ 206442.466367063345388, 521901.12737941427622 ], [ 206436.287322145857615, 521899.935112283332273 ], [ 206351.368347181589343, 521917.394612457195763 ], [ 206279.002159474010114, 521938.193863264634274 ] ] } },
{ "type": "Feature", "properties": { "route_id": "060", "heat_score": 42.95, "heat_grade": "q1", "length": 208.18918379713523 }, "geometry": { "type": "LineString", "coordinates": [ [ 206352.07277867308585, 522122.780862053390592 ], [ 206347.272004428581567, 522104.797926879255101 ], [ 206339.398921656102175, 522034.19548022642266 ], [ 206332.193266304093413, 522018.874337583431043 ], [ 206325.885802286880789, 522011.711152403149754 ], [ 206319.514957622392103, 522006.279263895354234 ], [ 206312.681982073088875, 522002.267618637240957 ], [ 206302.614447248110082, 521996.01168392249383 ], [ 206297.838554646237753, 521991.879515933920629 ], [ 206292.568986882339232, 521983.951351153315045 ], [ 206287.665504721517209, 521972.594080325157847 ], [ 206281.096702874579933, 521947.284964184334967 ], [ 206279.002159474010114, 521938.193863264634274 ] ] } },
{ "type": "Feature", "properties": { "route_id": "060", "heat_score": 64.32, "heat_grade": "q3", "length": 184.60535625059862 }, "geometry": { "type": "LineString", "coordinates": [ [ 206352.07277867308585, 522122.780862053390592 ], [ 206327.621843072236516, 522131.530054113245569 ], [ 206299.431266838975716, 522137.790480000083335 ], [ 206234.954468179348623, 522151.504211085964926 ], [ 206172.463091390643967, 522166.340831186855212 ] ] } },
{ "type": "Feature", "properties": { "route_id": "060", "heat_score": 63.14, "heat_grade": "q3", "length": 156.65483559065359 }, "geometry": { "type": "LineString", "coordinates": [ [ 206205.332300392095931, 522319.23355640238151 ], [ 206191.751808150176657, 522256.062888674263377 ], [ 206183.46379830915248, 522217.523354289704002 ], [ 206178.215285554761067, 522193.103150190843735 ], [ 206176.969436485727783, 522187.286705339967739 ], [ 206172.463091390643967, 522166.340831186855212 ] ] } },
{ "type": "Feature", "properties": { "route_id": "060", "heat_score": 70.96, "heat_grade": "q5", "length": 59.670073202983254 }, "geometry": { "type": "LineString", "coordinates": [ [ 206218.136083416815381, 522377.409424854791723 ], [ 206215.741460988530889, 522366.531278902024496 ], [ 206205.332300392095931, 522319.23355640238151 ] ] } },
{ "type": "Feature", "properties": { "route_id": "060", "heat_score": 73.62, "heat_grade": "q5", "length": 32.193273890800143 }, "geometry": { "type": "LineString", "coordinates": [ [ 206218.136083416815381, 522377.409424854791723 ], [ 206209.419645301561104, 522390.931836327712517 ], [ 206200.694377499748953, 522404.443152218475007 ] ] } },
{ "type": "Feature", "properties": { "route_id": "060", "heat_score": 73.01, "heat_grade": "q5", "length": 39.990671471360933 }, "geometry": { "type": "LineString", "coordinates": [ [ 206234.271391061018221, 522426.209700055420399 ], [ 206213.748226095747668, 522412.188359627733007 ], [ 206200.694377499748953, 522404.443152218475007 ] ] } },
{ "type": "Feature", "properties": { "route_id": "060", "heat_score": 63.54, "heat_grade": "q3", "length": 276.46944008198705 }, "geometry": { "type": "LineString", "coordinates": [ [ 206234.271391061018221, 522426.209700055420399 ], [ 206226.125736047833925, 522435.237692808033898 ], [ 206220.606572872173274, 522441.359877732465975 ], [ 206211.840274701418821, 522462.429120845685247 ], [ 206212.978532070526853, 522469.777064399793744 ], [ 206220.112424758612178, 522474.044117005192675 ], [ 206235.798731319984654, 522482.579295702162199 ], [ 206266.700652046391042, 522500.592748600232881 ], [ 206292.843242073635338, 522516.24989388405811 ], [ 206316.613979455723893, 522526.21188532654196 ], [ 206355.595815868175123, 522551.334698215767276 ], [ 206378.893602951313369, 522565.092140990425833 ], [ 206396.700854744616663, 522535.695109826163389 ] ] } },
{ "type": "Feature", "properties": { "route_id": "060", "heat_score": 58.13, "heat_grade": "q2", "length": 31.796712210196659 }, "geometry": { "type": "LineString", "coordinates": [ [ 206415.445159245922696, 522510.027876777225174 ], [ 206396.700854744616663, 522535.695109826163389 ] ] } },
{ "type": "Feature", "properties": { "route_id": "060", "heat_score": 38.26, "heat_grade": "q1", "length": 197.10807189886197 }, "geometry": { "type": "LineString", "coordinates": [ [ 206415.445159245922696, 522510.027876777225174 ], [ 206468.017268628376769, 522547.736044413293712 ], [ 206542.79020669858437, 522606.415513455111068 ], [ 206572.792030534386868, 522628.946423171495553 ] ] } },
{ "type": "Feature", "properties": { "route_id": "060", "heat_score": 58.03, "heat_grade": "q2", "length": 45.056049549349225 }, "geometry": { "type": "LineString", "coordinates": [ [ 206572.792030534386868, 522628.946423171495553 ], [ 206590.077673906082055, 522632.200711636862252 ], [ 206616.477233047393383, 522624.286194543819875 ] ] } },
{ "type": "Feature", "properties": { "route_id": "060", "heat_score": 76.45, "heat_grade": "q5", "length": 45.831104399956985 }, "geometry": { "type": "LineString", "coordinates": [ [ 206616.477233047393383, 522624.286194543819875 ], [ 206615.279413082491374, 522636.715392371348571 ], [ 206616.572758190624882, 522649.279736839758698 ], [ 206623.596807626367081, 522668.685187555733137 ] ] } },
{ "type": "Feature", "properties": { "route_id": "060", "heat_score": 65.1, "heat_grade": "q4", "length": 35.381265085056462 }, "geometry": { "type": "LineString", "coordinates": [ [ 206595.598243002139498, 522647.010242493532132 ], [ 206597.963948771706782, 522648.843330873874947 ], [ 206607.231847100541927, 522656.009062354511116 ], [ 206609.535522832593415, 522657.797711771156173 ], [ 206623.596807626367081, 522668.685187555733137 ] ] } },
{ "type": "Feature", "properties": { "route_id": "060", "heat_score": 46.88, "heat_grade": "q1", "length": 19.708823947511256 }, "geometry": { "type": "LineString", "coordinates": [ [ 206590.06891373268445, 522665.895272418158129 ], [ 206590.91342425433686, 522663.010367336100899 ], [ 206592.833575267577544, 522656.452756935730577 ], [ 206595.598243002139498, 522647.010242493532132 ] ] } },
{ "type": "Feature", "properties": { "route_id": "060", "heat_score": 70.84, "heat_grade": "q4", "length": 68.445001963934118 }, "geometry": { "type": "LineString", "coordinates": [ [ 206644.214013427641476, 522707.812066974758636 ], [ 206622.949681438534753, 522691.036739126313478 ], [ 206596.085597362485714, 522669.873211804078892 ], [ 206590.06891373268445, 522665.895272418158129 ] ] } },
{ "type": "Feature", "properties": { "route_id": "060", "heat_score": 77.34, "heat_grade": "q5", "length": 73.491944445220497 }, "geometry": { "type": "LineString", "coordinates": [ [ 206644.214013427641476, 522707.812066974758636 ], [ 206630.954864376806654, 522702.907197405234911 ], [ 206623.794699291116558, 522698.739657133526634 ], [ 206615.339245848212158, 522695.703131624264643 ], [ 206609.425967430841411, 522695.543089822866023 ], [ 206604.894368834677152, 522697.115482405293733 ], [ 206601.556813371484168, 522702.273582697787788 ], [ 206601.790696567273699, 522709.243526591220871 ], [ 206602.902261125767836, 522727.490079151990358 ] ] } },
{ "type": "Feature", "properties": { "route_id": "060", "heat_score": 69.26, "heat_grade": "q4", "length": 226.4491117835687 }, "geometry": { "type": "LineString", "coordinates": [ [ 206602.902261125767836, 522727.490079151990358 ], [ 206609.777328609518008, 522744.653537794190925 ], [ 206620.698467228387017, 522768.756662962958217 ], [ 206628.768534754781285, 522788.174046463915147 ], [ 206635.408953099919017, 522810.442581187176984 ], [ 206638.471031156688696, 522828.457620628527366 ], [ 206639.19464615630568, 522832.69776184076909 ], [ 206641.323147564457031, 522854.097059040504973 ], [ 206643.180395504605258, 522882.155150392383803 ], [ 206642.351129223243333, 522910.555162559146993 ], [ 206641.47133213779307, 522946.790569369448349 ] ] } },
{ "type": "Feature", "properties": { "route_id": "060", "heat_score": 70.93, "heat_grade": "q5", "length": 162.83152168218132 }, "geometry": { "type": "LineString", "coordinates": [ [ 206773.346410258352989, 523031.920559309888631 ], [ 206770.746463823976228, 523023.927646894997451 ], [ 206765.516322570008924, 523012.447730111773126 ], [ 206761.780175052001141, 523006.218541106791236 ], [ 206758.901517160207732, 523003.019894580007531 ], [ 206751.289253442257177, 522999.207025360199623 ], [ 206731.492089283594396, 522989.202587225590833 ], [ 206659.685140726331156, 522952.587261633598246 ], [ 206641.47133213779307, 522946.790569369448349 ] ] } },
{ "type": "Feature", "properties": { "route_id": "060", "heat_score": 67.63, "heat_grade": "q4", "length": 29.543377022656745 }, "geometry": { "type": "LineString", "coordinates": [ [ 206773.346410258352989, 523031.920559309888631 ], [ 206773.832800467382185, 523033.408131251984742 ], [ 206774.660972243291326, 523039.801450001075864 ], [ 206775.010802434640937, 523045.71715315640904 ], [ 206773.216083485429408, 523050.576779687195085 ], [ 206769.103752485156292, 523060.106939691584557 ] ] } },
{ "type": "Feature", "properties": { "route_id": "060", "heat_score": 73.15, "heat_grade": "q5", "length": 142.20746967031641 }, "geometry": { "type": "LineString", "coordinates": [ [ 206769.103752485156292, 523060.106939691584557 ], [ 206761.017530720564537, 523061.44331272499403 ], [ 206749.003357734472957, 523063.564512309618294 ], [ 206736.874798714386998, 523064.620195568189956 ], [ 206726.892584185989108, 523064.501193796866573 ], [ 206717.735801099159289, 523063.18424373382004 ], [ 206706.204629476851551, 523059.978683921217453 ], [ 206700.266974745347397, 523057.365822590771131 ], [ 206700.027718491415726, 523057.232451117422897 ], [ 206694.320823363319505, 523054.286828013544437 ], [ 206689.093704136670567, 523050.020888141472824 ], [ 206685.053865618538111, 523046.588274743582588 ], [ 206681.013652203371748, 523043.621793692524079 ], [ 206676.264680203428725, 523040.06653745949734 ], [ 206669.963807112799259, 523037.098261215374805 ], [ 206664.610758800467011, 523035.085201437119395 ], [ 206652.486591881694039, 523030.569639068446122 ], [ 206636.320133969449671, 523025.662450250121765 ] ] } },
{ "type": "Feature", "properties": { "route_id": "060", "heat_score": 55.57, "heat_grade": "q2", "length": 383.00315027658002 }, "geometry": { "type": "LineString", "coordinates": [ [ 206636.320133969449671, 523025.662450250121765 ], [ 206636.2485435201379, 523026.505868083389942 ], [ 206636.709405798406806, 523037.8709424699191 ], [ 206639.086295784538379, 523047.816945985308848 ], [ 206642.880878057243535, 523058.707433635601774 ], [ 206647.931713331694482, 523072.884031155495904 ], [ 206650.470382798084756, 523080.022284275386482 ], [ 206656.698542353900848, 523096.375098579446785 ], [ 206672.304229068482528, 523137.340422332519665 ], [ 206687.522069235244999, 523175.331110282742884 ], [ 206694.131179979565786, 523191.817439323989674 ], [ 206702.535873189044651, 523213.321665180905256 ], [ 206716.98298488088767, 523250.301845113455784 ], [ 206729.129789627331775, 523281.386979123286437 ], [ 206740.542216258356348, 523310.595919838175178 ], [ 206770.607128836680204, 523382.925938008236699 ] ] } },
{ "type": "Feature", "properties": { "route_id": "060", "heat_score": 50.25, "heat_grade": "q2", "length": 21.9818519338281 }, "geometry": { "type": "LineString", "coordinates": [ [ 206779.526765397808049, 523402.987878024403471 ], [ 206777.367656259943033, 523398.125051714596339 ], [ 206770.607128836680204, 523382.925938008236699 ] ] } },
{ "type": "Feature", "properties": { "route_id": "060", "heat_score": 71.21, "heat_grade": "q5", "length": 77.9431086124481 }, "geometry": { "type": "LineString", "coordinates": [ [ 206779.526765397808049, 523402.987878024403471 ], [ 206800.963496852171374, 523477.797072580840904 ] ] } },
{ "type": "Feature", "properties": { "route_id": "060", "heat_score": 63.84, "heat_grade": "q3", "length": 32.458900921145194 }, "geometry": { "type": "LineString", "coordinates": [ [ 206811.851306314725662, 523508.326399090408813 ], [ 206809.569380461121909, 523501.931890421954449 ], [ 206800.963496852171374, 523477.797072580840904 ] ] } },
{ "type": "Feature", "properties": { "route_id": "060", "heat_score": 57.35, "heat_grade": "q2", "length": 10.740704025009894 }, "geometry": { "type": "LineString", "coordinates": [ [ 206811.851306314725662, 523508.326399090408813 ], [ 206814.83037092135055, 523518.628097327775322 ] ] } },
{ "type": "Feature", "properties": { "route_id": "060", "heat_score": 66.63, "heat_grade": "q4", "length": 64.836059448065896 }, "geometry": { "type": "LineString", "coordinates": [ [ 206814.83037092135055, 523518.628097327775322 ], [ 206802.749902217939962, 523526.764475981006399 ], [ 206788.291681691334816, 523537.384977721958421 ], [ 206761.868371103308164, 523556.119838833401445 ] ] } },
{ "type": "Feature", "properties": { "route_id": "060", "heat_score": 65.52, "heat_grade": "q4", "length": 82.311089303466474 }, "geometry": { "type": "LineString", "coordinates": [ [ 206839.173833416803973, 523572.064329315559007 ], [ 206821.222729354311014, 523561.16220714134397 ], [ 206805.351057747844607, 523554.867630986846052 ], [ 206803.516647161683068, 523554.133649714058265 ], [ 206795.548856324865483, 523552.118381332198624 ], [ 206785.567618621164002, 523551.510981332277879 ], [ 206774.866790216095978, 523552.811929019168019 ], [ 206761.868371103308164, 523556.119838833401445 ] ] } },
{ "type": "Feature", "properties": { "route_id": "060", "heat_score": 75.27, "heat_grade": "q5", "length": 23.012022576848295 }, "geometry": { "type": "LineString", "coordinates": [ [ 206854.069994823861634, 523589.600809549039695 ], [ 206845.373186885903124, 523579.37211162148742 ], [ 206839.173833416803973, 523572.064329315559007 ] ] } },
{ "type": "Feature", "properties": { "route_id": "060", "heat_score": 73.12, "heat_grade": "q5", "length": 132.95531857136365 }, "geometry": { "type": "LineString", "coordinates": [ [ 206854.069994823861634, 523589.600809549039695 ], [ 206875.836112550809048, 523607.298328415723518 ], [ 206878.484937342931516, 523609.398092352086678 ], [ 206892.978150311886566, 523620.885706199565902 ], [ 206910.209923331014579, 523633.085898453602567 ], [ 206959.350902315316489, 523670.916486003727186 ] ] } },
{ "type": "Feature", "properties": { "route_id": "060", "heat_score": 65.31, "heat_grade": "q4", "length": 20.093226273590233 }, "geometry": { "type": "LineString", "coordinates": [ [ 206975.811789456114639, 523682.472469369880855 ], [ 206959.350902315316489, 523670.916486003727186 ] ] } },
{ "type": "Feature", "properties": { "route_id": "060", "heat_score": 65.22, "heat_grade": "q4", "length": 41.547711416807644 }, "geometry": { "type": "LineString", "coordinates": [ [ 206970.757949267106596, 523715.641265483689494 ], [ 206976.576142159086885, 523712.0169436140568 ], [ 206980.284787697513821, 523708.124507450091187 ], [ 206983.213878907845356, 523703.598816609359346 ], [ 206984.468237757537281, 523698.261550267867278 ], [ 206984.080886934476439, 523695.031604243500624 ], [ 206982.789493018120993, 523691.623331026406959 ], [ 206981.09859839497949, 523688.925020287977532 ], [ 206975.811789456114639, 523682.472469369880855 ] ] } },
{ "type": "Feature", "properties": { "route_id": "060", "heat_score": 58.2, "heat_grade": "q2", "length": 6.7960392762307 }, "geometry": { "type": "LineString", "coordinates": [ [ 206970.757949267106596, 523715.641265483689494 ], [ 206977.566148599784356, 523715.413866632676218 ] ] } },
{ "type": "Feature", "properties": { "route_id": "060", "heat_score": 73.74, "heat_grade": "q5", "length": 67.617039913262275 }, "geometry": { "type": "LineString", "coordinates": [ [ 207040.564005639811512, 523739.882961247465573 ], [ 207012.855473007977707, 523726.763657121045981 ], [ 207003.48836869513616, 523723.459608966251835 ], [ 206999.491619678447023, 523722.046777309617028 ], [ 206993.828670110902749, 523720.221917254268192 ], [ 206977.566148599784356, 523715.413866632676218 ] ] } },
{ "type": "Feature", "properties": { "route_id": "060", "heat_score": 74.39, "heat_grade": "q5", "length": 85.486837511386454 }, "geometry": { "type": "LineString", "coordinates": [ [ 207104.287560092838248, 523796.69377670326503 ], [ 207092.446774762211135, 523783.620971793192439 ], [ 207073.924840537569253, 523767.290720341843553 ], [ 207065.127821828995366, 523760.801854140416253 ], [ 207040.564005639811512, 523739.882961247465573 ] ] } },
{ "type": "Feature", "properties": { "route_id": "060", "heat_score": 78.9, "heat_grade": "q5", "length": 47.27426896456906 }, "geometry": { "type": "LineString", "coordinates": [ [ 207132.302570925385226, 523834.64068642386701 ], [ 207128.257600781274959, 523827.478799311211333 ], [ 207122.936468864179915, 523819.927386515133549 ], [ 207117.915626247529872, 523813.663642497791443 ], [ 207114.329306838713819, 523809.187956034322269 ], [ 207104.287560092838248, 523796.69377670326503 ] ] } },
{ "type": "Feature", "properties": { "route_id": "060", "heat_score": 58.56, "heat_grade": "q3", "length": 142.0643759549142 }, "geometry": { "type": "LineString", "coordinates": [ [ 207190.351465724874288, 523963.86417643429013 ], [ 207185.546597503009252, 523953.993606487638317 ], [ 207170.339545375783928, 523918.055167548591271 ], [ 207155.047035417868756, 523878.23225776583422 ], [ 207151.578871403413359, 523870.393851169443224 ], [ 207146.987076105287997, 523860.024060438736342 ], [ 207135.993617525469745, 523841.025388643553015 ], [ 207132.302570925385226, 523834.64068642386701 ] ] } },
{ "type": "Feature", "properties": { "route_id": "060", "heat_score": 60.8, "heat_grade": "q3", "length": 11.407869974804932 }, "geometry": { "type": "LineString", "coordinates": [ [ 207190.351465724874288, 523963.86417643429013 ], [ 207200.903793246659916, 523959.478286081808619 ] ] } },
{ "type": "Feature", "properties": { "route_id": "060", "heat_score": 56.95, "heat_grade": "q2", "length": 99.237808277441317 }, "geometry": { "type": "LineString", "coordinates": [ [ 207164.142288338305661, 523867.452419156674296 ], [ 207165.451348040369339, 523870.816343119135126 ], [ 207166.972687651636079, 523874.724268766934983 ], [ 207182.956569079193287, 523914.547792914963793 ], [ 207196.320953384623863, 523949.130671079852618 ], [ 207200.903793246659916, 523959.478286081808619 ] ] } },
{ "type": "Feature", "properties": { "route_id": "060", "heat_score": 55.64, "heat_grade": "q2", "length": 263.54092914717592 }, "geometry": { "type": "LineString", "coordinates": [ [ 207418.054668387863785, 523818.008192008535843 ], [ 207387.963958109088708, 523813.209308522171341 ], [ 207351.693883215921232, 523809.292978162760846 ], [ 207334.11456647166051, 523810.453998691576999 ], [ 207315.478394020639826, 523813.88929796993034 ], [ 207278.760199532815022, 523825.776962916250341 ], [ 207227.462817406078102, 523844.744054904906079 ], [ 207175.252707478066441, 523863.621892349328846 ], [ 207164.142288338305661, 523867.452419156674296 ] ] } },
{ "type": "Feature", "properties": { "route_id": "060", "heat_score": 61.56, "heat_grade": "q3", "length": 178.42866887638516 }, "geometry": { "type": "LineString", "coordinates": [ [ 207418.054668387863785, 523818.008192008535843 ], [ 207443.904525229037972, 523826.854318087978754 ], [ 207492.396522572264075, 523843.001268422580324 ], [ 207543.739265582640655, 523862.946707600844093 ], [ 207560.566839218401583, 523869.598698275280185 ], [ 207575.128465840709396, 523872.519622858730145 ], [ 207587.44118253342458, 523872.497468863439281 ] ] } },
{ "type": "Feature", "properties": { "route_id": "060", "heat_score": 62.3, "heat_grade": "q3", "length": 147.94107693589385 }, "geometry": { "type": "LineString", "coordinates": [ [ 207703.915645726956427, 523963.810138423868921 ], [ 207681.539146226539742, 523947.652565945347305 ], [ 207660.962178350891918, 523931.330223581346218 ], [ 207610.259409476595465, 523890.71948462742148 ], [ 207597.159066755586537, 523879.553737423208077 ], [ 207587.44118253342458, 523872.497468863439281 ] ] } },
{ "type": "Feature", "properties": { "route_id": "060", "heat_score": 73.18, "heat_grade": "q5", "length": 22.420910137828507 }, "geometry": { "type": "LineString", "coordinates": [ [ 207722.110886173235485, 523976.945160209550522 ], [ 207703.915645726956427, 523963.810138423868921 ] ] } },
{ "type": "Feature", "properties": { "route_id": "060", "heat_score": 65.74, "heat_grade": "q4", "length": 28.40170345900302 }, "geometry": { "type": "LineString", "coordinates": [ [ 207745.178223854571115, 523993.558513890951872 ], [ 207722.110886173235485, 523976.945160209550522 ] ] } },
{ "type": "Feature", "properties": { "route_id": "060", "heat_score": 67.11, "heat_grade": "q4", "length": 67.330200712684004 }, "geometry": { "type": "LineString", "coordinates": [ [ 207707.471383533906192, 524049.293045791622717 ], [ 207745.178223854571115, 523993.558513890951872 ] ] } },
{ "type": "Feature", "properties": { "route_id": "060", "heat_score": 59.54, "heat_grade": "q3", "length": 48.903664951924569 }, "geometry": { "type": "LineString", "coordinates": [ [ 207680.796782006626017, 524090.243730235553812 ], [ 207707.471383533906192, 524049.293045791622717 ] ] } },
{ "type": "Feature", "properties": { "route_id": "060", "heat_score": 71.94, "heat_grade": "q5", "length": 42.159521009547028 }, "geometry": { "type": "LineString", "coordinates": [ [ 207680.796782006626017, 524090.243730235553812 ], [ 207659.489473532070406, 524126.582484633487184 ] ] } },
{ "type": "Feature", "properties": { "route_id": "060", "heat_score": 53.86, "heat_grade": "q2", "length": 126.83940587056601 }, "geometry": { "type": "LineString", "coordinates": [ [ 207659.489473532070406, 524126.582484633487184 ], [ 207677.912094586907187, 524133.102993186446838 ], [ 207753.912704892660258, 524181.717266427993309 ], [ 207768.370227592356969, 524191.097686021996196 ] ] } },
{ "type": "Feature", "properties": { "route_id": "060", "heat_score": 39.57, "heat_grade": "q1", "length": 161.83182950181953 }, "geometry": { "type": "LineString", "coordinates": [ [ 207901.909987096762052, 524282.795257012126967 ], [ 207768.370227592356969, 524191.097686021996196 ] ] } }
]
}
