{
"type": "FeatureCollection",
"name": "061_edges",
"crs": { "type": "name", "properties": { "name": "urn:ogc:def:crs:EPSG::5186" } },
"features": [
{ "type": "Feature", "properties": { "route_id": "061", "heat_score": 46.12, "heat_grade": "q1", "length": 200.58106745106704 }, "geometry": { "type": "LineString", "coordinates": [ [ 207179.774873922287952, 522775.665069967100862 ], [ 207336.373167118814308, 522901.223107286146842 ] ] } },
{ "type": "Feature", "properties": { "route_id": "061", "heat_score": 60.8, "heat_grade": "q3", "length": 184.91169404037097 }, "geometry": { "type": "LineString", "coordinates": [ [ 207450.763126264209859, 523042.028905455255881 ], [ 207442.462378139985958, 523015.252306294045411 ], [ 207429.469567886117147, 522990.99088150676107 ], [ 207340.403545858192956, 522905.111058345239144 ], [ 207336.373167118814308, 522901.223107286146842 ] ] } },
{ "type": "Feature", "properties": { "route_id": "061", "heat_score": 51.88, "heat_grade": "q2", "length": 122.05488345319775 }, "geometry": { "type": "LineString", "coordinates": [ [ 207450.763126264209859, 523042.028905455255881 ], [ 207452.23470396065386, 523062.040542282862589 ], [ 207455.288860940403538, 523096.847691579721868 ], [ 207463.043736484250985, 523159.071961774141528 ], [ 207463.554279576463159, 523163.156610624922905 ] ] } },
{ "type": "Feature", "properties": { "route_id": "061", "heat_score": 43.28, "heat_grade": "q1", "length": 141.36642154446307 }, "geometry": { "type": "LineString", "coordinates": [ [ 207347.988661646144465, 523243.018127369112335 ], [ 207359.79417948651826, 523236.103113642835524 ], [ 207399.193983671721071, 523212.309640893305186 ], [ 207421.652506235404871, 523198.745114364894107 ], [ 207450.206433740677312, 523179.592494283802807 ], [ 207463.554279576463159, 523163.156610624922905 ] ] } },
{ "type": "Feature", "properties": { "route_id": "061", "heat_score": 38.99, "heat_grade": "q1", "length": 418.91487096426835 }, "geometry": { "type": "LineString", "coordinates": [ [ 207347.988661646144465, 523243.018127369112335 ], [ 207344.817595193075249, 523240.007693375810049 ], [ 207329.25450558681041, 523225.266551208624151 ], [ 207305.018556592782261, 523203.459320757188834 ], [ 207286.956138980895048, 523187.817113406141289 ], [ 207270.799664533900796, 523172.176598880090751 ], [ 207256.079836984019494, 523155.904753661714494 ], [ 207253.227976097521605, 523152.75035267835483 ], [ 207235.648164998972788, 523132.369678753602784 ], [ 207222.813498183095362, 523119.573305361089297 ], [ 207209.986845805949997, 523107.720318783714902 ], [ 207195.733662484009983, 523094.922767277574167 ], [ 207166.739575152925681, 523069.327320954645984 ], [ 207038.42562388360966, 522961.24272947490681 ] ] } },
{ "type": "Feature", "properties": { "route_id": "061", "heat_score": 42.18, "heat_grade": "q1", "length": 233.35993332336776 }, "geometry": { "type": "LineString", "coordinates": [ [ 207038.42562388360966, 522961.24272947490681 ], [ 207079.109710181044647, 522907.827347469399683 ], [ 207106.703113429539371, 522871.60349478921853 ], [ 207179.774873922287952, 522775.665069967100862 ] ] } }
]
}
