{
"type": "FeatureCollection",
"name": "062_edges",
"crs": { "type": "name", "properties": { "name": "urn:ogc:def:crs:EPSG::5186" } },
"features": [
{ "type": "Feature", "properties": { "route_id": "062", "heat_score": 48.51, "heat_grade": "q2", "length": 154.70313919320915 }, "geometry": { "type": "LineString", "coordinates": [ [ 207243.055952865455765, 522459.361225071828812 ], [ 207243.270494560041698, 522467.585281316773035 ], [ 207235.469513076270232, 522476.66808564204257 ], [ 207147.875999031122774, 522578.697681157384068 ] ] } },
{ "type": "Feature", "properties": { "route_id": "062", "heat_score": 60.23, "heat_grade": "q3", "length": 25.824618581332295 }, "geometry": { "type": "LineString", "coordinates": [ [ 207243.055952865455765, 522459.361225071828812 ], [ 207260.187370163504966, 522456.53487012948608 ], [ 207268.03657922099228, 522453.234366508200765 ] ] } },
{ "type": "Feature", "properties": { "route_id": "062", "heat_score": 47.09, "heat_grade": "q1", "length": 58.191396489777176 }, "geometry": { "type": "LineString", "coordinates": [ [ 207310.098130403377581, 522492.104039101977833 ], [ 207304.630568037653575, 522489.013933653011918 ], [ 207298.684436775074573, 522485.701448244508356 ], [ 207293.934791070350911, 522482.856138476170599 ], [ 207288.707001287577441, 522479.300121776701417 ], [ 207277.778411731385859, 522465.550879377697129 ], [ 207268.03657922099228, 522453.234366508200765 ] ] } },
{ "type": "Feature", "properties": { "route_id": "062", "heat_score": 42.68, "heat_grade": "q1", "length": 37.143191199614421 }, "geometry": { "type": "LineString", "coordinates": [ [ 207314.32162243212224, 522528.932023039087653 ], [ 207311.741181006480474, 522509.152525588811841 ], [ 207310.098130403377581, 522492.104039101977833 ] ] } },
{ "type": "Feature", "properties": { "route_id": "062", "heat_score": 41.12, "heat_grade": "q1", "length": 382.4232269908095 }, "geometry": { "type": "LineString", "coordinates": [ [ 207314.32162243212224, 522528.932023039087653 ], [ 207314.955740571487695, 522533.771453777211718 ], [ 207318.73024128790712, 522566.925498939701356 ], [ 207320.907464983960381, 522581.388541636057198 ], [ 207340.626494620868471, 522610.050612771825399 ], [ 207351.697662521793973, 522723.718467224796768 ], [ 207352.961786958767334, 522778.423325797310099 ], [ 207348.029049356875475, 522843.055775417597033 ], [ 207348.004140372009715, 522871.467525078798644 ], [ 207336.373167118814308, 522901.223107286146842 ] ] } },
{ "type": "Feature", "properties": { "route_id": "062", "heat_score": 46.12, "heat_grade": "q1", "length": 200.58106745106704 }, "geometry": { "type": "LineString", "coordinates": [ [ 207179.774873922287952, 522775.665069967100862 ], [ 207336.373167118814308, 522901.223107286146842 ] ] } },
{ "type": "Feature", "properties": { "route_id": "062", "heat_score": 38.41, "heat_grade": "q1", "length": 275.91205506100852 }, "geometry": { "type": "LineString", "coordinates": [ [ 207179.774873922287952, 522775.665069967100862 ], [ 207158.387920857552672, 522758.588618810637854 ], [ 207102.837007174268365, 522715.568565433670301 ], [ 207089.139679332001833, 522704.958049781853333 ], [ 206961.618004270247184, 522606.408855871821288 ] ] } },
{ "type": "Feature", "properties": { "route_id": "062", "heat_score": 36.94, "heat_grade": "q1", "length": 261.27167925636337 }, "geometry": { "type": "LineString", "coordinates": [ [ 207147.875999031122774, 522578.697681157384068 ], [ 207053.490931277803611, 522504.669472347479314 ], [ 207050.592360812792322, 522503.990034947928507 ], [ 207046.841919682512525, 522504.197749660059344 ], [ 207042.869085959187942, 522505.293146496871486 ], [ 207039.286174450768158, 522506.599741141777486 ], [ 207035.178938996978104, 522509.381976644042879 ], [ 206995.479081060009776, 522560.67858117306605 ], [ 206990.810637864895398, 522566.701086121611297 ], [ 206961.618004270247184, 522606.408855871821288 ] ] } }
]
}
