{
"type": "FeatureCollection",
"name": "063_edges",
"crs": { "type": "name", "properties": { "name": "urn:ogc:def:crs:EPSG::5186" } },
"features": [
{ "type": "Feature", "properties": { "route_id": "063", "heat_score": 54.93, "heat_grade": "q2", "length": 161.40008582218266 }, "geometry": { "type": "LineString", "coordinates": [ [ 209665.764986569236498, 525459.498140550451353 ], [ 209703.115006169653498, 525457.477031752001494 ], [ 209750.060887417785125, 525457.631444608327001 ], [ 209802.599138226651121, 525457.814861835562624 ], [ 209827.486240440572146, 525457.422291618189774 ] ] } },
{ "type": "Feature", "properties": { "route_id": "063", "heat_score": 69.45, "heat_grade": "q4", "length": 171.97773340389193 }, "geometry": { "type": "LineString", "coordinates": [ [ 209665.764986569236498, 525459.498140550451353 ], [ 209666.368302332150051, 525512.68237575457897 ], [ 209665.870118254038971, 525568.051729147904553 ], [ 209662.482791056187125, 525631.053454653942026 ] ] } },
{ "type": "Feature", "properties": { "route_id": "063", "heat_score": 78.09, "heat_grade": "q5", "length": 179.21532321423791 }, "geometry": { "type": "LineString", "coordinates": [ [ 209662.482791056187125, 525631.053454653942026 ], [ 209662.537838695803657, 525683.193820816231892 ], [ 209662.652142293896759, 525699.342131579411216 ], [ 209663.109449278155807, 525809.927174627198838 ] ] } },
{ "type": "Feature", "properties": { "route_id": "063", "heat_score": 75.85, "heat_grade": "q5", "length": 171.19065119390493 }, "geometry": { "type": "LineString", "coordinates": [ [ 209663.109449278155807, 525809.927174627198838 ], [ 209662.349243957054568, 525823.588436176301911 ], [ 209659.713051064347383, 525980.749954186030664 ] ] } },
{ "type": "Feature", "properties": { "route_id": "063", "heat_score": 75.45, "heat_grade": "q5", "length": 41.510842588789281 }, "geometry": { "type": "LineString", "coordinates": [ [ 209659.713051064347383, 525980.749954186030664 ], [ 209701.320826878567459, 525981.008930343203247 ] ] } },
{ "type": "Feature", "properties": { "route_id": "063", "heat_score": 64.62, "heat_grade": "q3", "length": 172.98225332064635 }, "geometry": { "type": "LineString", "coordinates": [ [ 209701.320826878567459, 525981.008930343203247 ], [ 209874.710240970220184, 525980.778789099073038 ] ] } },
{ "type": "Feature", "properties": { "route_id": "063", "heat_score": 46.98, "heat_grade": "q1", "length": 32.686427793128381 }, "geometry": { "type": "LineString", "coordinates": [ [ 209907.448752018506639, 525979.507851808331907 ], [ 209874.710240970220184, 525980.778789099073038 ] ] } },
{ "type": "Feature", "properties": { "route_id": "063", "heat_score": 58.06, "heat_grade": "q2", "length": 169.69289711310805 }, "geometry": { "type": "LineString", "coordinates": [ [ 209907.448752018506639, 525979.507851808331907 ], [ 209908.735373428964522, 525888.291543678147718 ], [ 209909.116341000772081, 525843.454423326882534 ], [ 209909.10619475445128, 525837.050629742443562 ], [ 209909.288692423171597, 525810.148304732399993 ] ] } },
{ "type": "Feature", "properties": { "route_id": "063", "heat_score": 63.31, "heat_grade": "q3", "length": 83.711198560269537 }, "geometry": { "type": "LineString", "coordinates": [ [ 209909.288692423171597, 525810.148304732399993 ], [ 209930.708773389924318, 525810.417846580501646 ], [ 209993.159534193051513, 525812.523154934868217 ] ] } },
{ "type": "Feature", "properties": { "route_id": "063", "heat_score": 54.22, "heat_grade": "q2", "length": 147.33315773695625 }, "geometry": { "type": "LineString", "coordinates": [ [ 209926.722703806386562, 525681.638306440319866 ], [ 209974.672074103611521, 525768.318350156885572 ], [ 209989.180436762952013, 525797.568851370946504 ], [ 209993.159534193051513, 525812.523154934868217 ] ] } },
{ "type": "Feature", "properties": { "route_id": "063", "heat_score": 36.98, "heat_grade": "q1", "length": 245.67532764006529 }, "geometry": { "type": "LineString", "coordinates": [ [ 209926.722703806386562, 525681.638306440319866 ], [ 209924.768270997883519, 525678.106696742936037 ], [ 209893.591162504599197, 525617.017476748325862 ], [ 209870.16853893143707, 525563.351249854196794 ], [ 209827.486240440572146, 525457.422291618189774 ] ] } }
]
}
