{
"type": "FeatureCollection",
"name": "064_edges",
"crs": { "type": "name", "properties": { "name": "urn:ogc:def:crs:EPSG::5186" } },
"features": [
{ "type": "Feature", "properties": { "route_id": "064", "heat_score": 46.18, "heat_grade": "q1", "length": 132.81415004507684 }, "geometry": { "type": "LineString", "coordinates": [ [ 208796.693764325522352, 525735.878038942813873 ], [ 208663.609600403113291, 525732.520749260904267 ] ] } },
{ "type": "Feature", "properties": { "route_id": "064", "heat_score": 55.69, "heat_grade": "q2", "length": 123.09006956642639 }, "geometry": { "type": "LineString", "coordinates": [ [ 208662.055659103905782, 525855.367359109572135 ], [ 208663.609600403113291, 525732.520749260904267 ] ] } },
{ "type": "Feature", "properties": { "route_id": "064", "heat_score": 61.31, "heat_grade": "q3", "length": 138.01616371909105 }, "geometry": { "type": "LineString", "coordinates": [ [ 208662.055659103905782, 525855.367359109572135 ], [ 208662.391708449897124, 525993.121106257312931 ] ] } },
{ "type": "Feature", "properties": { "route_id": "064", "heat_score": 70.83, "heat_grade": "q4", "length": 50.652997766388751 }, "geometry": { "type": "LineString", "coordinates": [ [ 208713.144010048243217, 525994.538871961180121 ], [ 208662.391708449897124, 525993.121106257312931 ] ] } },
{ "type": "Feature", "properties": { "route_id": "064", "heat_score": 54.12, "heat_grade": "q2", "length": 44.625740243061102 }, "geometry": { "type": "LineString", "coordinates": [ [ 208713.144010048243217, 525994.538871961180121 ], [ 208713.722092066134792, 525950.001571351662278 ] ] } },
{ "type": "Feature", "properties": { "route_id": "064", "heat_score": 78.54, "heat_grade": "q5", "length": 40.971140454201716 }, "geometry": { "type": "LineString", "coordinates": [ [ 208754.789625328441616, 525950.07770660193637 ], [ 208713.722092066134792, 525950.001571351662278 ] ] } },
{ "type": "Feature", "properties": { "route_id": "064", "heat_score": 76.09, "heat_grade": "q5", "length": 40.732422109860984 }, "geometry": { "type": "LineString", "coordinates": [ [ 208754.789625328441616, 525950.07770660193637 ], [ 208795.617878241813742, 525950.15379191597458 ] ] } },
{ "type": "Feature", "properties": { "route_id": "064", "heat_score": 77.36, "heat_grade": "q5", "length": 80.925517475749871 }, "geometry": { "type": "LineString", "coordinates": [ [ 208795.617878241813742, 525950.15379191597458 ], [ 208876.733787598379422, 525950.30598667007871 ] ] } },
{ "type": "Feature", "properties": { "route_id": "064", "heat_score": 79.41, "heat_grade": "q5", "length": 104.88048664021082 }, "geometry": { "type": "LineString", "coordinates": [ [ 208938.283600714319618, 525907.331848727189936 ], [ 208938.592096950334962, 525950.416189572308213 ], [ 208876.733787598379422, 525950.30598667007871 ] ] } },
{ "type": "Feature", "properties": { "route_id": "064", "heat_score": 80.11, "heat_grade": "q5", "length": 61.191845027181017 }, "geometry": { "type": "LineString", "coordinates": [ [ 208876.947906078508822, 525907.166711057769135 ], [ 208938.283600714319618, 525907.331848727189936 ] ] } },
{ "type": "Feature", "properties": { "route_id": "064", "heat_score": 78.76, "heat_grade": "q5", "length": 40.246393812373313 }, "geometry": { "type": "LineString", "coordinates": [ [ 208836.606903380161384, 525907.05744876305107 ], [ 208876.947906078508822, 525907.166711057769135 ] ] } },
{ "type": "Feature", "properties": { "route_id": "064", "heat_score": 79.47, "heat_grade": "q5", "length": 40.67076702293128 }, "geometry": { "type": "LineString", "coordinates": [ [ 208836.606903380161384, 525907.05744876305107 ], [ 208795.840499358077068, 525906.959032342070714 ] ] } },
{ "type": "Feature", "properties": { "route_id": "064", "heat_score": 65.18, "heat_grade": "q4", "length": 48.792756006925131 }, "geometry": { "type": "LineString", "coordinates": [ [ 208796.077767084556399, 525858.259482541470788 ], [ 208795.840499358077068, 525906.959032342070714 ] ] } },
{ "type": "Feature", "properties": { "route_id": "064", "heat_score": 59.65, "heat_grade": "q3", "length": 47.2026782144519 }, "geometry": { "type": "LineString", "coordinates": [ [ 208796.077767084556399, 525858.259482541470788 ], [ 208796.31336920009926, 525811.147006283747032 ] ] } },
{ "type": "Feature", "properties": { "route_id": "064", "heat_score": 70.25, "heat_grade": "q4", "length": 40.309894046498144 }, "geometry": { "type": "LineString", "coordinates": [ [ 208836.716612910240656, 525811.500303668901324 ], [ 208796.31336920009926, 525811.147006283747032 ] ] } },
{ "type": "Feature", "properties": { "route_id": "064", "heat_score": 70.99, "heat_grade": "q5", "length": 40.610496818799277 }, "geometry": { "type": "LineString", "coordinates": [ [ 208877.421174530609278, 525811.854115476366132 ], [ 208836.716612910240656, 525811.500303668901324 ] ] } },
{ "type": "Feature", "properties": { "route_id": "064", "heat_score": 70.59, "heat_grade": "q4", "length": 42.988282139954656 }, "geometry": { "type": "LineString", "coordinates": [ [ 208877.421174530609278, 525811.854115476366132 ], [ 208877.617325321974931, 525768.947896391968243 ] ] } },
{ "type": "Feature", "properties": { "route_id": "064", "heat_score": 79.01, "heat_grade": "q5", "length": 104.32386817512072 }, "geometry": { "type": "LineString", "coordinates": [ [ 208877.617325321974931, 525768.947896391968243 ], [ 208982.165147852356313, 525771.068203787202947 ] ] } },
{ "type": "Feature", "properties": { "route_id": "064", "heat_score": 73.96, "heat_grade": "q5", "length": 32.35381310042515 }, "geometry": { "type": "LineString", "coordinates": [ [ 208982.165147852356313, 525771.068203787202947 ], [ 208983.289850096713053, 525738.795254193013534 ] ] } },
{ "type": "Feature", "properties": { "route_id": "064", "heat_score": 60.61, "heat_grade": "q3", "length": 55.174015178427503 }, "geometry": { "type": "LineString", "coordinates": [ [ 208928.016625406919047, 525736.960393454297446 ], [ 208983.289850096713053, 525738.795254193013534 ] ] } },
{ "type": "Feature", "properties": { "route_id": "064", "heat_score": 45.8, "heat_grade": "q1", "length": 131.01888672327615 }, "geometry": { "type": "LineString", "coordinates": [ [ 208928.016625406919047, 525736.960393454297446 ], [ 208796.693764325522352, 525735.878038942813873 ] ] } }
]
}
