{
"type": "FeatureCollection",
"name": "065_edges",
"crs": { "type": "name", "properties": { "name": "urn:ogc:def:crs:EPSG::5186" } },
"features": [
{ "type": "Feature", "properties": { "route_id": "065", "heat_score": 43.28, "heat_grade": "q1", "length": 141.36642154446307 }, "geometry": { "type": "LineString", "coordinates": [ [ 207347.988661646144465, 523243.018127369112335 ], [ 207359.79417948651826, 523236.103113642835524 ], [ 207399.193983671721071, 523212.309640893305186 ], [ 207421.652506235404871, 523198.745114364894107 ], [ 207450.206433740677312, 523179.592494283802807 ], [ 207463.554279576463159, 523163.156610624922905 ] ] } },
{ "type": "Feature", "properties": { "route_id": "065", "heat_score": 72.33, "heat_grade": "q5", "length": 85.250475158806722 }, "geometry": { "type": "LineString", "coordinates": [ [ 207541.636850906797918, 523155.479862710344605 ], [ 207527.750122540892335, 523149.884905534738209 ], [ 207512.897417597647291, 523143.900663062406238 ], [ 207505.549194008606719, 523142.750948399072513 ], [ 207498.641735789336963, 523144.387321301910561 ], [ 207490.80218502090429, 523147.421259261725936 ], [ 207463.554279576463159, 523163.156610624922905 ] ] } },
{ "type": "Feature", "properties": { "route_id": "065", "heat_score": 59.07, "heat_grade": "q3", "length": 263.04740863849952 }, "geometry": { "type": "LineString", "coordinates": [ [ 207541.636850906797918, 523155.479862710344605 ], [ 207546.802632279519457, 523099.326844527560752 ], [ 207547.523435950861312, 523086.464502665912732 ], [ 207549.912732705415692, 523002.696293415792752 ], [ 207552.439406325225718, 522914.100437028158922 ], [ 207552.458188068703748, 522893.257753249024972 ] ] } },
{ "type": "Feature", "properties": { "route_id": "065", "heat_score": 50.82, "heat_grade": "q2", "length": 40.083210260998122 }, "geometry": { "type": "LineString", "coordinates": [ [ 207571.523373707197607, 522858.914465541951358 ], [ 207565.400520351075102, 522865.179503699764609 ], [ 207558.174052492744522, 522876.215841215569526 ], [ 207554.363509500573855, 522884.25870899198344 ], [ 207552.458188068703748, 522893.257753249024972 ] ] } },
{ "type": "Feature", "properties": { "route_id": "065", "heat_score": 54.67, "heat_grade": "q2", "length": 117.01676776548605 }, "geometry": { "type": "LineString", "coordinates": [ [ 207632.209721306513529, 522759.395126882765908 ], [ 207614.181299458054127, 522784.017061492195353 ], [ 207598.228930802230025, 522807.087148589780554 ], [ 207584.776618201198289, 522830.281610545993317 ], [ 207571.523373707197607, 522858.914465541951358 ] ] } },
{ "type": "Feature", "properties": { "route_id": "065", "heat_score": 48.78, "heat_grade": "q2", "length": 377.00289897320175 }, "geometry": { "type": "LineString", "coordinates": [ [ 207632.209721306513529, 522759.395126882765908 ], [ 207631.629031229531392, 522735.044824177981354 ], [ 207625.03490890096873, 522703.708189708355349 ], [ 207596.504499205067987, 522665.337497748376336 ], [ 207557.206033071270213, 522622.429065585019998 ], [ 207517.075260402110871, 522587.755046367063187 ], [ 207490.126688519521849, 522573.991172150068451 ], [ 207448.492375963018276, 522554.587462078139652 ], [ 207370.948186727182474, 522518.438201158307493 ] ] } },
{ "type": "Feature", "properties": { "route_id": "065", "heat_score": 40.02, "heat_grade": "q1", "length": 66.198995119199509 }, "geometry": { "type": "LineString", "coordinates": [ [ 207370.948186727182474, 522518.438201158307493 ], [ 207355.501230481109815, 522511.321692883269861 ], [ 207310.098130403377581, 522492.104039101977833 ] ] } },
{ "type": "Feature", "properties": { "route_id": "065", "heat_score": 47.09, "heat_grade": "q1", "length": 58.191396489777176 }, "geometry": { "type": "LineString", "coordinates": [ [ 207310.098130403377581, 522492.104039101977833 ], [ 207304.630568037653575, 522489.013933653011918 ], [ 207298.684436775074573, 522485.701448244508356 ], [ 207293.934791070350911, 522482.856138476170599 ], [ 207288.707001287577441, 522479.300121776701417 ], [ 207277.778411731385859, 522465.550879377697129 ], [ 207268.03657922099228, 522453.234366508200765 ] ] } },
{ "type": "Feature", "properties": { "route_id": "065", "heat_score": 60.23, "heat_grade": "q3", "length": 25.824618581332295 }, "geometry": { "type": "LineString", "coordinates": [ [ 207243.055952865455765, 522459.361225071828812 ], [ 207260.187370163504966, 522456.53487012948608 ], [ 207268.03657922099228, 522453.234366508200765 ] ] } },
{ "type": "Feature", "properties": { "route_id": "065", "heat_score": 59.18, "heat_grade": "q3", "length": 99.840229186776426 }, "geometry": { "type": "LineString", "coordinates": [ [ 207314.32162243212224, 522528.932023039087653 ], [ 207304.127458871080307, 522516.959120654209983 ], [ 207290.345976329612313, 522501.087592113413848 ], [ 207275.851278306421591, 522489.699197703390382 ], [ 207265.636500089778565, 522480.933745913382154 ], [ 207243.055952865455765, 522459.361225071828812 ] ] } },
{ "type": "Feature", "properties": { "route_id": "065", "heat_score": 41.12, "heat_grade": "q1", "length": 382.4232269908095 }, "geometry": { "type": "LineString", "coordinates": [ [ 207314.32162243212224, 522528.932023039087653 ], [ 207314.955740571487695, 522533.771453777211718 ], [ 207318.73024128790712, 522566.925498939701356 ], [ 207320.907464983960381, 522581.388541636057198 ], [ 207340.626494620868471, 522610.050612771825399 ], [ 207351.697662521793973, 522723.718467224796768 ], [ 207352.961786958767334, 522778.423325797310099 ], [ 207348.029049356875475, 522843.055775417597033 ], [ 207348.004140372009715, 522871.467525078798644 ], [ 207336.373167118814308, 522901.223107286146842 ] ] } },
{ "type": "Feature", "properties": { "route_id": "065", "heat_score": 46.12, "heat_grade": "q1", "length": 200.58106745106704 }, "geometry": { "type": "LineString", "coordinates": [ [ 207179.774873922287952, 522775.665069967100862 ], [ 207336.373167118814308, 522901.223107286146842 ] ] } },
{ "type": "Feature", "properties": { "route_id": "065", "heat_score": 38.41, "heat_grade": "q1", "length": 275.91205506100852 }, "geometry": { "type": "LineString", "coordinates": [ [ 207179.774873922287952, 522775.665069967100862 ], [ 207158.387920857552672, 522758.588618810637854 ], [ 207102.837007174268365, 522715.568565433670301 ], [ 207089.139679332001833, 522704.958049781853333 ], [ 206961.618004270247184, 522606.408855871821288 ] ] } },
{ "type": "Feature", "properties": { "route_id": "065", "heat_score": 40.15, "heat_grade": "q1", "length": 293.21895369983247 }, "geometry": { "type": "LineString", "coordinates": [ [ 206693.089820045832312, 522608.620669634139631 ], [ 206719.898186417471152, 522599.696855509188026 ], [ 206733.71520239172969, 522594.547215040191077 ], [ 206760.374675436731195, 522583.470332441560458 ], [ 206831.988859089149628, 522555.371904149651527 ], [ 206841.246439074137015, 522553.337359945988283 ], [ 206849.62534589075949, 522552.478532096371055 ], [ 206858.473761578003177, 522552.086227117746603 ], [ 206864.289412857906427, 522552.490527937537991 ], [ 206871.043839775229571, 522554.11641985992901 ], [ 206877.797872500726953, 522556.21954560483573 ], [ 206886.79420515007223, 522559.234582814620808 ], [ 206895.311394148360705, 522562.715365899377503 ], [ 206904.227308818895835, 522566.473944637342356 ], [ 206916.048057549400255, 522574.041660503018647 ], [ 206929.773369921313133, 522583.497685725102201 ], [ 206957.205580724606989, 522603.120082863606513 ], [ 206961.618004270247184, 522606.408855871821288 ] ] } },
{ "type": "Feature", "properties": { "route_id": "065", "heat_score": 45.45, "heat_grade": "q1", "length": 511.8373704664516 }, "geometry": { "type": "LineString", "coordinates": [ [ 207038.42562388360966, 522961.24272947490681 ], [ 206845.334507346124155, 522812.742286173859611 ], [ 206796.506726856896421, 522775.412108621210791 ], [ 206791.758613663871074, 522770.669266397482716 ], [ 206788.437855815980583, 522765.927582840435207 ], [ 206784.630249851295957, 522760.242147220182233 ], [ 206782.73683734392398, 522755.512719872000162 ], [ 206781.315221630240558, 522748.408628927543759 ], [ 206778.946517015778227, 522739.405955346534029 ], [ 206777.523746610502712, 522733.72245238290634 ], [ 206774.673992825177265, 522727.560567396052647 ], [ 206769.917736430215882, 522721.874372139282059 ], [ 206761.838001945608994, 522714.764909768127836 ], [ 206747.103192460752325, 522703.865560205071233 ], [ 206721.91407044895459, 522683.957089683273807 ], [ 206709.56403513380792, 522673.048621355730575 ], [ 206704.33820329446462, 522666.884859320474789 ], [ 206699.584508230211213, 522657.891400533670094 ], [ 206696.738076206704136, 522647.467781974002719 ], [ 206694.847247841797071, 522639.408874738845043 ], [ 206693.898062920430675, 522628.997871397587005 ], [ 206693.089820045832312, 522608.620669634139631 ] ] } },
{ "type": "Feature", "properties": { "route_id": "065", "heat_score": 38.99, "heat_grade": "q1", "length": 418.91487096426835 }, "geometry": { "type": "LineString", "coordinates": [ [ 207347.988661646144465, 523243.018127369112335 ], [ 207344.817595193075249, 523240.007693375810049 ], [ 207329.25450558681041, 523225.266551208624151 ], [ 207305.018556592782261, 523203.459320757188834 ], [ 207286.956138980895048, 523187.817113406141289 ], [ 207270.799664533900796, 523172.176598880090751 ], [ 207256.079836984019494, 523155.904753661714494 ], [ 207253.227976097521605, 523152.75035267835483 ], [ 207235.648164998972788, 523132.369678753602784 ], [ 207222.813498183095362, 523119.573305361089297 ], [ 207209.986845805949997, 523107.720318783714902 ], [ 207195.733662484009983, 523094.922767277574167 ], [ 207166.739575152925681, 523069.327320954645984 ], [ 207038.42562388360966, 522961.24272947490681 ] ] } }
]
}
