{
"type": "FeatureCollection",
"name": "067_edges",
"crs": { "type": "name", "properties": { "name": "urn:ogc:def:crs:EPSG::5186" } },
"features": [
{ "type": "Feature", "properties": { "route_id": "067", "heat_score": 44.72, "heat_grade": "q1", "length": 313.59567526887429 }, "geometry": { "type": "LineString", "coordinates": [ [ 206988.20594692992745, 523223.698905894474592 ], [ 206961.514074691775022, 523201.158132105018012 ], [ 206940.208315936528379, 523183.161129336513113 ], [ 206932.358095721312566, 523177.949504593678284 ], [ 206926.277890030061826, 523176.379609525902197 ], [ 206916.995663851354038, 523176.860270584060345 ], [ 206909.619054590555606, 523177.819742022256833 ], [ 206899.104135416069767, 523178.832127545727417 ], [ 206888.11090170967509, 523179.355805603088811 ], [ 206878.926707989623537, 523179.215081664326135 ], [ 206875.46948777223588, 523178.979179184418172 ], [ 206863.076697081152815, 523178.114447944099084 ], [ 206853.74269251851365, 523176.87489206076134 ], [ 206844.152909794502193, 523174.025876637140755 ], [ 206833.765346136089647, 523171.065238110022619 ], [ 206825.762514713453129, 523168.095456129172817 ], [ 206818.115042985678883, 523164.193709363637026 ], [ 206815.421149489178788, 523162.815322496346198 ], [ 206806.047049345681444, 523156.337365205050446 ], [ 206793.909506142372265, 523146.760737708536908 ], [ 206781.656121780368267, 523137.883230378851295 ], [ 206778.909116741095204, 523125.428657907410525 ], [ 206778.105021245020907, 523122.165092323732097 ], [ 206771.79608795439708, 523096.378523293475155 ], [ 206768.323510521440767, 523082.180927896406502 ], [ 206767.911575532867573, 523076.320666295767296 ], [ 206767.498878186568618, 523071.403763910813723 ], [ 206768.098874353279825, 523063.946157199912705 ], [ 206769.103752485156292, 523060.106939691584557 ] ] } },
{ "type": "Feature", "properties": { "route_id": "067", "heat_score": 73.15, "heat_grade": "q5", "length": 142.20746967031641 }, "geometry": { "type": "LineString", "coordinates": [ [ 206769.103752485156292, 523060.106939691584557 ], [ 206761.017530720564537, 523061.44331272499403 ], [ 206749.003357734472957, 523063.564512309618294 ], [ 206736.874798714386998, 523064.620195568189956 ], [ 206726.892584185989108, 523064.501193796866573 ], [ 206717.735801099159289, 523063.18424373382004 ], [ 206706.204629476851551, 523059.978683921217453 ], [ 206700.266974745347397, 523057.365822590771131 ], [ 206700.027718491415726, 523057.232451117422897 ], [ 206694.320823363319505, 523054.286828013544437 ], [ 206689.093704136670567, 523050.020888141472824 ], [ 206685.053865618538111, 523046.588274743582588 ], [ 206681.013652203371748, 523043.621793692524079 ], [ 206676.264680203428725, 523040.06653745949734 ], [ 206669.963807112799259, 523037.098261215374805 ], [ 206664.610758800467011, 523035.085201437119395 ], [ 206652.486591881694039, 523030.569639068446122 ], [ 206636.320133969449671, 523025.662450250121765 ] ] } },
{ "type": "Feature", "properties": { "route_id": "067", "heat_score": 69.29, "heat_grade": "q4", "length": 79.191336327814383 }, "geometry": { "type": "LineString", "coordinates": [ [ 206636.320133969449671, 523025.662450250121765 ], [ 206637.143425146583468, 523015.963145288755186 ], [ 206641.47133213779307, 522946.790569369448349 ] ] } },
{ "type": "Feature", "properties": { "route_id": "067", "heat_score": 69.26, "heat_grade": "q4", "length": 226.4491117835687 }, "geometry": { "type": "LineString", "coordinates": [ [ 206602.902261125767836, 522727.490079151990358 ], [ 206609.777328609518008, 522744.653537794190925 ], [ 206620.698467228387017, 522768.756662962958217 ], [ 206628.768534754781285, 522788.174046463915147 ], [ 206635.408953099919017, 522810.442581187176984 ], [ 206638.471031156688696, 522828.457620628527366 ], [ 206639.19464615630568, 522832.69776184076909 ], [ 206641.323147564457031, 522854.097059040504973 ], [ 206643.180395504605258, 522882.155150392383803 ], [ 206642.351129223243333, 522910.555162559146993 ], [ 206641.47133213779307, 522946.790569369448349 ] ] } },
{ "type": "Feature", "properties": { "route_id": "067", "heat_score": 77.34, "heat_grade": "q5", "length": 73.491944445220497 }, "geometry": { "type": "LineString", "coordinates": [ [ 206644.214013427641476, 522707.812066974758636 ], [ 206630.954864376806654, 522702.907197405234911 ], [ 206623.794699291116558, 522698.739657133526634 ], [ 206615.339245848212158, 522695.703131624264643 ], [ 206609.425967430841411, 522695.543089822866023 ], [ 206604.894368834677152, 522697.115482405293733 ], [ 206601.556813371484168, 522702.273582697787788 ], [ 206601.790696567273699, 522709.243526591220871 ], [ 206602.902261125767836, 522727.490079151990358 ] ] } },
{ "type": "Feature", "properties": { "route_id": "067", "heat_score": 70.84, "heat_grade": "q4", "length": 68.445001963934118 }, "geometry": { "type": "LineString", "coordinates": [ [ 206644.214013427641476, 522707.812066974758636 ], [ 206622.949681438534753, 522691.036739126313478 ], [ 206596.085597362485714, 522669.873211804078892 ], [ 206590.06891373268445, 522665.895272418158129 ] ] } },
{ "type": "Feature", "properties": { "route_id": "067", "heat_score": 62.7, "heat_grade": "q3", "length": 28.401638933048915 }, "geometry": { "type": "LineString", "coordinates": [ [ 206587.546735620184336, 522693.949900789477397 ], [ 206587.015157479181653, 522682.207436019089073 ], [ 206587.941078987176297, 522677.258302765665576 ], [ 206590.06891373268445, 522665.895272418158129 ] ] } },
{ "type": "Feature", "properties": { "route_id": "067", "heat_score": 71.27, "heat_grade": "q5", "length": 54.636919057859565 }, "geometry": { "type": "LineString", "coordinates": [ [ 206587.546735620184336, 522693.949900789477397 ], [ 206580.605111969140125, 522682.402171168883797 ], [ 206573.604481830639997, 522666.936686276516411 ], [ 206560.747471067530569, 522646.505662604584359 ] ] } },
{ "type": "Feature", "properties": { "route_id": "067", "heat_score": 53.64, "heat_grade": "q2", "length": 197.772761858226 }, "geometry": { "type": "LineString", "coordinates": [ [ 206560.747471067530569, 522646.505662604584359 ], [ 206553.71171622959082, 522641.861051401006989 ], [ 206515.032501562731341, 522616.515579942089971 ], [ 206409.035846512473654, 522543.884008752647787 ], [ 206396.700854744616663, 522535.695109826163389 ] ] } },
{ "type": "Feature", "properties": { "route_id": "067", "heat_score": 58.13, "heat_grade": "q2", "length": 31.796712210196659 }, "geometry": { "type": "LineString", "coordinates": [ [ 206415.445159245922696, 522510.027876777225174 ], [ 206396.700854744616663, 522535.695109826163389 ] ] } },
{ "type": "Feature", "properties": { "route_id": "067", "heat_score": 38.26, "heat_grade": "q1", "length": 197.10807189886197 }, "geometry": { "type": "LineString", "coordinates": [ [ 206415.445159245922696, 522510.027876777225174 ], [ 206468.017268628376769, 522547.736044413293712 ], [ 206542.79020669858437, 522606.415513455111068 ], [ 206572.792030534386868, 522628.946423171495553 ] ] } },
{ "type": "Feature", "properties": { "route_id": "067", "heat_score": 58.03, "heat_grade": "q2", "length": 45.056049549349225 }, "geometry": { "type": "LineString", "coordinates": [ [ 206572.792030534386868, 522628.946423171495553 ], [ 206590.077673906082055, 522632.200711636862252 ], [ 206616.477233047393383, 522624.286194543819875 ] ] } },
{ "type": "Feature", "properties": { "route_id": "067", "heat_score": 71.53, "heat_grade": "q5", "length": 78.607492483856589 }, "geometry": { "type": "LineString", "coordinates": [ [ 206616.477233047393383, 522624.286194543819875 ], [ 206623.910164674685802, 522619.941515089594759 ], [ 206648.833870792412199, 522617.33094122208422 ], [ 206693.089820045832312, 522608.620669634139631 ] ] } },
{ "type": "Feature", "properties": { "route_id": "067", "heat_score": 45.45, "heat_grade": "q1", "length": 511.8373704664516 }, "geometry": { "type": "LineString", "coordinates": [ [ 207038.42562388360966, 522961.24272947490681 ], [ 206845.334507346124155, 522812.742286173859611 ], [ 206796.506726856896421, 522775.412108621210791 ], [ 206791.758613663871074, 522770.669266397482716 ], [ 206788.437855815980583, 522765.927582840435207 ], [ 206784.630249851295957, 522760.242147220182233 ], [ 206782.73683734392398, 522755.512719872000162 ], [ 206781.315221630240558, 522748.408628927543759 ], [ 206778.946517015778227, 522739.405955346534029 ], [ 206777.523746610502712, 522733.72245238290634 ], [ 206774.673992825177265, 522727.560567396052647 ], [ 206769.917736430215882, 522721.874372139282059 ], [ 206761.838001945608994, 522714.764909768127836 ], [ 206747.103192460752325, 522703.865560205071233 ], [ 206721.91407044895459, 522683.957089683273807 ], [ 206709.56403513380792, 522673.048621355730575 ], [ 206704.33820329446462, 522666.884859320474789 ], [ 206699.584508230211213, 522657.891400533670094 ], [ 206696.738076206704136, 522647.467781974002719 ], [ 206694.847247841797071, 522639.408874738845043 ], [ 206693.898062920430675, 522628.997871397587005 ], [ 206693.089820045832312, 522608.620669634139631 ] ] } },
{ "type": "Feature", "properties": { "route_id": "067", "heat_score": 42.18, "heat_grade": "q1", "length": 233.35993332336776 }, "geometry": { "type": "LineString", "coordinates": [ [ 207038.42562388360966, 522961.24272947490681 ], [ 207079.109710181044647, 522907.827347469399683 ], [ 207106.703113429539371, 522871.60349478921853 ], [ 207179.774873922287952, 522775.665069967100862 ] ] } },
{ "type": "Feature", "properties": { "route_id": "067", "heat_score": 46.12, "heat_grade": "q1", "length": 200.58106745106704 }, "geometry": { "type": "LineString", "coordinates": [ [ 207179.774873922287952, 522775.665069967100862 ], [ 207336.373167118814308, 522901.223107286146842 ] ] } },
{ "type": "Feature", "properties": { "route_id": "067", "heat_score": 60.8, "heat_grade": "q3", "length": 184.91169404037097 }, "geometry": { "type": "LineString", "coordinates": [ [ 207450.763126264209859, 523042.028905455255881 ], [ 207442.462378139985958, 523015.252306294045411 ], [ 207429.469567886117147, 522990.99088150676107 ], [ 207340.403545858192956, 522905.111058345239144 ], [ 207336.373167118814308, 522901.223107286146842 ] ] } },
{ "type": "Feature", "properties": { "route_id": "067", "heat_score": 51.88, "heat_grade": "q2", "length": 122.05488345319775 }, "geometry": { "type": "LineString", "coordinates": [ [ 207450.763126264209859, 523042.028905455255881 ], [ 207452.23470396065386, 523062.040542282862589 ], [ 207455.288860940403538, 523096.847691579721868 ], [ 207463.043736484250985, 523159.071961774141528 ], [ 207463.554279576463159, 523163.156610624922905 ] ] } },
{ "type": "Feature", "properties": { "route_id": "067", "heat_score": 43.28, "heat_grade": "q1", "length": 141.36642154446307 }, "geometry": { "type": "LineString", "coordinates": [ [ 207347.988661646144465, 523243.018127369112335 ], [ 207359.79417948651826, 523236.103113642835524 ], [ 207399.193983671721071, 523212.309640893305186 ], [ 207421.652506235404871, 523198.745114364894107 ], [ 207450.206433740677312, 523179.592494283802807 ], [ 207463.554279576463159, 523163.156610624922905 ] ] } },
{ "type": "Feature", "properties": { "route_id": "067", "heat_score": 39.62, "heat_grade": "q1", "length": 265.95487631177792 }, "geometry": { "type": "LineString", "coordinates": [ [ 207347.988661646144465, 523243.018127369112335 ], [ 207336.792871904501226, 523252.197755934204906 ], [ 207329.272351839637849, 523255.542878366308287 ], [ 207314.989123284030939, 523257.350528754701372 ], [ 207266.004240446171025, 523263.467500558588654 ], [ 207262.369100502430229, 523263.997070555749815 ], [ 207258.636137661524117, 523264.881704751867801 ], [ 207253.404105214169249, 523266.774993263126817 ], [ 207242.220548352896003, 523272.214613151096273 ], [ 207228.899101567571051, 523279.306058409682009 ], [ 207221.28982645936776, 523282.850971556443255 ], [ 207215.579110762133496, 523284.732772860908881 ], [ 207208.441927400737768, 523285.681089087913278 ], [ 207201.545131911349017, 523285.430995620205067 ], [ 207194.888702299882425, 523284.004688565502875 ], [ 207189.420586847496452, 523282.113275281968527 ], [ 207181.578271125792526, 523278.310913575696759 ], [ 207173.080228559265379, 523274.163948950357735 ], [ 207171.361119707435137, 523273.330101034720428 ], [ 207166.840547378000338, 523272.615939058887307 ], [ 207163.27597774201422, 523273.567349853867199 ], [ 207160.658765657048207, 523275.929062658571638 ], [ 207156.851609578967327, 523280.664807890716475 ], [ 207153.515925244399114, 523283.503138637403026 ], [ 207149.471645586483646, 523285.630571444518864 ], [ 207144.239660363004077, 523287.512829769519158 ], [ 207139.956028893328039, 523289.640063121682033 ], [ 207135.910338064510142, 523293.432254519779235 ], [ 207132.102807208604645, 523298.634141661750618 ], [ 207128.773784774413798, 523304.080601421708707 ], [ 207126.62402196630137, 523309.283901511109434 ], [ 207124.961431881936733, 523314.964845659851562 ], [ 207122.573318872600794, 523318.991518544848077 ], [ 207118.33188459239318, 523323.649223902961239 ] ] } },
{ "type": "Feature", "properties": { "route_id": "067", "heat_score": 40.42, "heat_grade": "q1", "length": 166.48623932308564 }, "geometry": { "type": "LineString", "coordinates": [ [ 207118.33188459239318, 523323.649223902961239 ], [ 207115.571270854445174, 523317.442898732260801 ], [ 207108.921282565104775, 523308.436488732579164 ], [ 207097.521625661698636, 523297.062110488652252 ], [ 207087.536740625073435, 523289.950712670106441 ], [ 207078.028151540609542, 523285.680907925125211 ], [ 207071.372094666177873, 523283.788568448566366 ], [ 207068.899551615060773, 523282.832023927709088 ], [ 207065.195159152644919, 523281.408310599275865 ], [ 207056.193193450744729, 523275.551893191121053 ], [ 207043.328156221803511, 523267.184009767894167 ], [ 207014.340689289412694, 523244.430267793883104 ], [ 207003.408292933250777, 523235.897588806110434 ], [ 206988.20594692992745, 523223.698905894474592 ] ] } }
]
}
