{
"type": "FeatureCollection",
"name": "068_edges",
"crs": { "type": "name", "properties": { "name": "urn:ogc:def:crs:EPSG::5186" } },
"features": [
{ "type": "Feature", "properties": { "route_id": "068", "heat_score": 47.09, "heat_grade": "q1", "length": 58.191396489777176 }, "geometry": { "type": "LineString", "coordinates": [ [ 207310.098130403377581, 522492.104039101977833 ], [ 207304.630568037653575, 522489.013933653011918 ], [ 207298.684436775074573, 522485.701448244508356 ], [ 207293.934791070350911, 522482.856138476170599 ], [ 207288.707001287577441, 522479.300121776701417 ], [ 207277.778411731385859, 522465.550879377697129 ], [ 207268.03657922099228, 522453.234366508200765 ] ] } },
{ "type": "Feature", "properties": { "route_id": "068", "heat_score": 64.82, "heat_grade": "q3", "length": 130.1828557911723 }, "geometry": { "type": "LineString", "coordinates": [ [ 207318.863008673797594, 522364.092325371224433 ], [ 207322.521853921556612, 522367.32513758278219 ], [ 207336.014240135031287, 522379.4008300715941 ], [ 207338.861213455413235, 522388.404075969941914 ], [ 207328.853508461092133, 522406.385730089561548 ], [ 207304.586486675747437, 522427.684460955380928 ], [ 207287.266754376643803, 522443.073883425095119 ], [ 207268.03657922099228, 522453.234366508200765 ] ] } },
{ "type": "Feature", "properties": { "route_id": "068", "heat_score": 68.97, "heat_grade": "q4", "length": 51.324837504593418 }, "geometry": { "type": "LineString", "coordinates": [ [ 207281.558766698231921, 522328.867004036146682 ], [ 207297.813499103329377, 522345.517549802840222 ], [ 207301.436925430345582, 522348.717026828671806 ], [ 207318.863008673797594, 522364.092325371224433 ] ] } },
{ "type": "Feature", "properties": { "route_id": "068", "heat_score": 66.33, "heat_grade": "q4", "length": 38.246264175284225 }, "geometry": { "type": "LineString", "coordinates": [ [ 207281.558766698231921, 522328.867004036146682 ], [ 207262.646502889430849, 522309.495094538491685 ], [ 207256.173277345049428, 522300.388851156109013 ] ] } },
{ "type": "Feature", "properties": { "route_id": "068", "heat_score": 68.05, "heat_grade": "q4", "length": 31.381983219980814 }, "geometry": { "type": "LineString", "coordinates": [ [ 207256.173277345049428, 522300.388851156109013 ], [ 207233.965121365967207, 522278.206275703734718 ] ] } },
{ "type": "Feature", "properties": { "route_id": "068", "heat_score": 67.34, "heat_grade": "q4", "length": 51.991161271288505 }, "geometry": { "type": "LineString", "coordinates": [ [ 207215.653998428460909, 522229.712955568218604 ], [ 207217.359320033778204, 522236.506605989998206 ], [ 207224.94810640331707, 522257.833049377659336 ], [ 207233.965121365967207, 522278.206275703734718 ] ] } },
{ "type": "Feature", "properties": { "route_id": "068", "heat_score": 73.45, "heat_grade": "q5", "length": 51.464881187552983 }, "geometry": { "type": "LineString", "coordinates": [ [ 207215.653998428460909, 522229.712955568218604 ], [ 207210.246501964342315, 522208.088742362218909 ], [ 207202.18454987910809, 522180.1362007605494 ] ] } },
{ "type": "Feature", "properties": { "route_id": "068", "heat_score": 71.06, "heat_grade": "q5", "length": 19.527263296904572 }, "geometry": { "type": "LineString", "coordinates": [ [ 207197.040553322935011, 522161.331201580120251 ], [ 207202.18454987910809, 522180.1362007605494 ] ] } },
{ "type": "Feature", "properties": { "route_id": "068", "heat_score": 53.38, "heat_grade": "q2", "length": 84.009934825780832 }, "geometry": { "type": "LineString", "coordinates": [ [ 207197.040553322935011, 522161.331201580120251 ], [ 207128.88054565951461, 522177.887171739828773 ], [ 207115.232611739280401, 522181.205077727558091 ] ] } },
{ "type": "Feature", "properties": { "route_id": "068", "heat_score": 42.93, "heat_grade": "q1", "length": 75.596993007572166 }, "geometry": { "type": "LineString", "coordinates": [ [ 207096.373956939496566, 522108.128750727628358 ], [ 207102.260562523762928, 522129.786587238893844 ], [ 207106.069129793468164, 522144.883550692349672 ], [ 207113.05000213519088, 522172.546523445344064 ], [ 207115.232611739280401, 522181.205077727558091 ] ] } },
{ "type": "Feature", "properties": { "route_id": "068", "heat_score": 55.12, "heat_grade": "q2", "length": 31.918962799760493 }, "geometry": { "type": "LineString", "coordinates": [ [ 207126.961756946722744, 522098.787704036803916 ], [ 207096.373956939496566, 522108.128750727628358 ] ] } },
{ "type": "Feature", "properties": { "route_id": "068", "heat_score": 70.62, "heat_grade": "q4", "length": 172.7616238479138 }, "geometry": { "type": "LineString", "coordinates": [ [ 207126.961756946722744, 522098.787704036803916 ], [ 207111.821114714839496, 522032.528889972250909 ], [ 207110.877232761064079, 522026.84574258106295 ], [ 207112.31716654295451, 522012.174967397470027 ], [ 207112.455971808143659, 522005.327413610648364 ], [ 207112.461461054394022, 521998.857090114150196 ], [ 207111.380890801461646, 521987.069743955216836 ], [ 207107.132576007395983, 521957.22272534982767 ], [ 207106.186635884776479, 521943.493286663491745 ], [ 207105.037732329627033, 521928.620548200502526 ] ] } },
{ "type": "Feature", "properties": { "route_id": "068", "heat_score": 59.69, "heat_grade": "q3", "length": 98.355194393229539 }, "geometry": { "type": "LineString", "coordinates": [ [ 207105.037732329627033, 521928.620548200502526 ], [ 207107.216488019359531, 521858.23677865031641 ], [ 207101.507629839063156, 521856.811354840698186 ], [ 207079.675984029629035, 521859.378802286810242 ] ] } },
{ "type": "Feature", "properties": { "route_id": "068", "heat_score": 61.87, "heat_grade": "q3", "length": 64.607541240474063 }, "geometry": { "type": "LineString", "coordinates": [ [ 207068.486695632018382, 521795.909110695472918 ], [ 207071.754071424831636, 521811.649297250143718 ], [ 207076.575462605425855, 521835.081939701514784 ], [ 207079.675984029629035, 521859.378802286810242 ] ] } },
{ "type": "Feature", "properties": { "route_id": "068", "heat_score": 58.34, "heat_grade": "q2", "length": 635.73958513877403 }, "geometry": { "type": "LineString", "coordinates": [ [ 206517.020434550126083, 522055.129948140005581 ], [ 206603.793392169551225, 522035.187558194622397 ], [ 206625.218367993278662, 522030.354491060657892 ], [ 206644.11806065053679, 522023.488482198910788 ], [ 206657.217880636977497, 522018.238264867046382 ], [ 206669.609041515679564, 522012.188424310297705 ], [ 206682.214393824862782, 522004.407433042069897 ], [ 206694.102228543022648, 521995.8268079420086 ], [ 206704.163206120632822, 521987.744163601193577 ], [ 206711.47440271571395, 521981.168702714901883 ], [ 206764.835693231638288, 521922.368238593568094 ], [ 206805.596160265384242, 521877.197727173741441 ], [ 206821.960534970508888, 521859.409305576584302 ], [ 206836.193372958252439, 521846.069608108547982 ], [ 206852.04718080474413, 521834.762253855646122 ], [ 206865.859316019981634, 521826.383216417278163 ], [ 206875.305390699155396, 521822.539836971031036 ], [ 206886.073080050497083, 521818.109342086128891 ], [ 206899.278612279391382, 521814.269078214711044 ], [ 206911.675785953033483, 521812.259393025073223 ], [ 206924.365233618358616, 521810.649507391906809 ], [ 206990.489069320290582, 521804.03428291954333 ], [ 207048.012333847087575, 521797.478935446648393 ], [ 207050.406554352142848, 521797.203490207844879 ], [ 207068.486695632018382, 521795.909110695472918 ] ] } },
{ "type": "Feature", "properties": { "route_id": "068", "heat_score": 53.56, "heat_grade": "q2", "length": 602.22791044255769 }, "geometry": { "type": "LineString", "coordinates": [ [ 206693.089820045832312, 522608.620669634139631 ], [ 206687.42680544196628, 522572.513243924709968 ], [ 206682.689088972489117, 522554.507955876120832 ], [ 206672.328719040815486, 522527.486340808216482 ], [ 206669.046297909750137, 522518.926908053690568 ], [ 206667.97574535626336, 522516.140372922527604 ], [ 206665.872272707114462, 522507.837141322670504 ], [ 206658.015146632387768, 522476.822134825983085 ], [ 206656.484694943239447, 522472.603550264844671 ], [ 206649.95597357978113, 522454.552468323148787 ], [ 206642.35403157726978, 522437.022163458401337 ], [ 206629.24732297268929, 522418.189005187421571 ], [ 206616.721925712103257, 522404.150809072540142 ], [ 206613.276098954316694, 522400.296966435853392 ], [ 206604.347584320785245, 522389.635522537748329 ], [ 206580.846503511624178, 522363.635831001913175 ], [ 206556.353121527994517, 522336.558891836553812 ], [ 206553.979892702162033, 522332.883486454258673 ], [ 206549.224649448064156, 522325.421687550493516 ], [ 206546.019668299384648, 522319.614754057547543 ], [ 206542.576035013567889, 522312.864276971318759 ], [ 206539.849994554999284, 522306.824654716649093 ], [ 206537.59385272761574, 522300.785399864253122 ], [ 206535.462473219289677, 522293.924966060614679 ], [ 206533.801002191874431, 522287.053800787776709 ], [ 206532.140263511217199, 522279.239277930813842 ], [ 206530.718362169049215, 522272.124136726488359 ], [ 206529.775401990598766, 522264.787402181886137 ], [ 206529.542474135349039, 522256.496763983450364 ], [ 206530.026778241212014, 522249.394206462369766 ], [ 206530.741603000584291, 522242.291828626242932 ], [ 206533.034690311440499, 522223.703903838992119 ], [ 206537.446336794528179, 522171.611760207510088 ], [ 206537.027144916442921, 522163.420862725644838 ], [ 206536.130931788153248, 522152.976631653727964 ], [ 206534.68815765279578, 522138.49218133057002 ], [ 206530.177729274582816, 522112.518566529441159 ], [ 206523.666897379560396, 522082.159556946950033 ], [ 206521.43970789926243, 522073.001699756947346 ], [ 206517.020434550126083, 522055.129948140005581 ] ] } },
{ "type": "Feature", "properties": { "route_id": "068", "heat_score": 40.15, "heat_grade": "q1", "length": 293.21895369983247 }, "geometry": { "type": "LineString", "coordinates": [ [ 206693.089820045832312, 522608.620669634139631 ], [ 206719.898186417471152, 522599.696855509188026 ], [ 206733.71520239172969, 522594.547215040191077 ], [ 206760.374675436731195, 522583.470332441560458 ], [ 206831.988859089149628, 522555.371904149651527 ], [ 206841.246439074137015, 522553.337359945988283 ], [ 206849.62534589075949, 522552.478532096371055 ], [ 206858.473761578003177, 522552.086227117746603 ], [ 206864.289412857906427, 522552.490527937537991 ], [ 206871.043839775229571, 522554.11641985992901 ], [ 206877.797872500726953, 522556.21954560483573 ], [ 206886.79420515007223, 522559.234582814620808 ], [ 206895.311394148360705, 522562.715365899377503 ], [ 206904.227308818895835, 522566.473944637342356 ], [ 206916.048057549400255, 522574.041660503018647 ], [ 206929.773369921313133, 522583.497685725102201 ], [ 206957.205580724606989, 522603.120082863606513 ], [ 206961.618004270247184, 522606.408855871821288 ] ] } },
{ "type": "Feature", "properties": { "route_id": "068", "heat_score": 38.41, "heat_grade": "q1", "length": 275.91205506100852 }, "geometry": { "type": "LineString", "coordinates": [ [ 207179.774873922287952, 522775.665069967100862 ], [ 207158.387920857552672, 522758.588618810637854 ], [ 207102.837007174268365, 522715.568565433670301 ], [ 207089.139679332001833, 522704.958049781853333 ], [ 206961.618004270247184, 522606.408855871821288 ] ] } },
{ "type": "Feature", "properties": { "route_id": "068", "heat_score": 46.12, "heat_grade": "q1", "length": 200.58106745106704 }, "geometry": { "type": "LineString", "coordinates": [ [ 207179.774873922287952, 522775.665069967100862 ], [ 207336.373167118814308, 522901.223107286146842 ] ] } },
{ "type": "Feature", "properties": { "route_id": "068", "heat_score": 41.12, "heat_grade": "q1", "length": 382.4232269908095 }, "geometry": { "type": "LineString", "coordinates": [ [ 207314.32162243212224, 522528.932023039087653 ], [ 207314.955740571487695, 522533.771453777211718 ], [ 207318.73024128790712, 522566.925498939701356 ], [ 207320.907464983960381, 522581.388541636057198 ], [ 207340.626494620868471, 522610.050612771825399 ], [ 207351.697662521793973, 522723.718467224796768 ], [ 207352.961786958767334, 522778.423325797310099 ], [ 207348.029049356875475, 522843.055775417597033 ], [ 207348.004140372009715, 522871.467525078798644 ], [ 207336.373167118814308, 522901.223107286146842 ] ] } },
{ "type": "Feature", "properties": { "route_id": "068", "heat_score": 42.68, "heat_grade": "q1", "length": 37.143191199614421 }, "geometry": { "type": "LineString", "coordinates": [ [ 207314.32162243212224, 522528.932023039087653 ], [ 207311.741181006480474, 522509.152525588811841 ], [ 207310.098130403377581, 522492.104039101977833 ] ] } }
]
}
