{
"type": "FeatureCollection",
"name": "069_edges",
"crs": { "type": "name", "properties": { "name": "urn:ogc:def:crs:EPSG::5186" } },
"features": [
{ "type": "Feature", "properties": { "route_id": "069", "heat_score": 49.29, "heat_grade": "q2", "length": 111.25555426799998 }, "geometry": { "type": "LineString", "coordinates": [ [ 208187.965791403112235, 526552.203290705103427 ], [ 208151.380467286711792, 526538.771801293478347 ], [ 208085.701192300533876, 526508.143076017731801 ] ] } },
{ "type": "Feature", "properties": { "route_id": "069", "heat_score": 69.86, "heat_grade": "q4", "length": 37.440149725053857 }, "geometry": { "type": "LineString", "coordinates": [ [ 208187.965791403112235, 526552.203290705103427 ], [ 208198.53889692798839, 526550.959518268355168 ], [ 208204.246686513652094, 526550.021745088044554 ], [ 208211.384449017583393, 526545.766952658304945 ], [ 208220.184220655821264, 526536.541708904551342 ] ] } },
{ "type": "Feature", "properties": { "route_id": "069", "heat_score": 65.43, "heat_grade": "q4", "length": 45.927914842175049 }, "geometry": { "type": "LineString", "coordinates": [ [ 208220.184220655821264, 526536.541708904551342 ], [ 208200.498857434547972, 526495.103124368586577 ] ] } },
{ "type": "Feature", "properties": { "route_id": "069", "heat_score": 72.47, "heat_grade": "q5", "length": 118.1949524445636 }, "geometry": { "type": "LineString", "coordinates": [ [ 208150.182942641928094, 526421.682385526713915 ], [ 208150.589931134949438, 526486.0646689402638 ], [ 208154.864577655360335, 526491.751219102414325 ], [ 208159.620062343979953, 526495.063179874559864 ], [ 208200.498857434547972, 526495.103124368586577 ] ] } },
{ "type": "Feature", "properties": { "route_id": "069", "heat_score": 82.0, "heat_grade": "q5", "length": 60.951067913663955 }, "geometry": { "type": "LineString", "coordinates": [ [ 208150.182942641928094, 526421.682385526713915 ], [ 208089.090637374669313, 526421.156998610473238 ] ] } },
{ "type": "Feature", "properties": { "route_id": "069", "heat_score": 42.51, "heat_grade": "q1", "length": 87.33013079968498 }, "geometry": { "type": "LineString", "coordinates": [ [ 208089.090637374669313, 526421.156998610473238 ], [ 208089.039419831708074, 526474.162962618982419 ], [ 208088.076584277790971, 526489.311364850844257 ], [ 208085.701192300533876, 526508.143076017731801 ] ] } }
]
}
