{
"type": "FeatureCollection",
"name": "070_edges",
"crs": { "type": "name", "properties": { "name": "urn:ogc:def:crs:EPSG::5186" } },
"features": [
{ "type": "Feature", "properties": { "route_id": "070", "heat_score": 42.92, "heat_grade": "q1", "length": 154.4588411921423 }, "geometry": { "type": "LineString", "coordinates": [ [ 207565.790623605105793, 523925.583574650750961 ], [ 207541.96175824420061, 523917.316004194901325 ], [ 207519.418849375273567, 523908.306065176497214 ], [ 207449.091675604402553, 523885.069855102337897 ], [ 207419.688737325166585, 523874.677891733765136 ] ] } },
{ "type": "Feature", "properties": { "route_id": "070", "heat_score": 58.59, "heat_grade": "q3", "length": 57.81027956279766 }, "geometry": { "type": "LineString", "coordinates": [ [ 207565.790623605105793, 523925.583574650750961 ], [ 207569.730484097643057, 523911.259141611226369 ], [ 207574.715423973568249, 523897.967803552688565 ], [ 207580.508999172976473, 523882.513018827186897 ], [ 207587.44118253342458, 523872.497468863439281 ] ] } },
{ "type": "Feature", "properties": { "route_id": "070", "heat_score": 61.56, "heat_grade": "q3", "length": 178.42866887638516 }, "geometry": { "type": "LineString", "coordinates": [ [ 207418.054668387863785, 523818.008192008535843 ], [ 207443.904525229037972, 523826.854318087978754 ], [ 207492.396522572264075, 523843.001268422580324 ], [ 207543.739265582640655, 523862.946707600844093 ], [ 207560.566839218401583, 523869.598698275280185 ], [ 207575.128465840709396, 523872.519622858730145 ], [ 207587.44118253342458, 523872.497468863439281 ] ] } },
{ "type": "Feature", "properties": { "route_id": "070", "heat_score": 40.0, "heat_grade": "q1", "length": 57.118146643416132 }, "geometry": { "type": "LineString", "coordinates": [ [ 207418.054668387863785, 523818.008192008535843 ], [ 207416.68300504446961, 523825.387390313029755 ], [ 207416.890469748032046, 523841.369219557382166 ], [ 207417.131524610187626, 523859.459768364904448 ], [ 207419.688737325166585, 523874.677891733765136 ] ] } }
]
}
