{
"type": "FeatureCollection",
"name": "071_edges",
"crs": { "type": "name", "properties": { "name": "urn:ogc:def:crs:EPSG::5186" } },
"features": [
{ "type": "Feature", "properties": { "route_id": "071", "heat_score": 57.05, "heat_grade": "q2", "length": 52.419619657670573 }, "geometry": { "type": "LineString", "coordinates": [ [ 208529.742531156458426, 525175.143935674335808 ], [ 208532.96423907080316, 525170.807746447972022 ], [ 208560.956925879581831, 525133.057390023139305 ] ] } },
{ "type": "Feature", "properties": { "route_id": "071", "heat_score": 69.94, "heat_grade": "q4", "length": 87.75015895790051 }, "geometry": { "type": "LineString", "coordinates": [ [ 208560.956925879581831, 525133.057390023139305 ], [ 208491.444846459489781, 525079.392497421707958 ] ] } },
{ "type": "Feature", "properties": { "route_id": "071", "heat_score": 70.5, "heat_grade": "q4", "length": 87.642163167863856 }, "geometry": { "type": "LineString", "coordinates": [ [ 208491.444846459489781, 525079.392497421707958 ], [ 208421.026456936437171, 525027.09237910201773 ] ] } },
{ "type": "Feature", "properties": { "route_id": "071", "heat_score": 55.28, "heat_grade": "q2", "length": 51.82358245302585 }, "geometry": { "type": "LineString", "coordinates": [ [ 208421.026456936437171, 525027.09237910201773 ], [ 208392.191815577301895, 525065.075418828986585 ], [ 208389.706838682381203, 525068.358052408206277 ] ] } },
{ "type": "Feature", "properties": { "route_id": "071", "heat_score": 43.6, "heat_grade": "q1", "length": 88.266836728048403 }, "geometry": { "type": "LineString", "coordinates": [ [ 208389.706838682381203, 525068.358052408206277 ], [ 208451.207363630150212, 525113.27957635675557 ], [ 208460.73641642354778, 525120.869397937669419 ] ] } },
{ "type": "Feature", "properties": { "route_id": "071", "heat_score": 39.19, "heat_grade": "q1", "length": 87.729065047381411 }, "geometry": { "type": "LineString", "coordinates": [ [ 208529.742531156458426, 525175.143935674335808 ], [ 208460.73641642354778, 525120.869397937669419 ] ] } }
]
}
