{
"type": "FeatureCollection",
"name": "075_edges",
"crs": { "type": "name", "properties": { "name": "urn:ogc:def:crs:EPSG::5186" } },
"features": [
{ "type": "Feature", "properties": { "route_id": "075", "heat_score": 51.93, "heat_grade": "q2", "length": 201.99218850046339 }, "geometry": { "type": "LineString", "coordinates": [ [ 205163.986580233264249, 526157.507594638038427 ], [ 205164.481599994149292, 526130.805154228233732 ], [ 205167.942426062858431, 526108.943446350283921 ], [ 205169.862921103718691, 526098.756303198169917 ], [ 205173.294945585890673, 526080.523756581940688 ], [ 205180.215319700946566, 526053.359160122345202 ], [ 205184.304461183375679, 526033.062724100775085 ], [ 205185.84428536996711, 526022.287135042482987 ], [ 205186.192136450321414, 526018.691470190417022 ], [ 205189.025012970610987, 525994.953756799921393 ], [ 205189.23014993200195, 525992.845188777078874 ], [ 205190.924849077506224, 525975.288577738218009 ], [ 205196.854674617818091, 525959.377157543669455 ] ] } },
{ "type": "Feature", "properties": { "route_id": "075", "heat_score": 49.05, "heat_grade": "q2", "length": 49.935563290960054 }, "geometry": { "type": "LineString", "coordinates": [ [ 205196.854674617818091, 525959.377157543669455 ], [ 205210.398292812082218, 525970.16211641242262 ], [ 205223.031202855316224, 525977.528223483473994 ], [ 205238.995606148935622, 525985.961879619397223 ] ] } },
{ "type": "Feature", "properties": { "route_id": "075", "heat_score": 51.32, "heat_grade": "q2", "length": 172.96989437059298 }, "geometry": { "type": "LineString", "coordinates": [ [ 205233.862869230593788, 526158.527644551126286 ], [ 205238.995606148935622, 525985.961879619397223 ] ] } },
{ "type": "Feature", "properties": { "route_id": "075", "heat_score": 34.19, "heat_grade": "q1", "length": 69.719677292979696 }, "geometry": { "type": "LineString", "coordinates": [ [ 205163.986580233264249, 526157.507594638038427 ], [ 205233.862869230593788, 526158.527644551126286 ] ] } }
]
}
