{
"type": "FeatureCollection",
"name": "077_edges",
"crs": { "type": "name", "properties": { "name": "urn:ogc:def:crs:EPSG::5186" } },
"features": [
{ "type": "Feature", "properties": { "route_id": "077", "heat_score": 45.74, "heat_grade": "q1", "length": 34.260852649668756 }, "geometry": { "type": "LineString", "coordinates": [ [ 208572.833015492273262, 526025.18101022252813 ], [ 208573.204790014540777, 525990.987202562275343 ] ] } },
{ "type": "Feature", "properties": { "route_id": "077", "heat_score": 76.1, "heat_grade": "q5", "length": 163.99617626505247 }, "geometry": { "type": "LineString", "coordinates": [ [ 208572.833015492273262, 526025.18101022252813 ], [ 208452.192347817763221, 526025.291421134257689 ], [ 208451.430553597019752, 526068.840797421406023 ] ] } },
{ "type": "Feature", "properties": { "route_id": "077", "heat_score": 71.81, "heat_grade": "q5", "length": 120.64920535263487 }, "geometry": { "type": "LineString", "coordinates": [ [ 208572.363293118134607, 526068.486511341528967 ], [ 208451.430553597019752, 526068.840797421406023 ] ] } },
{ "type": "Feature", "properties": { "route_id": "077", "heat_score": 69.83, "heat_grade": "q4", "length": 135.81433208668784 }, "geometry": { "type": "LineString", "coordinates": [ [ 208617.245540322095621, 526158.818132216343656 ], [ 208617.825881941447733, 526068.533182315528393 ], [ 208572.363293118134607, 526068.486511341528967 ] ] } },
{ "type": "Feature", "properties": { "route_id": "077", "heat_score": 56.34, "heat_grade": "q2", "length": 46.294327091509857 }, "geometry": { "type": "LineString", "coordinates": [ [ 208617.245540322095621, 526158.818132216343656 ], [ 208663.646586948947515, 526159.276660462492146 ] ] } },
{ "type": "Feature", "properties": { "route_id": "077", "heat_score": 59.86, "heat_grade": "q3", "length": 162.20026862841695 }, "geometry": { "type": "LineString", "coordinates": [ [ 208663.479058285593055, 526321.168995060725138 ], [ 208663.582904440030688, 526220.817273789318278 ], [ 208663.646586948947515, 526159.276660462492146 ] ] } },
{ "type": "Feature", "properties": { "route_id": "077", "heat_score": 60.81, "heat_grade": "q3", "length": 139.49243244370444 }, "geometry": { "type": "LineString", "coordinates": [ [ 208663.479058285593055, 526321.168995060725138 ], [ 208803.234753148688469, 526325.421197760035284 ] ] } },
{ "type": "Feature", "properties": { "route_id": "077", "heat_score": 57.28, "heat_grade": "q2", "length": 146.31485211857782 }, "geometry": { "type": "LineString", "coordinates": [ [ 208803.234753148688469, 526325.421197760035284 ], [ 208949.887934748025145, 526326.764222257770598 ] ] } },
{ "type": "Feature", "properties": { "route_id": "077", "heat_score": 46.81, "heat_grade": "q1", "length": 96.429310408367073 }, "geometry": { "type": "LineString", "coordinates": [ [ 208950.416197084792657, 526230.519359665224329 ], [ 208949.887934748025145, 526326.764222257770598 ] ] } },
{ "type": "Feature", "properties": { "route_id": "077", "heat_score": 51.24, "heat_grade": "q2", "length": 118.59727138484484 }, "geometry": { "type": "LineString", "coordinates": [ [ 208951.89863077053451, 526112.156401850283146 ], [ 208950.416197084792657, 526230.519359665224329 ] ] } },
{ "type": "Feature", "properties": { "route_id": "077", "heat_score": 47.61, "heat_grade": "q1", "length": 116.09966010030369 }, "geometry": { "type": "LineString", "coordinates": [ [ 208951.89863077053451, 526112.156401850283146 ], [ 208955.274900328862714, 525996.325927754049189 ] ] } },
{ "type": "Feature", "properties": { "route_id": "077", "heat_score": 60.89, "heat_grade": "q3", "length": 148.95183838192708 }, "geometry": { "type": "LineString", "coordinates": [ [ 208805.974405567685608, 525995.546060250722803 ], [ 208955.274900328862714, 525996.325927754049189 ] ] } },
{ "type": "Feature", "properties": { "route_id": "077", "heat_score": 65.89, "heat_grade": "q4", "length": 10.562589343287531 }, "geometry": { "type": "LineString", "coordinates": [ [ 208795.392588724120287, 525995.890086605097167 ], [ 208805.974405567685608, 525995.546060250722803 ] ] } },
{ "type": "Feature", "properties": { "route_id": "077", "heat_score": 48.23, "heat_grade": "q1", "length": 82.066538390118708 }, "geometry": { "type": "LineString", "coordinates": [ [ 208713.144010048243217, 525994.538871961180121 ], [ 208795.392588724120287, 525995.890086605097167 ] ] } },
{ "type": "Feature", "properties": { "route_id": "077", "heat_score": 70.83, "heat_grade": "q4", "length": 50.652997766388751 }, "geometry": { "type": "LineString", "coordinates": [ [ 208713.144010048243217, 525994.538871961180121 ], [ 208662.391708449897124, 525993.121106257312931 ] ] } },
{ "type": "Feature", "properties": { "route_id": "077", "heat_score": 36.64, "heat_grade": "q1", "length": 89.003091636806474 }, "geometry": { "type": "LineString", "coordinates": [ [ 208573.204790014540777, 525990.987202562275343 ], [ 208662.391708449897124, 525993.121106257312931 ] ] } }
]
}
