{
"type": "FeatureCollection",
"name": "078_edges",
"crs": { "type": "name", "properties": { "name": "urn:ogc:def:crs:EPSG::5186" } },
"features": [
{ "type": "Feature", "properties": { "route_id": "078", "heat_score": 47.61, "heat_grade": "q1", "length": 165.32872151886511 }, "geometry": { "type": "LineString", "coordinates": [ [ 208785.6847794529167, 526818.505392243969254 ], [ 208764.768677975138417, 526813.278305756975897 ], [ 208743.859429358795751, 526809.949108634609729 ], [ 208717.481260666361777, 526808.02376575418748 ], [ 208683.970694157673279, 526805.147737858002074 ], [ 208650.93837575611542, 526802.505405260133557 ], [ 208621.264023303025169, 526800.310597726143897 ] ] } },
{ "type": "Feature", "properties": { "route_id": "078", "heat_score": 61.98, "heat_grade": "q3", "length": 57.331693015983419 }, "geometry": { "type": "LineString", "coordinates": [ [ 208838.243415603967151, 526841.645437925122678 ], [ 208785.6847794529167, 526818.505392243969254 ] ] } },
{ "type": "Feature", "properties": { "route_id": "078", "heat_score": 68.36, "heat_grade": "q4", "length": 128.656996642515 }, "geometry": { "type": "LineString", "coordinates": [ [ 208945.299353000562405, 526772.849066940834746 ], [ 208884.325808894500369, 526804.803071814007126 ], [ 208867.223155788436998, 526813.430606450769119 ], [ 208853.36253166757524, 526823.238037058385089 ], [ 208838.243415603967151, 526841.645437925122678 ] ] } },
{ "type": "Feature", "properties": { "route_id": "078", "heat_score": 61.02, "heat_grade": "q3", "length": 188.52254856894083 }, "geometry": { "type": "LineString", "coordinates": [ [ 208945.299353000562405, 526772.849066940834746 ], [ 208801.22632957668975, 526651.09097023459617 ] ] } },
{ "type": "Feature", "properties": { "route_id": "078", "heat_score": 67.16, "heat_grade": "q4", "length": 137.42655948836074 }, "geometry": { "type": "LineString", "coordinates": [ [ 208801.22632957668975, 526651.09097023459617 ], [ 208792.036792925267946, 526651.247789671644568 ], [ 208663.481966920633567, 526652.312384532066062 ] ] } },
{ "type": "Feature", "properties": { "route_id": "078", "heat_score": 66.05, "heat_grade": "q4", "length": 30.801597707106612 }, "geometry": { "type": "LineString", "coordinates": [ [ 208663.699875559279462, 526621.56999548652675 ], [ 208663.481966920633567, 526652.312384532066062 ] ] } },
{ "type": "Feature", "properties": { "route_id": "078", "heat_score": 44.19, "heat_grade": "q1", "length": 126.90696414359653 }, "geometry": { "type": "LineString", "coordinates": [ [ 208663.699875559279462, 526621.56999548652675 ], [ 208663.768936630804092, 526494.903851100127213 ] ] } },
{ "type": "Feature", "properties": { "route_id": "078", "heat_score": 40.09, "heat_grade": "q1", "length": 171.40670498924317 }, "geometry": { "type": "LineString", "coordinates": [ [ 208491.958848752547055, 526495.105149562470615 ], [ 208534.698638473520987, 526495.104220353532583 ], [ 208537.906556284346152, 526495.10749146528542 ], [ 208555.647605120466324, 526495.103407371789217 ], [ 208569.223666515026707, 526495.106194840045646 ], [ 208663.768936630804092, 526494.903851100127213 ] ] } },
{ "type": "Feature", "properties": { "route_id": "078", "heat_score": 33.57, "heat_grade": "q1", "length": 128.05076654938193 }, "geometry": { "type": "LineString", "coordinates": [ [ 208491.958848752547055, 526495.105149562470615 ], [ 208363.606569596886402, 526495.098015221301466 ] ] } },
{ "type": "Feature", "properties": { "route_id": "078", "heat_score": 48.02, "heat_grade": "q1", "length": 144.81239669498521 }, "geometry": { "type": "LineString", "coordinates": [ [ 208363.606569596886402, 526495.098015221301466 ], [ 208364.34738582643331, 526551.87824035785161 ], [ 208364.932053991477005, 526596.416762576904148 ], [ 208364.447386997693684, 526602.564800238586031 ], [ 208356.359516164840898, 526608.716343112755567 ], [ 208342.57323255969095, 526615.328346312046051 ], [ 208331.916831543872831, 526620.189937266986817 ] ] } },
{ "type": "Feature", "properties": { "route_id": "078", "heat_score": 71.38, "heat_grade": "q5", "length": 129.13257290860739 }, "geometry": { "type": "LineString", "coordinates": [ [ 208421.803490062127821, 526712.91836823313497 ], [ 208394.12187352636829, 526684.922553189098835 ], [ 208392.218386369291693, 526683.200390057405457 ], [ 208331.916831543872831, 526620.189937266986817 ] ] } },
{ "type": "Feature", "properties": { "route_id": "078", "heat_score": 65.31, "heat_grade": "q4", "length": 109.26630965261704 }, "geometry": { "type": "LineString", "coordinates": [ [ 208421.803490062127821, 526712.91836823313497 ], [ 208426.887431628012564, 526715.420628578751348 ], [ 208517.950136542523978, 526747.620519781252369 ], [ 208524.309151872526854, 526751.023109042085707 ] ] } },
{ "type": "Feature", "properties": { "route_id": "078", "heat_score": 35.93, "heat_grade": "q1", "length": 110.32966382287341 }, "geometry": { "type": "LineString", "coordinates": [ [ 208621.264023303025169, 526800.310597726143897 ], [ 208605.545692437153775, 526798.674054152565077 ], [ 208596.988075382949319, 526796.301297368947417 ], [ 208588.670928020816064, 526792.741265235701576 ], [ 208580.886057005991461, 526788.593570825876668 ], [ 208572.40210949111497, 526783.490703713032417 ], [ 208559.695032139105024, 526774.721047479077242 ], [ 208538.317961529101012, 526760.737404308398254 ], [ 208524.309151872526854, 526751.023109042085707 ] ] } }
]
}
