{
"type": "FeatureCollection",
"name": "079_edges",
"crs": { "type": "name", "properties": { "name": "urn:ogc:def:crs:EPSG::5186" } },
"features": [
{ "type": "Feature", "properties": { "route_id": "079", "heat_score": 58.15, "heat_grade": "q2", "length": 64.710879707169838 }, "geometry": { "type": "LineString", "coordinates": [ [ 208358.076121195568703, 526096.426509269047529 ], [ 208293.21507010111236, 526095.895877959905192 ] ] } },
{ "type": "Feature", "properties": { "route_id": "079", "heat_score": 69.91, "heat_grade": "q4", "length": 59.556745117470683 }, "geometry": { "type": "LineString", "coordinates": [ [ 208358.076121195568703, 526096.426509269047529 ], [ 208417.770554757822538, 526096.974643724504858 ] ] } },
{ "type": "Feature", "properties": { "route_id": "079", "heat_score": 74.56, "heat_grade": "q5", "length": 65.927565140031248 }, "geometry": { "type": "LineString", "coordinates": [ [ 208417.836712676100433, 526031.172259871149436 ], [ 208417.770554757822538, 526096.974643724504858 ] ] } },
{ "type": "Feature", "properties": { "route_id": "079", "heat_score": 70.86, "heat_grade": "q4", "length": 40.31933735909108 }, "geometry": { "type": "LineString", "coordinates": [ [ 208417.836712676100433, 526031.172259871149436 ], [ 208417.877172445005272, 525990.92948292021174 ] ] } },
{ "type": "Feature", "properties": { "route_id": "079", "heat_score": 39.6, "heat_grade": "q1", "length": 154.96425448517675 }, "geometry": { "type": "LineString", "coordinates": [ [ 208573.204790014540777, 525990.987202562275343 ], [ 208513.597360796004068, 525991.29262771923095 ], [ 208417.877172445005272, 525990.92948292021174 ] ] } },
{ "type": "Feature", "properties": { "route_id": "079", "heat_score": 45.74, "heat_grade": "q1", "length": 34.260852649668756 }, "geometry": { "type": "LineString", "coordinates": [ [ 208572.833015492273262, 526025.18101022252813 ], [ 208573.204790014540777, 525990.987202562275343 ] ] } },
{ "type": "Feature", "properties": { "route_id": "079", "heat_score": 76.1, "heat_grade": "q5", "length": 163.99617626505247 }, "geometry": { "type": "LineString", "coordinates": [ [ 208572.833015492273262, 526025.18101022252813 ], [ 208452.192347817763221, 526025.291421134257689 ], [ 208451.430553597019752, 526068.840797421406023 ] ] } },
{ "type": "Feature", "properties": { "route_id": "079", "heat_score": 71.81, "heat_grade": "q5", "length": 120.64920535263487 }, "geometry": { "type": "LineString", "coordinates": [ [ 208572.363293118134607, 526068.486511341528967 ], [ 208451.430553597019752, 526068.840797421406023 ] ] } },
{ "type": "Feature", "properties": { "route_id": "079", "heat_score": 69.83, "heat_grade": "q4", "length": 135.81433208668784 }, "geometry": { "type": "LineString", "coordinates": [ [ 208617.245540322095621, 526158.818132216343656 ], [ 208617.825881941447733, 526068.533182315528393 ], [ 208572.363293118134607, 526068.486511341528967 ] ] } },
{ "type": "Feature", "properties": { "route_id": "079", "heat_score": 56.34, "heat_grade": "q2", "length": 46.294327091509857 }, "geometry": { "type": "LineString", "coordinates": [ [ 208617.245540322095621, 526158.818132216343656 ], [ 208663.646586948947515, 526159.276660462492146 ] ] } },
{ "type": "Feature", "properties": { "route_id": "079", "heat_score": 59.86, "heat_grade": "q3", "length": 162.20026862841695 }, "geometry": { "type": "LineString", "coordinates": [ [ 208663.479058285593055, 526321.168995060725138 ], [ 208663.582904440030688, 526220.817273789318278 ], [ 208663.646586948947515, 526159.276660462492146 ] ] } },
{ "type": "Feature", "properties": { "route_id": "079", "heat_score": 41.71, "heat_grade": "q1", "length": 169.73905564872496 }, "geometry": { "type": "LineString", "coordinates": [ [ 208663.479058285593055, 526321.168995060725138 ], [ 208557.996616224583704, 526321.071601328440011 ], [ 208493.340843451704131, 526320.828183164587244 ] ] } },
{ "type": "Feature", "properties": { "route_id": "079", "heat_score": 36.92, "heat_grade": "q1", "length": 196.42286848342471 }, "geometry": { "type": "LineString", "coordinates": [ [ 208493.340843451704131, 526320.828183164587244 ], [ 208429.642448311205953, 526320.286571188946255 ], [ 208296.458010743022896, 526320.053641335340217 ] ] } },
{ "type": "Feature", "properties": { "route_id": "079", "heat_score": 34.11, "heat_grade": "q1", "length": 33.162338697610963 }, "geometry": { "type": "LineString", "coordinates": [ [ 208295.976819411473116, 526286.95770640228875 ], [ 208296.458010743022896, 526320.053641335340217 ] ] } },
{ "type": "Feature", "properties": { "route_id": "079", "heat_score": 38.83, "heat_grade": "q1", "length": 43.148787674929729 }, "geometry": { "type": "LineString", "coordinates": [ [ 208295.976819411473116, 526286.95770640228875 ], [ 208295.354846424772404, 526243.895262502250262 ] ] } },
{ "type": "Feature", "properties": { "route_id": "079", "heat_score": 45.07, "heat_grade": "q1", "length": 44.438770167978859 }, "geometry": { "type": "LineString", "coordinates": [ [ 208295.354846424772404, 526243.895262502250262 ], [ 208294.71641779463971, 526199.545389857608825 ] ] } },
{ "type": "Feature", "properties": { "route_id": "079", "heat_score": 39.42, "heat_grade": "q1", "length": 103.85741799307506 }, "geometry": { "type": "LineString", "coordinates": [ [ 208294.71641779463971, 526199.545389857608825 ], [ 208293.21507010111236, 526095.895877959905192 ] ] } }
]
}
