{
"type": "FeatureCollection",
"name": "080_edges",
"crs": { "type": "name", "properties": { "name": "urn:ogc:def:crs:EPSG::5186" } },
"features": [
{ "type": "Feature", "properties": { "route_id": "080", "heat_score": 43.91, "heat_grade": "q1", "length": 241.79541253850715 }, "geometry": { "type": "LineString", "coordinates": [ [ 207752.722854768537218, 524490.439651766559109 ], [ 207744.57535414013546, 524501.852345509571023 ], [ 207739.66733748925617, 524508.728803376900032 ], [ 207737.447411666595144, 524513.044021447421983 ], [ 207736.246213850390632, 524518.014985180925578 ], [ 207734.81324856163701, 524524.406327456585132 ], [ 207734.577544687257614, 524530.088479248108342 ], [ 207735.279212896712124, 524538.13545113557484 ], [ 207736.784904697036836, 524548.968858663341962 ], [ 207743.369183105998673, 524579.31790920603089 ], [ 207745.030526316113537, 524584.757650710758753 ], [ 207746.250028537266189, 524588.743096356280148 ], [ 207750.956688504200429, 524598.269859314081259 ], [ 207754.124638324545231, 524603.932964606909081 ], [ 207756.22184001543792, 524607.697256785118952 ], [ 207760.002432956098346, 524612.217798628029414 ], [ 207764.253226691915188, 524616.272646102122962 ], [ 207847.797231859032763, 524678.079690957674757 ] ] } },
{ "type": "Feature", "properties": { "route_id": "080", "heat_score": 63.17, "heat_grade": "q3", "length": 140.82867520713032 }, "geometry": { "type": "LineString", "coordinates": [ [ 207752.722854768537218, 524490.439651766559109 ], [ 207782.37994508157135, 524510.721690624719486 ], [ 207823.0542214102461, 524455.389772859518416 ], [ 207793.175695217418252, 524434.829926543170586 ] ] } },
{ "type": "Feature", "properties": { "route_id": "080", "heat_score": 44.69, "heat_grade": "q1", "length": 46.239014210831435 }, "geometry": { "type": "LineString", "coordinates": [ [ 207793.175695217418252, 524434.829926543170586 ], [ 207819.5278694195149, 524396.86474187951535 ] ] } },
{ "type": "Feature", "properties": { "route_id": "080", "heat_score": 59.36, "heat_grade": "q3", "length": 155.72309186436399 }, "geometry": { "type": "LineString", "coordinates": [ [ 207688.791139870270854, 524313.639097300823778 ], [ 207694.844041081960313, 524314.932066278997809 ], [ 207700.896236480213702, 524316.990826804889366 ], [ 207712.725192182522733, 524321.80730499944184 ], [ 207721.246645119710593, 524327.963654130231589 ], [ 207819.5278694195149, 524396.86474187951535 ] ] } },
{ "type": "Feature", "properties": { "route_id": "080", "heat_score": 62.24, "heat_grade": "q3", "length": 79.974526329469285 }, "geometry": { "type": "LineString", "coordinates": [ [ 207688.791139870270854, 524313.639097300823778 ], [ 207685.822894873679616, 524312.348962162970565 ], [ 207681.259329272026662, 524310.84649606095627 ], [ 207671.120441011909861, 524309.216843176749535 ], [ 207659.386684562283335, 524306.875448318896815 ], [ 207646.906362656736746, 524306.70866967132315 ], [ 207635.21515581040876, 524306.298464565770701 ], [ 207622.777577090921113, 524307.863107119803317 ], [ 207610.328689121175557, 524312.124662669608369 ] ] } },
{ "type": "Feature", "properties": { "route_id": "080", "heat_score": 41.28, "heat_grade": "q1", "length": 169.60728686121215 }, "geometry": { "type": "LineString", "coordinates": [ [ 207458.297471213998506, 524387.789824297069572 ], [ 207539.208416789217154, 524346.853757783537731 ], [ 207560.056113818980521, 524337.327944162068889 ], [ 207582.899109578342177, 524326.849528137361631 ], [ 207610.328689121175557, 524312.124662669608369 ] ] } },
{ "type": "Feature", "properties": { "route_id": "080", "heat_score": 32.23, "heat_grade": "q1", "length": 68.590107906335277 }, "geometry": { "type": "LineString", "coordinates": [ [ 207458.297471213998506, 524387.789824297069572 ], [ 207447.729776085237972, 524399.944240928860381 ], [ 207437.776939760224195, 524408.47004836704582 ], [ 207433.648509496182669, 524416.057672267779708 ], [ 207432.693667013547383, 524423.281867127050646 ], [ 207432.93519762926735, 524430.784583007451147 ], [ 207435.021948645007797, 524446.535029410151765 ] ] } },
{ "type": "Feature", "properties": { "route_id": "080", "heat_score": 39.68, "heat_grade": "q1", "length": 107.53199793017505 }, "geometry": { "type": "LineString", "coordinates": [ [ 207435.021948645007797, 524446.535029410151765 ], [ 207439.039045405195793, 524454.507229391252622 ], [ 207484.574205977172824, 524541.847619406646118 ] ] } },
{ "type": "Feature", "properties": { "route_id": "080", "heat_score": 47.86, "heat_grade": "q1", "length": 79.790187333725541 }, "geometry": { "type": "LineString", "coordinates": [ [ 207484.574205977172824, 524541.847619406646118 ], [ 207519.397466489637736, 524613.541032632230781 ] ] } },
{ "type": "Feature", "properties": { "route_id": "080", "heat_score": 55.49, "heat_grade": "q2", "length": 326.34162780447645 }, "geometry": { "type": "LineString", "coordinates": [ [ 207519.397466489637736, 524613.541032632230781 ], [ 207536.817940887180157, 524649.160288201994263 ], [ 207542.549823420646135, 524662.194944853428751 ], [ 207550.654775339353364, 524677.839863770524971 ], [ 207564.23777943465393, 524702.856768977711909 ], [ 207576.842895065143239, 524721.191587615176104 ], [ 207592.546541409828933, 524743.546847850433551 ], [ 207612.836151226278162, 524771.666365298442543 ], [ 207634.9183772126853, 524797.223840998485684 ], [ 207650.972275347128743, 524814.241211427841336 ], [ 207662.751182941748993, 524824.584573176107369 ], [ 207674.414389720011968, 524835.416174556943588 ], [ 207684.696852108696476, 524844.093439211603254 ], [ 207716.725138017674908, 524867.740245353896171 ] ] } },
{ "type": "Feature", "properties": { "route_id": "080", "heat_score": 34.71, "heat_grade": "q1", "length": 230.69024143783639 }, "geometry": { "type": "LineString", "coordinates": [ [ 207716.725138017674908, 524867.740245353896171 ], [ 207785.728310971462633, 524770.493481523124501 ], [ 207788.267052179115126, 524766.42273549886886 ], [ 207847.797231859032763, 524678.079690957674757 ] ] } }
]
}
