{
"type": "FeatureCollection",
"name": "cool_cycle_5km_route1_edges",
"crs": { "type": "name", "properties": { "name": "urn:ogc:def:crs:OGC:1.3:CRS84" } },
"features": [
{ "type": "Feature", "properties": { "u": 1824007718, "v": 1824007722, "length": 253.53078467618872, "heat_score": 21.795 }, "geometry": { "type": "LineString", "coordinates": [ [ 127.0806231, 37.3024198 ], [ 127.081416100000013, 37.3029078 ], [ 127.0814751, 37.3029611 ], [ 127.0814992, 37.3030177 ], [ 127.081546900000021, 37.3032665 ], [ 127.0816038, 37.3035607 ], [ 127.0813415, 37.3038292 ], [ 127.0809848, 37.3041943 ] ] } },
{ "type": "Feature", "properties": { "u": 1824007722, "v": 842899448, "length": 261.27167925636337, "heat_score": 22.04 }, "geometry": { "type": "LineString", "coordinates": [ [ 127.0806231, 37.3024198 ], [ 127.079557799999989, 37.3017535 ], [ 127.079525100000012, 37.3017474 ], [ 127.0794828, 37.3017493 ], [ 127.079438, 37.3017592 ], [ 127.0793976, 37.301771 ], [ 127.0793513, 37.3017961 ], [ 127.078904, 37.3022586 ], [ 127.0788514, 37.3023129 ], [ 127.0785225, 37.3026709 ] ] } },
{ "type": "Feature", "properties": { "u": 842899448, "v": 3660798017, "length": 293.21895369983247, "heat_score": 21.61 }, "geometry": { "type": "LineString", "coordinates": [ [ 127.07549370000001, 37.3026928 ], [ 127.075796, 37.3026122 ], [ 127.075951800000013, 37.3025657 ], [ 127.076252400000016, 37.3024657 ], [ 127.0770599, 37.302212 ], [ 127.0771643, 37.3021936 ], [ 127.0772588, 37.3021858 ], [ 127.077358600000011, 37.3021822 ], [ 127.0774242, 37.3021858 ], [ 127.077500400000019, 37.3022004 ], [ 127.0775766, 37.3022193 ], [ 127.077678100000014, 37.3022464 ], [ 127.0777742, 37.3022777 ], [ 127.0778748, 37.3023115 ], [ 127.078008199999985, 37.3023796 ], [ 127.0781631, 37.3024647 ], [ 127.0784727, 37.3026413 ], [ 127.0785225, 37.3026709 ] ] } },
{ "type": "Feature", "properties": { "u": 3660798017, "v": 4708513142, "length": 78.607492483856589, "heat_score": 21.13 }, "geometry": { "type": "LineString", "coordinates": [ [ 127.0746297, 37.3028345 ], [ 127.0747135, 37.3027953 ], [ 127.0749946, 37.3027716 ], [ 127.07549370000001, 37.3026928 ] ] } },
{ "type": "Feature", "properties": { "u": 4708513142, "v": 4569903226, "length": 45.831104399956985, "heat_score": 20.25 }, "geometry": { "type": "LineString", "coordinates": [ [ 127.0746297, 37.3028345 ], [ 127.074616300000017, 37.3029465 ], [ 127.074631, 37.3030597 ], [ 127.0747104, 37.3032345 ] ] } },
{ "type": "Feature", "properties": { "u": 4569903226, "v": 7857925244, "length": 450.15053880014307, "heat_score": 20.19 }, "geometry": { "type": "LineString", "coordinates": [ [ 127.0747104, 37.3032345 ], [ 127.076193600000011, 37.3041434 ], [ 127.078075699999985, 37.3052352 ], [ 127.0785889, 37.3055374 ], [ 127.078757699999983, 37.3056832 ] ] } },
{ "type": "Feature", "properties": { "u": 7857925244, "v": 7857925252, "length": 332.06022318184671, "heat_score": 20.145 }, "geometry": { "type": "LineString", "coordinates": [ [ 127.078757699999983, 37.3056832 ], [ 127.079636, 37.3061769 ], [ 127.0800987, 37.3064877 ], [ 127.080681399999989, 37.3069006 ], [ 127.0815852, 37.307636 ] ] } },
{ "type": "Feature", "properties": { "u": 7857925252, "v": 7857925268, "length": 633.22058971004219, "heat_score": 20.675 }, "geometry": { "type": "LineString", "coordinates": [ [ 127.0815852, 37.307636 ], [ 127.0817982, 37.3078565 ], [ 127.0823319, 37.308409 ], [ 127.0826305, 37.3087298 ], [ 127.082784800000013, 37.3089189 ], [ 127.083074900000014, 37.3092893 ], [ 127.0833775, 37.3097662 ], [ 127.083593, 37.310129 ], [ 127.0838367, 37.3105831 ], [ 127.0840547, 37.31102210000001 ], [ 127.0845136, 37.3119331 ], [ 127.08472519999998, 37.3122603 ], [ 127.0849889, 37.3126107 ] ] } },
{ "type": "Feature", "properties": { "u": 7857925268, "v": 3751077470, "length": 292.74977002664633, "heat_score": 22.025 }, "geometry": { "type": "LineString", "coordinates": [ [ 127.0838816, 37.310132 ], [ 127.083973299999982, 37.3103238 ], [ 127.0840304, 37.31044330000001 ], [ 127.0841591, 37.3107505 ], [ 127.0842781, 37.31103370000001 ], [ 127.0844532, 37.3114657 ], [ 127.084571299999979, 37.31174930000001 ], [ 127.0847661, 37.3121402 ], [ 127.08483649999998, 37.3122669 ], [ 127.084906600000011, 37.3123838 ], [ 127.0849889, 37.3126107 ] ] } },
{ "type": "Feature", "properties": { "u": 3751077470, "v": 3692802261, "length": 122.61301148898255, "heat_score": 21.79 }, "geometry": { "type": "LineString", "coordinates": [ [ 127.0838816, 37.310132 ], [ 127.0840697, 37.3100109 ], [ 127.08451890000002, 37.3097218 ], [ 127.084721, 37.3095631 ], [ 127.0847944, 37.309467 ], [ 127.084861, 37.309368 ] ] } },
{ "type": "Feature", "properties": { "u": 3692802261, "v": 3692802266, "length": 198.4104238423169, "heat_score": 22.05 }, "geometry": { "type": "LineString", "coordinates": [ [ 127.084189599999988, 37.3076835 ], [ 127.0842137, 37.3077987 ], [ 127.0842459, 37.3079608 ], [ 127.084294200000016, 37.3081144 ], [ 127.0846013, 37.3086734 ], [ 127.0848373, 37.3090958 ], [ 127.084861, 37.309368 ] ] } },
{ "type": "Feature", "properties": { "u": 3692802266, "v": 4556829562, "length": 141.36642154446307, "heat_score": 21.64 }, "geometry": { "type": "LineString", "coordinates": [ [ 127.0828868, 37.308404 ], [ 127.0830199, 37.3083416 ], [ 127.083464100000015, 37.3081269 ], [ 127.083717300000018, 37.3080045 ], [ 127.084039200000021, 37.3078317 ], [ 127.084189599999988, 37.3076835 ] ] } },
{ "type": "Feature", "properties": { "u": 4556829562, "v": 4556829551, "length": 418.91487096426835, "heat_score": 20.055 }, "geometry": { "type": "LineString", "coordinates": [ [ 127.0828868, 37.308404 ], [ 127.082851, 37.3083769 ], [ 127.08267530000002, 37.3082442 ], [ 127.0824017, 37.308047900000012 ], [ 127.0821978, 37.3079071 ], [ 127.0820154, 37.3077663 ], [ 127.0818492, 37.3076198 ], [ 127.081817, 37.3075914 ], [ 127.0816185, 37.3074079 ], [ 127.0814736, 37.3072927 ], [ 127.0813288, 37.307186 ], [ 127.0811679, 37.3070708 ], [ 127.080840600000016, 37.306840400000013 ], [ 127.079392199999987, 37.3058675 ] ] } },
{ "type": "Feature", "properties": { "u": 4556829551, "v": 1824007718, "length": 233.35993332336776, "heat_score": 20.465 }, "geometry": { "type": "LineString", "coordinates": [ [ 127.079392199999987, 37.3058675 ], [ 127.079850600000015, 37.3053859 ], [ 127.0801615, 37.3050593 ], [ 127.0809848, 37.3041943 ] ] } }
]
}
