{
"type": "FeatureCollection",
"name": "cool_cycle_3km_route2_edges",
"crs": { "type": "name", "properties": { "name": "urn:ogc:def:crs:OGC:1.3:CRS84" } },
"features": [
{ "type": "Feature", "properties": { "u": 4227745183, "v": 4169632610, "length": 187.82040793877459, "heat_score": 21.43 }, "geometry": { "type": "LineString", "coordinates": [ [ 127.127934699999983, 37.3332205 ], [ 127.127933400000018, 37.3332672 ], [ 127.1279415, 37.3335908 ], [ 127.127961, 37.3344921 ], [ 127.127909700000018, 37.3349074 ] ] } },
{ "type": "Feature", "properties": { "u": 4169632610, "v": 4269462811, "length": 271.38959130682633, "heat_score": 22.69 }, "geometry": { "type": "LineString", "coordinates": [ [ 127.125055399999979, 37.335311 ], [ 127.1264511, 37.335311 ], [ 127.1271362, 37.335311 ], [ 127.1274544, 37.3352953 ], [ 127.127678, 37.3351396 ], [ 127.127909700000018, 37.3349074 ] ] } },
{ "type": "Feature", "properties": { "u": 4269462811, "v": 2405708212, "length": 192.00109791507126, "heat_score": 22.69 }, "geometry": { "type": "LineString", "coordinates": [ [ 127.125055399999979, 37.335311 ], [ 127.1247359, 37.335311 ], [ 127.123433, 37.3342643 ] ] } },
{ "type": "Feature", "properties": { "u": 2405708212, "v": 2405708219, "length": 34.191254125498737, "heat_score": 22.69 }, "geometry": { "type": "LineString", "coordinates": [ [ 127.1232457, 37.3344488 ], [ 127.123368200000016, 37.3344445 ], [ 127.123453500000011, 37.3343785 ], [ 127.123433, 37.3342643 ] ] } },
{ "type": "Feature", "properties": { "u": 2405708219, "v": 2405708241, "length": 104.7388337798772, "heat_score": 22.69 }, "geometry": { "type": "LineString", "coordinates": [ [ 127.124014599999981, 37.335005099999989 ], [ 127.1237865, 37.3348306 ], [ 127.123444799999987, 37.334557700000012 ], [ 127.1233629, 37.3345849 ], [ 127.123251, 37.3345807 ], [ 127.123209800000012, 37.334516 ], [ 127.1232457, 37.3344488 ] ] } },
{ "type": "Feature", "properties": { "u": 2405708241, "v": 2405708246, "length": 190.90014206390975, "heat_score": 22.69 }, "geometry": { "type": "LineString", "coordinates": [ [ 127.1219963, 37.335107 ], [ 127.1221457, 37.3351503 ], [ 127.1240257, 37.3350994 ], [ 127.124014599999981, 37.335005099999989 ] ] } },
{ "type": "Feature", "properties": { "u": 2405708246, "v": 2405708216, "length": 86.50829623155235, "heat_score": 22.69 }, "geometry": { "type": "LineString", "coordinates": [ [ 127.1219963, 37.335107 ], [ 127.121883199999985, 37.3348669 ], [ 127.1218491, 37.3346398 ], [ 127.1220708, 37.3344059 ] ] } },
{ "type": "Feature", "properties": { "u": 2405708216, "v": 2405708204, "length": 121.4649756445171, "heat_score": 22.69 }, "geometry": { "type": "LineString", "coordinates": [ [ 127.1220708, 37.3344059 ], [ 127.1219642, 37.3343049 ], [ 127.1215633, 37.3338615 ], [ 127.12151320000001, 37.333449 ] ] } },
{ "type": "Feature", "properties": { "u": 2405708204, "v": 2405708191, "length": 64.559678333161543, "heat_score": 22.69 }, "geometry": { "type": "LineString", "coordinates": [ [ 127.12151320000001, 37.333449 ], [ 127.121491, 37.3332658 ], [ 127.121714, 37.3329111 ] ] } },
{ "type": "Feature", "properties": { "u": 2405708191, "v": 2405708190, "length": 139.41368437777194, "heat_score": 22.69 }, "geometry": { "type": "LineString", "coordinates": [ [ 127.121714, 37.3329111 ], [ 127.1232906, 37.3328898 ] ] } },
{ "type": "Feature", "properties": { "u": 2405708190, "v": 4230119838, "length": 87.790869909424245, "heat_score": 22.69 }, "geometry": { "type": "LineString", "coordinates": [ [ 127.123267100000021, 37.3321005 ], [ 127.1232906, 37.3328898 ] ] } },
{ "type": "Feature", "properties": { "u": 4230119838, "v": 4631099094, "length": 156.84869159074901, "heat_score": 22.69 }, "geometry": { "type": "LineString", "coordinates": [ [ 127.1214936, 37.3321342 ], [ 127.123267100000021, 37.3321005 ] ] } },
{ "type": "Feature", "properties": { "u": 4631099094, "v": 11178439026, "length": 109.66246195395419, "heat_score": 22.69 }, "geometry": { "type": "LineString", "coordinates": [ [ 127.1202535, 37.3321158 ], [ 127.1214936, 37.3321342 ] ] } },
{ "type": "Feature", "properties": { "u": 11178439026, "v": 4230119847, "length": 71.443933006441426, "heat_score": 22.69 }, "geometry": { "type": "LineString", "coordinates": [ [ 127.1202535, 37.3321158 ], [ 127.119676, 37.3321073 ], [ 127.1196711, 37.3322905 ] ] } },
{ "type": "Feature", "properties": { "u": 4230119847, "v": 4230119848, "length": 57.451909507485915, "heat_score": 22.69 }, "geometry": { "type": "LineString", "coordinates": [ [ 127.1190213, 37.3322903 ], [ 127.1196711, 37.3322905 ] ] } },
{ "type": "Feature", "properties": { "u": 4230119848, "v": 4230119849, "length": 44.765832677424193, "heat_score": 22.69 }, "geometry": { "type": "LineString", "coordinates": [ [ 127.1190319, 37.3318878 ], [ 127.1190213, 37.3322903 ] ] } },
{ "type": "Feature", "properties": { "u": 4230119849, "v": 4230119850, "length": 45.964662247354504, "heat_score": 22.69 }, "geometry": { "type": "LineString", "coordinates": [ [ 127.1192806, 37.3315248 ], [ 127.1190319, 37.3318878 ] ] } },
{ "type": "Feature", "properties": { "u": 4230119850, "v": 2405708165, "length": 90.390464767665392, "heat_score": 22.69 }, "geometry": { "type": "LineString", "coordinates": [ [ 127.1192806, 37.3315248 ], [ 127.120272899999989, 37.3317204 ] ] } },
{ "type": "Feature", "properties": { "u": 2405708165, "v": 4631099093, "length": 108.07854582972138, "heat_score": 22.69 }, "geometry": { "type": "LineString", "coordinates": [ [ 127.1214936, 37.331741 ], [ 127.120406100000011, 37.3317373 ], [ 127.120272899999989, 37.3317204 ] ] } },
{ "type": "Feature", "properties": { "u": 4631099093, "v": 4269462806, "length": 157.05668154185003, "heat_score": 22.15 }, "geometry": { "type": "LineString", "coordinates": [ [ 127.1214936, 37.331741 ], [ 127.123269500000021, 37.3317728 ] ] } },
{ "type": "Feature", "properties": { "u": 4269462806, "v": 2405708171, "length": 83.880502302054055, "heat_score": 22.505 }, "geometry": { "type": "LineString", "coordinates": [ [ 127.123269500000021, 37.3317728 ], [ 127.124218200000016, 37.3317762 ] ] } },
{ "type": "Feature", "properties": { "u": 2405708171, "v": 2405708142, "length": 46.849593304331876, "heat_score": 22.055 }, "geometry": { "type": "LineString", "coordinates": [ [ 127.124218200000016, 37.3317762 ], [ 127.1242121, 37.3313549 ] ] } },
{ "type": "Feature", "properties": { "u": 2405708142, "v": 11178407633, "length": 248.82482166719115, "heat_score": 20.94 }, "geometry": { "type": "LineString", "coordinates": [ [ 127.126979300000016, 37.3311675 ], [ 127.1269549, 37.33117450000001 ], [ 127.126908299999982, 37.331192 ], [ 127.1265273, 37.3313351 ], [ 127.1259403, 37.331345 ], [ 127.1256408, 37.3313501 ], [ 127.1242121, 37.3313549 ] ] } },
{ "type": "Feature", "properties": { "u": 11178407633, "v": 2405708106, "length": 89.27354093890844, "heat_score": 21.165 }, "geometry": { "type": "LineString", "coordinates": [ [ 127.126979300000016, 37.3311675 ], [ 127.1271784, 37.3310906 ], [ 127.12745649999998, 37.3310132 ], [ 127.1277196, 37.33094 ], [ 127.1279291, 37.3309017 ] ] } },
{ "type": "Feature", "properties": { "u": 2405708106, "v": 2405708161, "length": 76.38589356760987, "heat_score": 20.675 }, "geometry": { "type": "LineString", "coordinates": [ [ 127.1278977, 37.3315882 ], [ 127.1279291, 37.3309017 ] ] } },
{ "type": "Feature", "properties": { "u": 2405708161, "v": 4227745168, "length": 85.442016233640715, "heat_score": 20.23 }, "geometry": { "type": "LineString", "coordinates": [ [ 127.127935800000017, 37.332356 ], [ 127.1278977, 37.3315882 ] ] } },
{ "type": "Feature", "properties": { "u": 4227745168, "v": 4227745183, "length": 96.128199078636769, "heat_score": 20.22 }, "geometry": { "type": "LineString", "coordinates": [ [ 127.127934699999983, 37.3332205 ], [ 127.127935800000017, 37.332356 ] ] } }
]
}
