{
"type": "FeatureCollection",
"name": "cool_cycle_5km_route1_nodes",
"crs": { "type": "name", "properties": { "name": "urn:ogc:def:crs:OGC:1.3:CRS84" } },
"features": [
{ "type": "Feature", "properties": { "osmid": 1824007718, "y": 37.3041943, "x": 127.0809848, "junction": "yes", "street_count": 4, "highway": null, "ref": null, "felt_temp": 36.509609222412109, "heat_grade": 2.0, "index_right": 4223.0, "uid": "ì©ì¸_12793", "sgg_cd": "41460", "sgg_nm": "ì©ì¸ì", "lclsf_cd": "I", "lclsf_nm": "ìê°íê±´ì¡°ì§", "mclsf_cd": "ID", "mclsf_nm": "êµíµìì¤ì§", "sclsf_cd": "ID2", "sclsf_nm": "ì¼ë°ëë¡", "dclsf_cd": "ID2_1", "dclsf_nm": "ê°ë¡ì ìë ì¼ë°ëë¡", "ldc_lc_cd": "A", "ldc_lc_nm": "ìê°íê±´ì¡°ì§ì­", "ldc_mc_cd": "A5", "ldc_mc_nm": "êµíµì§ì­", "ldc_sc_cd": "A54", "ldc_sc_nm": "ëë¡", "shade": 0.2, "heat_score": 20.71 }, "geometry": { "type": "Point", "coordinates": [ 127.0809848, 37.3041943 ] } },
{ "type": "Feature", "properties": { "osmid": 1824007722, "y": 37.3024198, "x": 127.0806231, "junction": null, "street_count": 3, "highway": null, "ref": null, "felt_temp": 36.797916412353516, "heat_grade": 7.0, "index_right": 4223.0, "uid": "ì©ì¸_12793", "sgg_cd": "41460", "sgg_nm": "ì©ì¸ì", "lclsf_cd": "I", "lclsf_nm": "ìê°íê±´ì¡°ì§", "mclsf_cd": "ID", "mclsf_nm": "êµíµìì¤ì§", "sclsf_cd": "ID2", "sclsf_nm": "ì¼ë°ëë¡", "dclsf_cd": "ID2_1", "dclsf_nm": "ê°ë¡ì ìë ì¼ë°ëë¡", "ldc_lc_cd": "A", "ldc_lc_nm": "ìê°íê±´ì¡°ì§ì­", "ldc_mc_cd": "A5", "ldc_mc_nm": "êµíµì§ì­", "ldc_sc_cd": "A54", "ldc_sc_nm": "ëë¡", "shade": 0.2, "heat_score": 22.88 }, "geometry": { "type": "Point", "coordinates": [ 127.0806231, 37.3024198 ] } },
{ "type": "Feature", "properties": { "osmid": 842899448, "y": 37.3026709, "x": 127.0785225, "junction": null, "street_count": 3, "highway": null, "ref": null, "felt_temp": 36.666297912597656, "heat_grade": 3.0, "index_right": 4223.0, "uid": "ì©ì¸_12793", "sgg_cd": "41460", "sgg_nm": "ì©ì¸ì", "lclsf_cd": "I", "lclsf_nm": "ìê°íê±´ì¡°ì§", "mclsf_cd": "ID", "mclsf_nm": "êµíµìì¤ì§", "sclsf_cd": "ID2", "sclsf_nm": "ì¼ë°ëë¡", "dclsf_cd": "ID2_1", "dclsf_nm": "ê°ë¡ì ìë ì¼ë°ëë¡", "ldc_lc_cd": "A", "ldc_lc_nm": "ìê°íê±´ì¡°ì§ì­", "ldc_mc_cd": "A5", "ldc_mc_nm": "êµíµì§ì­", "ldc_sc_cd": "A54", "ldc_sc_nm": "ëë¡", "shade": 0.2, "heat_score": 21.2 }, "geometry": { "type": "Point", "coordinates": [ 127.0785225, 37.3026709 ] } },
{ "type": "Feature", "properties": { "osmid": 3660798017, "y": 37.3026928, "x": 127.0754937, "junction": null, "street_count": 4, "highway": null, "ref": null, "felt_temp": 36.700706481933594, "heat_grade": 5.0, "index_right": 4223.0, "uid": "ì©ì¸_12793", "sgg_cd": "41460", "sgg_nm": "ì©ì¸ì", "lclsf_cd": "I", "lclsf_nm": "ìê°íê±´ì¡°ì§", "mclsf_cd": "ID", "mclsf_nm": "êµíµìì¤ì§", "sclsf_cd": "ID2", "sclsf_nm": "ì¼ë°ëë¡", "dclsf_cd": "ID2_1", "dclsf_nm": "ê°ë¡ì ìë ì¼ë°ëë¡", "ldc_lc_cd": "A", "ldc_lc_nm": "ìê°íê±´ì¡°ì§ì­", "ldc_mc_cd": "A5", "ldc_mc_nm": "êµíµì§ì­", "ldc_sc_cd": "A54", "ldc_sc_nm": "ëë¡", "shade": 0.2, "heat_score": 22.02 }, "geometry": { "type": "Point", "coordinates": [ 127.07549370000001, 37.3026928 ] } },
{ "type": "Feature", "properties": { "osmid": 4708513142, "y": 37.3028345, "x": 127.0746297, "junction": null, "street_count": 5, "highway": null, "ref": null, "felt_temp": 36.398815155029297, "heat_grade": 1.0, "index_right": 4223.0, "uid": "ì©ì¸_12793", "sgg_cd": "41460", "sgg_nm": "ì©ì¸ì", "lclsf_cd": "I", "lclsf_nm": "ìê°íê±´ì¡°ì§", "mclsf_cd": "ID", "mclsf_nm": "êµíµìì¤ì§", "sclsf_cd": "ID2", "sclsf_nm": "ì¼ë°ëë¡", "dclsf_cd": "ID2_1", "dclsf_nm": "ê°ë¡ì ìë ì¼ë°ëë¡", "ldc_lc_cd": "A", "ldc_lc_nm": "ìê°íê±´ì¡°ì§ì­", "ldc_mc_cd": "A5", "ldc_mc_nm": "êµíµì§ì­", "ldc_sc_cd": "A54", "ldc_sc_nm": "ëë¡", "shade": 0.2, "heat_score": 20.24 }, "geometry": { "type": "Point", "coordinates": [ 127.0746297, 37.3028345 ] } },
{ "type": "Feature", "properties": { "osmid": 4569903226, "y": 37.3032345, "x": 127.0747104, "junction": null, "street_count": 3, "highway": null, "ref": null, "felt_temp": 36.425434112548828, "heat_grade": 1.0, "index_right": 1889.0, "uid": "ì©ì¸_12777", "sgg_cd": "41460", "sgg_nm": "ì©ì¸ì", "lclsf_cd": "I", "lclsf_nm": "ìê°íê±´ì¡°ì§", "mclsf_cd": "ID", "mclsf_nm": "êµíµìì¤ì§", "sclsf_cd": "ID2", "sclsf_nm": "ì¼ë°ëë¡", "dclsf_cd": "ID2_2", "dclsf_nm": "ê°ë¡ì ìë ì¼ë°ëë¡", "ldc_lc_cd": "A", "ldc_lc_nm": "ìê°íê±´ì¡°ì§ì­", "ldc_mc_cd": "A5", "ldc_mc_nm": "êµíµì§ì­", "ldc_sc_cd": "A54", "ldc_sc_nm": "ëë¡", "shade": 0.2, "heat_score": 20.26 }, "geometry": { "type": "Point", "coordinates": [ 127.0747104, 37.3032345 ] } },
{ "type": "Feature", "properties": { "osmid": 7857925244, "y": 37.3056832, "x": 127.0787577, "junction": null, "street_count": 3, "highway": null, "ref": null, "felt_temp": 36.203388214111328, "heat_grade": 1.0, "index_right": 1644.0, "uid": "ì©ì¸_2216", "sgg_cd": "41460", "sgg_nm": "ì©ì¸ì", "lclsf_cd": "H", "lclsf_nm": "ì¡°ì±ë¹ì§", "mclsf_cd": "HB", "mclsf_nm": "íê²½ê°ì ë¹ì§", "sclsf_cd": "HB2", "sclsf_nm": "ìì¶© ë° ê²½ê´ë¹ì§", "dclsf_cd": null, "dclsf_nm": null, "ldc_lc_cd": "D", "ldc_lc_nm": "ì´ì§", "ldc_mc_cd": "D2", "ldc_mc_nm": "ì¸ê³µì´ì§", "ldc_sc_cd": "D23", "ldc_sc_nm": "ê¸°íì´ì§", "shade": 0.2, "heat_score": 20.12 }, "geometry": { "type": "Point", "coordinates": [ 127.078757699999983, 37.3056832 ] } },
{ "type": "Feature", "properties": { "osmid": 7857925252, "y": 37.307636, "x": 127.0815852, "junction": null, "street_count": 3, "highway": null, "ref": null, "felt_temp": 36.281837463378906, "heat_grade": 1.0, "index_right": 1889.0, "uid": "ì©ì¸_12777", "sgg_cd": "41460", "sgg_nm": "ì©ì¸ì", "lclsf_cd": "I", "lclsf_nm": "ìê°íê±´ì¡°ì§", "mclsf_cd": "ID", "mclsf_nm": "êµíµìì¤ì§", "sclsf_cd": "ID2", "sclsf_nm": "ì¼ë°ëë¡", "dclsf_cd": "ID2_2", "dclsf_nm": "ê°ë¡ì ìë ì¼ë°ëë¡", "ldc_lc_cd": "A", "ldc_lc_nm": "ìê°íê±´ì¡°ì§ì­", "ldc_mc_cd": "A5", "ldc_mc_nm": "êµíµì§ì­", "ldc_sc_cd": "A54", "ldc_sc_nm": "ëë¡", "shade": 0.2, "heat_score": 20.17 }, "geometry": { "type": "Point", "coordinates": [ 127.0815852, 37.307636 ] } },
{ "type": "Feature", "properties": { "osmid": 7857925268, "y": 37.3126107, "x": 127.0849889, "junction": null, "street_count": 3, "highway": null, "ref": null, "felt_temp": 36.629047393798828, "heat_grade": 3.0, "index_right": 1889.0, "uid": "ì©ì¸_12777", "sgg_cd": "41460", "sgg_nm": "ì©ì¸ì", "lclsf_cd": "I", "lclsf_nm": "ìê°íê±´ì¡°ì§", "mclsf_cd": "ID", "mclsf_nm": "êµíµìì¤ì§", "sclsf_cd": "ID2", "sclsf_nm": "ì¼ë°ëë¡", "dclsf_cd": "ID2_2", "dclsf_nm": "ê°ë¡ì ìë ì¼ë°ëë¡", "ldc_lc_cd": "A", "ldc_lc_nm": "ìê°íê±´ì¡°ì§ì­", "ldc_mc_cd": "A5", "ldc_mc_nm": "êµíµì§ì­", "ldc_sc_cd": "A54", "ldc_sc_nm": "ëë¡", "shade": 0.2, "heat_score": 21.18 }, "geometry": { "type": "Point", "coordinates": [ 127.0849889, 37.3126107 ] } },
{ "type": "Feature", "properties": { "osmid": 3751077470, "y": 37.310132, "x": 127.0838816, "junction": "yes", "street_count": 4, "highway": null, "ref": null, "felt_temp": 36.777118682861328, "heat_grade": 7.0, "index_right": 1889.0, "uid": "ì©ì¸_12777", "sgg_cd": "41460", "sgg_nm": "ì©ì¸ì", "lclsf_cd": "I", "lclsf_nm": "ìê°íê±´ì¡°ì§", "mclsf_cd": "ID", "mclsf_nm": "êµíµìì¤ì§", "sclsf_cd": "ID2", "sclsf_nm": "ì¼ë°ëë¡", "dclsf_cd": "ID2_2", "dclsf_nm": "ê°ë¡ì ìë ì¼ë°ëë¡", "ldc_lc_cd": "A", "ldc_lc_nm": "ìê°íê±´ì¡°ì§ì­", "ldc_mc_cd": "A5", "ldc_mc_nm": "êµíµì§ì­", "ldc_sc_cd": "A54", "ldc_sc_nm": "ëë¡", "shade": 0.2, "heat_score": 22.87 }, "geometry": { "type": "Point", "coordinates": [ 127.0838816, 37.310132 ] } },
{ "type": "Feature", "properties": { "osmid": 3692802261, "y": 37.309368, "x": 127.084861, "junction": "yes", "street_count": 3, "highway": null, "ref": null, "felt_temp": 36.50836181640625, "heat_grade": 2.0, "index_right": 4223.0, "uid": "ì©ì¸_12793", "sgg_cd": "41460", "sgg_nm": "ì©ì¸ì", "lclsf_cd": "I", "lclsf_nm": "ìê°íê±´ì¡°ì§", "mclsf_cd": "ID", "mclsf_nm": "êµíµìì¤ì§", "sclsf_cd": "ID2", "sclsf_nm": "ì¼ë°ëë¡", "dclsf_cd": "ID2_1", "dclsf_nm": "ê°ë¡ì ìë ì¼ë°ëë¡", "ldc_lc_cd": "A", "ldc_lc_nm": "ìê°íê±´ì¡°ì§ì­", "ldc_mc_cd": "A5", "ldc_mc_nm": "êµíµì§ì­", "ldc_sc_cd": "A54", "ldc_sc_nm": "ëë¡", "shade": 0.2, "heat_score": 20.71 }, "geometry": { "type": "Point", "coordinates": [ 127.084861, 37.309368 ] } },
{ "type": "Feature", "properties": { "osmid": 3692802266, "y": 37.3076835, "x": 127.0841896, "junction": "yes", "street_count": 4, "highway": null, "ref": null, "felt_temp": 36.976947784423828, "heat_grade": 8.0, "index_right": 4223.0, "uid": "ì©ì¸_12793", "sgg_cd": "41460", "sgg_nm": "ì©ì¸ì", "lclsf_cd": "I", "lclsf_nm": "ìê°íê±´ì¡°ì§", "mclsf_cd": "ID", "mclsf_nm": "êµíµìì¤ì§", "sclsf_cd": "ID2", "sclsf_nm": "ì¼ë°ëë¡", "dclsf_cd": "ID2_1", "dclsf_nm": "ê°ë¡ì ìë ì¼ë°ëë¡", "ldc_lc_cd": "A", "ldc_lc_nm": "ìê°íê±´ì¡°ì§ì­", "ldc_mc_cd": "A5", "ldc_mc_nm": "êµíµì§ì­", "ldc_sc_cd": "A54", "ldc_sc_nm": "ëë¡", "shade": 0.2, "heat_score": 23.39 }, "geometry": { "type": "Point", "coordinates": [ 127.084189599999988, 37.3076835 ] } },
{ "type": "Feature", "properties": { "osmid": 4556829562, "y": 37.308404, "x": 127.0828868, "junction": null, "street_count": 3, "highway": null, "ref": null, "felt_temp": 35.813396453857422, "heat_grade": 1.0, "index_right": 4223.0, "uid": "ì©ì¸_12793", "sgg_cd": "41460", "sgg_nm": "ì©ì¸ì", "lclsf_cd": "I", "lclsf_nm": "ìê°íê±´ì¡°ì§", "mclsf_cd": "ID", "mclsf_nm": "êµíµìì¤ì§", "sclsf_cd": "ID2", "sclsf_nm": "ì¼ë°ëë¡", "dclsf_cd": "ID2_1", "dclsf_nm": "ê°ë¡ì ìë ì¼ë°ëë¡", "ldc_lc_cd": "A", "ldc_lc_nm": "ìê°íê±´ì¡°ì§ì­", "ldc_mc_cd": "A5", "ldc_mc_nm": "êµíµì§ì­", "ldc_sc_cd": "A54", "ldc_sc_nm": "ëë¡", "shade": 0.2, "heat_score": 19.89 }, "geometry": { "type": "Point", "coordinates": [ 127.0828868, 37.308404 ] } },
{ "type": "Feature", "properties": { "osmid": 4556829551, "y": 37.3058675, "x": 127.0793922, "junction": null, "street_count": 3, "highway": null, "ref": null, "felt_temp": 36.363883972167969, "heat_grade": 1.0, "index_right": 1641.0, "uid": "ì©ì¸_4557", "sgg_cd": "41460", "sgg_nm": "ì©ì¸ì", "lclsf_cd": "I", "lclsf_nm": "ìê°íê±´ì¡°ì§", "mclsf_cd": "ID", "mclsf_nm": "êµíµìì¤ì§", "sclsf_cd": "ID2", "sclsf_nm": "ì¼ë°ëë¡", "dclsf_cd": "ID2_2", "dclsf_nm": "ê°ë¡ì ìë ì¼ë°ëë¡", "ldc_lc_cd": "A", "ldc_lc_nm": "ìê°íê±´ì¡°ì§ì­", "ldc_mc_cd": "A5", "ldc_mc_nm": "êµíµì§ì­", "ldc_sc_cd": "A54", "ldc_sc_nm": "ëë¡", "shade": 0.2, "heat_score": 20.22 }, "geometry": { "type": "Point", "coordinates": [ 127.079392199999987, 37.3058675 ] } },
{ "type": "Feature", "properties": { "osmid": 1824007718, "y": 37.3041943, "x": 127.0809848, "junction": "yes", "street_count": 4, "highway": null, "ref": null, "felt_temp": 36.509609222412109, "heat_grade": 2.0, "index_right": 4223.0, "uid": "ì©ì¸_12793", "sgg_cd": "41460", "sgg_nm": "ì©ì¸ì", "lclsf_cd": "I", "lclsf_nm": "ìê°íê±´ì¡°ì§", "mclsf_cd": "ID", "mclsf_nm": "êµíµìì¤ì§", "sclsf_cd": "ID2", "sclsf_nm": "ì¼ë°ëë¡", "dclsf_cd": "ID2_1", "dclsf_nm": "ê°ë¡ì ìë ì¼ë°ëë¡", "ldc_lc_cd": "A", "ldc_lc_nm": "ìê°íê±´ì¡°ì§ì­", "ldc_mc_cd": "A5", "ldc_mc_nm": "êµíµì§ì­", "ldc_sc_cd": "A54", "ldc_sc_nm": "ëë¡", "shade": 0.2, "heat_score": 20.71 }, "geometry": { "type": "Point", "coordinates": [ 127.0809848, 37.3041943 ] } }
]
}
