{
"type": "FeatureCollection",
"name": "cool_cycle_7km_route1_nodes",
"crs": { "type": "name", "properties": { "name": "urn:ogc:def:crs:OGC:1.3:CRS84" } },
"features": [
{ "type": "Feature", "properties": { "osmid": 3662168684, "y": 37.2969003, "x": 127.0732781, "junction": null, "street_count": 3, "highway": null, "ref": null, "felt_temp": 36.425430297851562, "heat_grade": 1.0, "index_right": 4223.0, "uid": "ì©ì¸_12793", "sgg_cd": "41460", "sgg_nm": "ì©ì¸ì", "lclsf_cd": "I", "lclsf_nm": "ìê°íê±´ì¡°ì§", "mclsf_cd": "ID", "mclsf_nm": "êµíµìì¤ì§", "sclsf_cd": "ID2", "sclsf_nm": "ì¼ë°ëë¡", "dclsf_cd": "ID2_1", "dclsf_nm": "ê°ë¡ì ìë ì¼ë°ëë¡", "ldc_lc_cd": "A", "ldc_lc_nm": "ìê°íê±´ì¡°ì§ì­", "ldc_mc_cd": "A5", "ldc_mc_nm": "êµíµì§ì­", "ldc_sc_cd": "A54", "ldc_sc_nm": "ëë¡", "shade": 0.2, "heat_score": 20.26 }, "geometry": { "type": "Point", "coordinates": [ 127.0732781, 37.2969003 ] } },
{ "type": "Feature", "properties": { "osmid": 3187964067, "y": 37.2977069, "x": 127.0735029, "junction": "yes", "street_count": 4, "highway": null, "ref": null, "felt_temp": 36.659690856933594, "heat_grade": 3.0, "index_right": 4223.0, "uid": "ì©ì¸_12793", "sgg_cd": "41460", "sgg_nm": "ì©ì¸ì", "lclsf_cd": "I", "lclsf_nm": "ìê°íê±´ì¡°ì§", "mclsf_cd": "ID", "mclsf_nm": "êµíµìì¤ì§", "sclsf_cd": "ID2", "sclsf_nm": "ì¼ë°ëë¡", "dclsf_cd": "ID2_1", "dclsf_nm": "ê°ë¡ì ìë ì¼ë°ëë¡", "ldc_lc_cd": "A", "ldc_lc_nm": "ìê°íê±´ì¡°ì§ì­", "ldc_mc_cd": "A5", "ldc_mc_nm": "êµíµì§ì­", "ldc_sc_cd": "A54", "ldc_sc_nm": "ëë¡", "shade": 0.2, "heat_score": 21.2 }, "geometry": { "type": "Point", "coordinates": [ 127.0735029, 37.2977069 ] } },
{ "type": "Feature", "properties": { "osmid": 3660798017, "y": 37.3026928, "x": 127.0754937, "junction": null, "street_count": 4, "highway": null, "ref": null, "felt_temp": 36.700706481933594, "heat_grade": 5.0, "index_right": 4223.0, "uid": "ì©ì¸_12793", "sgg_cd": "41460", "sgg_nm": "ì©ì¸ì", "lclsf_cd": "I", "lclsf_nm": "ìê°íê±´ì¡°ì§", "mclsf_cd": "ID", "mclsf_nm": "êµíµìì¤ì§", "sclsf_cd": "ID2", "sclsf_nm": "ì¼ë°ëë¡", "dclsf_cd": "ID2_1", "dclsf_nm": "ê°ë¡ì ìë ì¼ë°ëë¡", "ldc_lc_cd": "A", "ldc_lc_nm": "ìê°íê±´ì¡°ì§ì­", "ldc_mc_cd": "A5", "ldc_mc_nm": "êµíµì§ì­", "ldc_sc_cd": "A54", "ldc_sc_nm": "ëë¡", "shade": 0.2, "heat_score": 22.02 }, "geometry": { "type": "Point", "coordinates": [ 127.07549370000001, 37.3026928 ] } },
{ "type": "Feature", "properties": { "osmid": 842899448, "y": 37.3026709, "x": 127.0785225, "junction": null, "street_count": 3, "highway": null, "ref": null, "felt_temp": 36.666297912597656, "heat_grade": 3.0, "index_right": 4223.0, "uid": "ì©ì¸_12793", "sgg_cd": "41460", "sgg_nm": "ì©ì¸ì", "lclsf_cd": "I", "lclsf_nm": "ìê°íê±´ì¡°ì§", "mclsf_cd": "ID", "mclsf_nm": "êµíµìì¤ì§", "sclsf_cd": "ID2", "sclsf_nm": "ì¼ë°ëë¡", "dclsf_cd": "ID2_1", "dclsf_nm": "ê°ë¡ì ìë ì¼ë°ëë¡", "ldc_lc_cd": "A", "ldc_lc_nm": "ìê°íê±´ì¡°ì§ì­", "ldc_mc_cd": "A5", "ldc_mc_nm": "êµíµì§ì­", "ldc_sc_cd": "A54", "ldc_sc_nm": "ëë¡", "shade": 0.2, "heat_score": 21.2 }, "geometry": { "type": "Point", "coordinates": [ 127.0785225, 37.3026709 ] } },
{ "type": "Feature", "properties": { "osmid": 1824007722, "y": 37.3024198, "x": 127.0806231, "junction": null, "street_count": 3, "highway": null, "ref": null, "felt_temp": 36.797916412353516, "heat_grade": 7.0, "index_right": 4223.0, "uid": "ì©ì¸_12793", "sgg_cd": "41460", "sgg_nm": "ì©ì¸ì", "lclsf_cd": "I", "lclsf_nm": "ìê°íê±´ì¡°ì§", "mclsf_cd": "ID", "mclsf_nm": "êµíµìì¤ì§", "sclsf_cd": "ID2", "sclsf_nm": "ì¼ë°ëë¡", "dclsf_cd": "ID2_1", "dclsf_nm": "ê°ë¡ì ìë ì¼ë°ëë¡", "ldc_lc_cd": "A", "ldc_lc_nm": "ìê°íê±´ì¡°ì§ì­", "ldc_mc_cd": "A5", "ldc_mc_nm": "êµíµì§ì­", "ldc_sc_cd": "A54", "ldc_sc_nm": "ëë¡", "shade": 0.2, "heat_score": 22.88 }, "geometry": { "type": "Point", "coordinates": [ 127.0806231, 37.3024198 ] } },
{ "type": "Feature", "properties": { "osmid": 1824007718, "y": 37.3041943, "x": 127.0809848, "junction": "yes", "street_count": 4, "highway": null, "ref": null, "felt_temp": 36.509609222412109, "heat_grade": 2.0, "index_right": 4223.0, "uid": "ì©ì¸_12793", "sgg_cd": "41460", "sgg_nm": "ì©ì¸ì", "lclsf_cd": "I", "lclsf_nm": "ìê°íê±´ì¡°ì§", "mclsf_cd": "ID", "mclsf_nm": "êµíµìì¤ì§", "sclsf_cd": "ID2", "sclsf_nm": "ì¼ë°ëë¡", "dclsf_cd": "ID2_1", "dclsf_nm": "ê°ë¡ì ìë ì¼ë°ëë¡", "ldc_lc_cd": "A", "ldc_lc_nm": "ìê°íê±´ì¡°ì§ì­", "ldc_mc_cd": "A5", "ldc_mc_nm": "êµíµì§ì­", "ldc_sc_cd": "A54", "ldc_sc_nm": "ëë¡", "shade": 0.2, "heat_score": 20.71 }, "geometry": { "type": "Point", "coordinates": [ 127.0809848, 37.3041943 ] } },
{ "type": "Feature", "properties": { "osmid": 842899450, "y": 37.3053244, "x": 127.0827524, "junction": null, "street_count": 3, "highway": null, "ref": null, "felt_temp": 36.828903198242188, "heat_grade": 8.0, "index_right": 4223.0, "uid": "ì©ì¸_12793", "sgg_cd": "41460", "sgg_nm": "ì©ì¸ì", "lclsf_cd": "I", "lclsf_nm": "ìê°íê±´ì¡°ì§", "mclsf_cd": "ID", "mclsf_nm": "êµíµìì¤ì§", "sclsf_cd": "ID2", "sclsf_nm": "ì¼ë°ëë¡", "dclsf_cd": "ID2_1", "dclsf_nm": "ê°ë¡ì ìë ì¼ë°ëë¡", "ldc_lc_cd": "A", "ldc_lc_nm": "ìê°íê±´ì¡°ì§ì­", "ldc_mc_cd": "A5", "ldc_mc_nm": "êµíµì§ì­", "ldc_sc_cd": "A54", "ldc_sc_nm": "ëë¡", "shade": 0.2, "heat_score": 23.3 }, "geometry": { "type": "Point", "coordinates": [ 127.082752400000018, 37.3053244 ] } },
{ "type": "Feature", "properties": { "osmid": 3692805734, "y": 37.3065922, "x": 127.0840441, "junction": "yes", "street_count": 3, "highway": null, "ref": null, "felt_temp": 36.957492828369141, "heat_grade": 8.0, "index_right": 4223.0, "uid": "ì©ì¸_12793", "sgg_cd": "41460", "sgg_nm": "ì©ì¸ì", "lclsf_cd": "I", "lclsf_nm": "ìê°íê±´ì¡°ì§", "mclsf_cd": "ID", "mclsf_nm": "êµíµìì¤ì§", "sclsf_cd": "ID2", "sclsf_nm": "ì¼ë°ëë¡", "dclsf_cd": "ID2_1", "dclsf_nm": "ê°ë¡ì ìë ì¼ë°ëë¡", "ldc_lc_cd": "A", "ldc_lc_nm": "ìê°íê±´ì¡°ì§ì­", "ldc_mc_cd": "A5", "ldc_mc_nm": "êµíµì§ì­", "ldc_sc_cd": "A54", "ldc_sc_nm": "ëë¡", "shade": 0.2, "heat_score": 23.37 }, "geometry": { "type": "Point", "coordinates": [ 127.084044099999986, 37.3065922 ] } },
{ "type": "Feature", "properties": { "osmid": 3691554532, "y": 37.3052509, "x": 127.0851897, "junction": null, "street_count": 3, "highway": null, "ref": null, "felt_temp": 36.584800720214844, "heat_grade": 2.0, "index_right": 4223.0, "uid": "ì©ì¸_12793", "sgg_cd": "41460", "sgg_nm": "ì©ì¸ì", "lclsf_cd": "I", "lclsf_nm": "ìê°íê±´ì¡°ì§", "mclsf_cd": "ID", "mclsf_nm": "êµíµìì¤ì§", "sclsf_cd": "ID2", "sclsf_nm": "ì¼ë°ëë¡", "dclsf_cd": "ID2_1", "dclsf_nm": "ê°ë¡ì ìë ì¼ë°ëë¡", "ldc_lc_cd": "A", "ldc_lc_nm": "ìê°íê±´ì¡°ì§ì­", "ldc_mc_cd": "A5", "ldc_mc_nm": "êµíµì§ì­", "ldc_sc_cd": "A54", "ldc_sc_nm": "ëë¡", "shade": 0.2, "heat_score": 20.75 }, "geometry": { "type": "Point", "coordinates": [ 127.0851897, 37.305250900000011 ] } },
{ "type": "Feature", "properties": { "osmid": 4558451097, "y": 37.3076137, "x": 127.0850703, "junction": "yes", "street_count": 3, "highway": null, "ref": null, "felt_temp": 36.606319427490234, "heat_grade": 3.0, "index_right": 4223.0, "uid": "ì©ì¸_12793", "sgg_cd": "41460", "sgg_nm": "ì©ì¸ì", "lclsf_cd": "I", "lclsf_nm": "ìê°íê±´ì¡°ì§", "mclsf_cd": "ID", "mclsf_nm": "êµíµìì¤ì§", "sclsf_cd": "ID2", "sclsf_nm": "ì¼ë°ëë¡", "dclsf_cd": "ID2_1", "dclsf_nm": "ê°ë¡ì ìë ì¼ë°ëë¡", "ldc_lc_cd": "A", "ldc_lc_nm": "ìê°íê±´ì¡°ì§ì­", "ldc_mc_cd": "A5", "ldc_mc_nm": "êµíµì§ì­", "ldc_sc_cd": "A54", "ldc_sc_nm": "ëë¡", "shade": 0.2, "heat_score": 21.16 }, "geometry": { "type": "Point", "coordinates": [ 127.0850703, 37.3076137 ] } },
{ "type": "Feature", "properties": { "osmid": 3692802266, "y": 37.3076835, "x": 127.0841896, "junction": "yes", "street_count": 4, "highway": null, "ref": null, "felt_temp": 36.976947784423828, "heat_grade": 8.0, "index_right": 4223.0, "uid": "ì©ì¸_12793", "sgg_cd": "41460", "sgg_nm": "ì©ì¸ì", "lclsf_cd": "I", "lclsf_nm": "ìê°íê±´ì¡°ì§", "mclsf_cd": "ID", "mclsf_nm": "êµíµìì¤ì§", "sclsf_cd": "ID2", "sclsf_nm": "ì¼ë°ëë¡", "dclsf_cd": "ID2_1", "dclsf_nm": "ê°ë¡ì ìë ì¼ë°ëë¡", "ldc_lc_cd": "A", "ldc_lc_nm": "ìê°íê±´ì¡°ì§ì­", "ldc_mc_cd": "A5", "ldc_mc_nm": "êµíµì§ì­", "ldc_sc_cd": "A54", "ldc_sc_nm": "ëë¡", "shade": 0.2, "heat_score": 23.39 }, "geometry": { "type": "Point", "coordinates": [ 127.084189599999988, 37.3076835 ] } },
{ "type": "Feature", "properties": { "osmid": 3692802261, "y": 37.309368, "x": 127.084861, "junction": "yes", "street_count": 3, "highway": null, "ref": null, "felt_temp": 36.50836181640625, "heat_grade": 2.0, "index_right": 4223.0, "uid": "ì©ì¸_12793", "sgg_cd": "41460", "sgg_nm": "ì©ì¸ì", "lclsf_cd": "I", "lclsf_nm": "ìê°íê±´ì¡°ì§", "mclsf_cd": "ID", "mclsf_nm": "êµíµìì¤ì§", "sclsf_cd": "ID2", "sclsf_nm": "ì¼ë°ëë¡", "dclsf_cd": "ID2_1", "dclsf_nm": "ê°ë¡ì ìë ì¼ë°ëë¡", "ldc_lc_cd": "A", "ldc_lc_nm": "ìê°íê±´ì¡°ì§ì­", "ldc_mc_cd": "A5", "ldc_mc_nm": "êµíµì§ì­", "ldc_sc_cd": "A54", "ldc_sc_nm": "ëë¡", "shade": 0.2, "heat_score": 20.71 }, "geometry": { "type": "Point", "coordinates": [ 127.084861, 37.309368 ] } },
{ "type": "Feature", "properties": { "osmid": 3751077470, "y": 37.310132, "x": 127.0838816, "junction": "yes", "street_count": 4, "highway": null, "ref": null, "felt_temp": 36.777118682861328, "heat_grade": 7.0, "index_right": 1889.0, "uid": "ì©ì¸_12777", "sgg_cd": "41460", "sgg_nm": "ì©ì¸ì", "lclsf_cd": "I", "lclsf_nm": "ìê°íê±´ì¡°ì§", "mclsf_cd": "ID", "mclsf_nm": "êµíµìì¤ì§", "sclsf_cd": "ID2", "sclsf_nm": "ì¼ë°ëë¡", "dclsf_cd": "ID2_2", "dclsf_nm": "ê°ë¡ì ìë ì¼ë°ëë¡", "ldc_lc_cd": "A", "ldc_lc_nm": "ìê°íê±´ì¡°ì§ì­", "ldc_mc_cd": "A5", "ldc_mc_nm": "êµíµì§ì­", "ldc_sc_cd": "A54", "ldc_sc_nm": "ëë¡", "shade": 0.2, "heat_score": 22.87 }, "geometry": { "type": "Point", "coordinates": [ 127.0838816, 37.310132 ] } },
{ "type": "Feature", "properties": { "osmid": 3751077474, "y": 37.3105935, "x": 127.0832953, "junction": null, "street_count": 4, "highway": null, "ref": null, "felt_temp": 36.819290161132812, "heat_grade": 8.0, "index_right": 1889.0, "uid": "ì©ì¸_12777", "sgg_cd": "41460", "sgg_nm": "ì©ì¸ì", "lclsf_cd": "I", "lclsf_nm": "ìê°íê±´ì¡°ì§", "mclsf_cd": "ID", "mclsf_nm": "êµíµìì¤ì§", "sclsf_cd": "ID2", "sclsf_nm": "ì¼ë°ëë¡", "dclsf_cd": "ID2_2", "dclsf_nm": "ê°ë¡ì ìë ì¼ë°ëë¡", "ldc_lc_cd": "A", "ldc_lc_nm": "ìê°íê±´ì¡°ì§ì­", "ldc_mc_cd": "A5", "ldc_mc_nm": "êµíµì§ì­", "ldc_sc_cd": "A54", "ldc_sc_nm": "ëë¡", "shade": 0.2, "heat_score": 23.29 }, "geometry": { "type": "Point", "coordinates": [ 127.0832953, 37.31059350000001 ] } },
{ "type": "Feature", "properties": { "osmid": 3844401866, "y": 37.3115699, "x": 127.0820382, "junction": null, "street_count": 3, "highway": null, "ref": null, "felt_temp": 36.721893310546875, "heat_grade": 5.0, "index_right": 4223.0, "uid": "ì©ì¸_12793", "sgg_cd": "41460", "sgg_nm": "ì©ì¸ì", "lclsf_cd": "I", "lclsf_nm": "ìê°íê±´ì¡°ì§", "mclsf_cd": "ID", "mclsf_nm": "êµíµìì¤ì§", "sclsf_cd": "ID2", "sclsf_nm": "ì¼ë°ëë¡", "dclsf_cd": "ID2_1", "dclsf_nm": "ê°ë¡ì ìë ì¼ë°ëë¡", "ldc_lc_cd": "A", "ldc_lc_nm": "ìê°íê±´ì¡°ì§ì­", "ldc_mc_cd": "A5", "ldc_mc_nm": "êµíµì§ì­", "ldc_sc_cd": "A54", "ldc_sc_nm": "ëë¡", "shade": 0.2, "heat_score": 22.03 }, "geometry": { "type": "Point", "coordinates": [ 127.0820382, 37.3115699 ] } },
{ "type": "Feature", "properties": { "osmid": 842899424, "y": 37.3124371, "x": 127.080994, "junction": "yes", "street_count": 3, "highway": null, "ref": null, "felt_temp": 36.984840393066406, "heat_grade": 8.0, "index_right": 4223.0, "uid": "ì©ì¸_12793", "sgg_cd": "41460", "sgg_nm": "ì©ì¸ì", "lclsf_cd": "I", "lclsf_nm": "ìê°íê±´ì¡°ì§", "mclsf_cd": "ID", "mclsf_nm": "êµíµìì¤ì§", "sclsf_cd": "ID2", "sclsf_nm": "ì¼ë°ëë¡", "dclsf_cd": "ID2_1", "dclsf_nm": "ê°ë¡ì ìë ì¼ë°ëë¡", "ldc_lc_cd": "A", "ldc_lc_nm": "ìê°íê±´ì¡°ì§ì­", "ldc_mc_cd": "A5", "ldc_mc_nm": "êµíµì§ì­", "ldc_sc_cd": "A54", "ldc_sc_nm": "ëë¡", "shade": 0.2, "heat_score": 23.39 }, "geometry": { "type": "Point", "coordinates": [ 127.080994, 37.3124371 ] } },
{ "type": "Feature", "properties": { "osmid": 6152750610, "y": 37.3128475, "x": 127.0805981, "junction": null, "street_count": 4, "highway": null, "ref": null, "felt_temp": 36.740272521972656, "heat_grade": 6.0, "index_right": 4223.0, "uid": "ì©ì¸_12793", "sgg_cd": "41460", "sgg_nm": "ì©ì¸ì", "lclsf_cd": "I", "lclsf_nm": "ìê°íê±´ì¡°ì§", "mclsf_cd": "ID", "mclsf_nm": "êµíµìì¤ì§", "sclsf_cd": "ID2", "sclsf_nm": "ì¼ë°ëë¡", "dclsf_cd": "ID2_1", "dclsf_nm": "ê°ë¡ì ìë ì¼ë°ëë¡", "ldc_lc_cd": "A", "ldc_lc_nm": "ìê°íê±´ì¡°ì§ì­", "ldc_mc_cd": "A5", "ldc_mc_nm": "êµíµì§ì­", "ldc_sc_cd": "A54", "ldc_sc_nm": "ëë¡", "shade": 0.2, "heat_score": 22.44 }, "geometry": { "type": "Point", "coordinates": [ 127.0805981, 37.3128475 ] } },
{ "type": "Feature", "properties": { "osmid": 6152750617, "y": 37.3130345, "x": 127.0797676, "junction": null, "street_count": 3, "highway": null, "ref": null, "felt_temp": 36.999423980712891, "heat_grade": 8.0, "index_right": 4223.0, "uid": "ì©ì¸_12793", "sgg_cd": "41460", "sgg_nm": "ì©ì¸ì", "lclsf_cd": "I", "lclsf_nm": "ìê°íê±´ì¡°ì§", "mclsf_cd": "ID", "mclsf_nm": "êµíµìì¤ì§", "sclsf_cd": "ID2", "sclsf_nm": "ì¼ë°ëë¡", "dclsf_cd": "ID2_1", "dclsf_nm": "ê°ë¡ì ìë ì¼ë°ëë¡", "ldc_lc_cd": "A", "ldc_lc_nm": "ìê°íê±´ì¡°ì§ì­", "ldc_mc_cd": "A5", "ldc_mc_nm": "êµíµì§ì­", "ldc_sc_cd": "A54", "ldc_sc_nm": "ëë¡", "shade": 0.2, "heat_score": 23.4 }, "geometry": { "type": "Point", "coordinates": [ 127.0797676, 37.3130345 ] } },
{ "type": "Feature", "properties": { "osmid": 842899426, "y": 37.3133203, "x": 127.0802048, "junction": "yes", "street_count": 4, "highway": null, "ref": null, "felt_temp": 36.810848236083984, "heat_grade": 7.0, "index_right": 4223.0, "uid": "ì©ì¸_12793", "sgg_cd": "41460", "sgg_nm": "ì©ì¸ì", "lclsf_cd": "I", "lclsf_nm": "ìê°íê±´ì¡°ì§", "mclsf_cd": "ID", "mclsf_nm": "êµíµìì¤ì§", "sclsf_cd": "ID2", "sclsf_nm": "ì¼ë°ëë¡", "dclsf_cd": "ID2_1", "dclsf_nm": "ê°ë¡ì ìë ì¼ë°ëë¡", "ldc_lc_cd": "A", "ldc_lc_nm": "ìê°íê±´ì¡°ì§ì­", "ldc_mc_cd": "A5", "ldc_mc_nm": "êµíµì§ì­", "ldc_sc_cd": "A54", "ldc_sc_nm": "ëë¡", "shade": 0.2, "heat_score": 22.89 }, "geometry": { "type": "Point", "coordinates": [ 127.0802048, 37.3133203 ] } },
{ "type": "Feature", "properties": { "osmid": 13539327729, "y": 37.3133947, "x": 127.0801431, "junction": null, "street_count": 4, "highway": null, "ref": null, "felt_temp": 36.822444915771484, "heat_grade": 8.0, "index_right": 4223.0, "uid": "ì©ì¸_12793", "sgg_cd": "41460", "sgg_nm": "ì©ì¸ì", "lclsf_cd": "I", "lclsf_nm": "ìê°íê±´ì¡°ì§", "mclsf_cd": "ID", "mclsf_nm": "êµíµìì¤ì§", "sclsf_cd": "ID2", "sclsf_nm": "ì¼ë°ëë¡", "dclsf_cd": "ID2_1", "dclsf_nm": "ê°ë¡ì ìë ì¼ë°ëë¡", "ldc_lc_cd": "A", "ldc_lc_nm": "ìê°íê±´ì¡°ì§ì­", "ldc_mc_cd": "A5", "ldc_mc_nm": "êµíµì§ì­", "ldc_sc_cd": "A54", "ldc_sc_nm": "ëë¡", "shade": 0.2, "heat_score": 23.29 }, "geometry": { "type": "Point", "coordinates": [ 127.080143100000015, 37.3133947 ] } },
{ "type": "Feature", "properties": { "osmid": 13539327727, "y": 37.3137364, "x": 127.0804595, "junction": null, "street_count": 3, "highway": null, "ref": null, "felt_temp": 36.360073089599609, "heat_grade": 1.0, "index_right": 4223.0, "uid": "ì©ì¸_12793", "sgg_cd": "41460", "sgg_nm": "ì©ì¸ì", "lclsf_cd": "I", "lclsf_nm": "ìê°íê±´ì¡°ì§", "mclsf_cd": "ID", "mclsf_nm": "êµíµìì¤ì§", "sclsf_cd": "ID2", "sclsf_nm": "ì¼ë°ëë¡", "dclsf_cd": "ID2_1", "dclsf_nm": "ê°ë¡ì ìë ì¼ë°ëë¡", "ldc_lc_cd": "A", "ldc_lc_nm": "ìê°íê±´ì¡°ì§ì­", "ldc_mc_cd": "A5", "ldc_mc_nm": "êµíµì§ì­", "ldc_sc_cd": "A54", "ldc_sc_nm": "ëë¡", "shade": 0.2, "heat_score": 20.22 }, "geometry": { "type": "Point", "coordinates": [ 127.0804595, 37.31373640000001 ] } },
{ "type": "Feature", "properties": { "osmid": 13539327749, "y": 37.3149003, "x": 127.0811156, "junction": null, "street_count": 4, "highway": null, "ref": null, "felt_temp": 36.864578247070312, "heat_grade": 8.0, "index_right": 4223.0, "uid": "ì©ì¸_12793", "sgg_cd": "41460", "sgg_nm": "ì©ì¸ì", "lclsf_cd": "I", "lclsf_nm": "ìê°íê±´ì¡°ì§", "mclsf_cd": "ID", "mclsf_nm": "êµíµìì¤ì§", "sclsf_cd": "ID2", "sclsf_nm": "ì¼ë°ëë¡", "dclsf_cd": "ID2_1", "dclsf_nm": "ê°ë¡ì ìë ì¼ë°ëë¡", "ldc_lc_cd": "A", "ldc_lc_nm": "ìê°íê±´ì¡°ì§ì­", "ldc_mc_cd": "A5", "ldc_mc_nm": "êµíµì§ì­", "ldc_sc_cd": "A54", "ldc_sc_nm": "ëë¡", "shade": 0.2, "heat_score": 23.32 }, "geometry": { "type": "Point", "coordinates": [ 127.0811156, 37.3149003 ] } },
{ "type": "Feature", "properties": { "osmid": 13539327739, "y": 37.315757, "x": 127.0816127, "junction": "yes", "street_count": 3, "highway": null, "ref": null, "felt_temp": 36.888355255126953, "heat_grade": 8.0, "index_right": 4223.0, "uid": "ì©ì¸_12793", "sgg_cd": "41460", "sgg_nm": "ì©ì¸ì", "lclsf_cd": "I", "lclsf_nm": "ìê°íê±´ì¡°ì§", "mclsf_cd": "ID", "mclsf_nm": "êµíµìì¤ì§", "sclsf_cd": "ID2", "sclsf_nm": "ì¼ë°ëë¡", "dclsf_cd": "ID2_1", "dclsf_nm": "ê°ë¡ì ìë ì¼ë°ëë¡", "ldc_lc_cd": "A", "ldc_lc_nm": "ìê°íê±´ì¡°ì§ì­", "ldc_mc_cd": "A5", "ldc_mc_nm": "êµíµì§ì­", "ldc_sc_cd": "A54", "ldc_sc_nm": "ëë¡", "shade": 0.2, "heat_score": 23.33 }, "geometry": { "type": "Point", "coordinates": [ 127.0816127, 37.315757 ] } },
{ "type": "Feature", "properties": { "osmid": 3655078943, "y": 37.3157166, "x": 127.0817247, "junction": null, "street_count": 4, "highway": null, "ref": null, "felt_temp": 36.864089965820312, "heat_grade": 8.0, "index_right": 4223.0, "uid": "ì©ì¸_12793", "sgg_cd": "41460", "sgg_nm": "ì©ì¸ì", "lclsf_cd": "I", "lclsf_nm": "ìê°íê±´ì¡°ì§", "mclsf_cd": "ID", "mclsf_nm": "êµíµìì¤ì§", "sclsf_cd": "ID2", "sclsf_nm": "ì¼ë°ëë¡", "dclsf_cd": "ID2_1", "dclsf_nm": "ê°ë¡ì ìë ì¼ë°ëë¡", "ldc_lc_cd": "A", "ldc_lc_nm": "ìê°íê±´ì¡°ì§ì­", "ldc_mc_cd": "A5", "ldc_mc_nm": "êµíµì§ì­", "ldc_sc_cd": "A54", "ldc_sc_nm": "ëë¡", "shade": 0.2, "heat_score": 23.32 }, "geometry": { "type": "Point", "coordinates": [ 127.0817247, 37.3157166 ] } },
{ "type": "Feature", "properties": { "osmid": 3520971522, "y": 37.3148607, "x": 127.0812346, "junction": "yes", "street_count": 3, "highway": null, "ref": null, "felt_temp": 36.880741119384766, "heat_grade": 8.0, "index_right": 4223.0, "uid": "ì©ì¸_12793", "sgg_cd": "41460", "sgg_nm": "ì©ì¸ì", "lclsf_cd": "I", "lclsf_nm": "ìê°íê±´ì¡°ì§", "mclsf_cd": "ID", "mclsf_nm": "êµíµìì¤ì§", "sclsf_cd": "ID2", "sclsf_nm": "ì¼ë°ëë¡", "dclsf_cd": "ID2_1", "dclsf_nm": "ê°ë¡ì ìë ì¼ë°ëë¡", "ldc_lc_cd": "A", "ldc_lc_nm": "ìê°íê±´ì¡°ì§ì­", "ldc_mc_cd": "A5", "ldc_mc_nm": "êµíµì§ì­", "ldc_sc_cd": "A54", "ldc_sc_nm": "ëë¡", "shade": 0.2, "heat_score": 23.33 }, "geometry": { "type": "Point", "coordinates": [ 127.081234600000016, 37.3148607 ] } },
{ "type": "Feature", "properties": { "osmid": 1978988811, "y": 37.3140318, "x": 127.080819, "junction": null, "street_count": 3, "highway": null, "ref": null, "felt_temp": 36.50421142578125, "heat_grade": 2.0, "index_right": 4223.0, "uid": "ì©ì¸_12793", "sgg_cd": "41460", "sgg_nm": "ì©ì¸ì", "lclsf_cd": "I", "lclsf_nm": "ìê°íê±´ì¡°ì§", "mclsf_cd": "ID", "mclsf_nm": "êµíµìì¤ì§", "sclsf_cd": "ID2", "sclsf_nm": "ì¼ë°ëë¡", "dclsf_cd": "ID2_1", "dclsf_nm": "ê°ë¡ì ìë ì¼ë°ëë¡", "ldc_lc_cd": "A", "ldc_lc_nm": "ìê°íê±´ì¡°ì§ì­", "ldc_mc_cd": "A5", "ldc_mc_nm": "êµíµì§ì­", "ldc_sc_cd": "A54", "ldc_sc_nm": "ëë¡", "shade": 0.2, "heat_score": 20.7 }, "geometry": { "type": "Point", "coordinates": [ 127.080819, 37.3140318 ] } },
{ "type": "Feature", "properties": { "osmid": 4162278681, "y": 37.3135843, "x": 127.0836829, "junction": null, "street_count": 3, "highway": null, "ref": null, "felt_temp": 35.799015045166016, "heat_grade": 1.0, "index_right": 4223.0, "uid": "ì©ì¸_12793", "sgg_cd": "41460", "sgg_nm": "ì©ì¸ì", "lclsf_cd": "I", "lclsf_nm": "ìê°íê±´ì¡°ì§", "mclsf_cd": "ID", "mclsf_nm": "êµíµìì¤ì§", "sclsf_cd": "ID2", "sclsf_nm": "ì¼ë°ëë¡", "dclsf_cd": "ID2_1", "dclsf_nm": "ê°ë¡ì ìë ì¼ë°ëë¡", "ldc_lc_cd": "A", "ldc_lc_nm": "ìê°íê±´ì¡°ì§ì­", "ldc_mc_cd": "A5", "ldc_mc_nm": "êµíµì§ì­", "ldc_sc_cd": "A54", "ldc_sc_nm": "ëë¡", "shade": 0.2, "heat_score": 19.88 }, "geometry": { "type": "Point", "coordinates": [ 127.0836829, 37.3135843 ] } },
{ "type": "Feature", "properties": { "osmid": 3689716839, "y": 37.3140739, "x": 127.0855943, "junction": null, "street_count": 5, "highway": "mini_roundabout", "ref": null, "felt_temp": 36.842967987060547, "heat_grade": 8.0, "index_right": 1889.0, "uid": "ì©ì¸_12777", "sgg_cd": "41460", "sgg_nm": "ì©ì¸ì", "lclsf_cd": "I", "lclsf_nm": "ìê°íê±´ì¡°ì§", "mclsf_cd": "ID", "mclsf_nm": "êµíµìì¤ì§", "sclsf_cd": "ID2", "sclsf_nm": "ì¼ë°ëë¡", "dclsf_cd": "ID2_2", "dclsf_nm": "ê°ë¡ì ìë ì¼ë°ëë¡", "ldc_lc_cd": "A", "ldc_lc_nm": "ìê°íê±´ì¡°ì§ì­", "ldc_mc_cd": "A5", "ldc_mc_nm": "êµíµì§ì­", "ldc_sc_cd": "A54", "ldc_sc_nm": "ëë¡", "shade": 0.2, "heat_score": 23.31 }, "geometry": { "type": "Point", "coordinates": [ 127.085594300000011, 37.3140739 ] } },
{ "type": "Feature", "properties": { "osmid": 3690924094, "y": 37.3148957, "x": 127.0869092, "junction": null, "street_count": 3, "highway": null, "ref": null, "felt_temp": 36.719291687011719, "heat_grade": 5.0, "index_right": 1889.0, "uid": "ì©ì¸_12777", "sgg_cd": "41460", "sgg_nm": "ì©ì¸ì", "lclsf_cd": "I", "lclsf_nm": "ìê°íê±´ì¡°ì§", "mclsf_cd": "ID", "mclsf_nm": "êµíµìì¤ì§", "sclsf_cd": "ID2", "sclsf_nm": "ì¼ë°ëë¡", "dclsf_cd": "ID2_2", "dclsf_nm": "ê°ë¡ì ìë ì¼ë°ëë¡", "ldc_lc_cd": "A", "ldc_lc_nm": "ìê°íê±´ì¡°ì§ì­", "ldc_mc_cd": "A5", "ldc_mc_nm": "êµíµì§ì­", "ldc_sc_cd": "A54", "ldc_sc_nm": "ëë¡", "shade": 0.2, "heat_score": 22.03 }, "geometry": { "type": "Point", "coordinates": [ 127.0869092, 37.3148957 ] } },
{ "type": "Feature", "properties": { "osmid": 414694400, "y": 37.3148744, "x": 127.0872447, "junction": "yes", "street_count": 5, "highway": null, "ref": null, "felt_temp": 37.161308288574219, "heat_grade": 10.0, "index_right": 4223.0, "uid": "ì©ì¸_12793", "sgg_cd": "41460", "sgg_nm": "ì©ì¸ì", "lclsf_cd": "I", "lclsf_nm": "ìê°íê±´ì¡°ì§", "mclsf_cd": "ID", "mclsf_nm": "êµíµìì¤ì§", "sclsf_cd": "ID2", "sclsf_nm": "ì¼ë°ëë¡", "dclsf_cd": "ID2_1", "dclsf_nm": "ê°ë¡ì ìë ì¼ë°ëë¡", "ldc_lc_cd": "A", "ldc_lc_nm": "ìê°íê±´ì¡°ì§ì­", "ldc_mc_cd": "A5", "ldc_mc_nm": "êµíµì§ì­", "ldc_sc_cd": "A54", "ldc_sc_nm": "ëë¡", "shade": 0.2, "heat_score": 24.3 }, "geometry": { "type": "Point", "coordinates": [ 127.087244700000014, 37.3148744 ] } },
{ "type": "Feature", "properties": { "osmid": 7857925268, "y": 37.3126107, "x": 127.0849889, "junction": null, "street_count": 3, "highway": null, "ref": null, "felt_temp": 36.629047393798828, "heat_grade": 3.0, "index_right": 1889.0, "uid": "ì©ì¸_12777", "sgg_cd": "41460", "sgg_nm": "ì©ì¸ì", "lclsf_cd": "I", "lclsf_nm": "ìê°íê±´ì¡°ì§", "mclsf_cd": "ID", "mclsf_nm": "êµíµìì¤ì§", "sclsf_cd": "ID2", "sclsf_nm": "ì¼ë°ëë¡", "dclsf_cd": "ID2_2", "dclsf_nm": "ê°ë¡ì ìë ì¼ë°ëë¡", "ldc_lc_cd": "A", "ldc_lc_nm": "ìê°íê±´ì¡°ì§ì­", "ldc_mc_cd": "A5", "ldc_mc_nm": "êµíµì§ì­", "ldc_sc_cd": "A54", "ldc_sc_nm": "ëë¡", "shade": 0.2, "heat_score": 21.18 }, "geometry": { "type": "Point", "coordinates": [ 127.0849889, 37.3126107 ] } },
{ "type": "Feature", "properties": { "osmid": 3751077470, "y": 37.310132, "x": 127.0838816, "junction": "yes", "street_count": 4, "highway": null, "ref": null, "felt_temp": 36.777118682861328, "heat_grade": 7.0, "index_right": 1889.0, "uid": "ì©ì¸_12777", "sgg_cd": "41460", "sgg_nm": "ì©ì¸ì", "lclsf_cd": "I", "lclsf_nm": "ìê°íê±´ì¡°ì§", "mclsf_cd": "ID", "mclsf_nm": "êµíµìì¤ì§", "sclsf_cd": "ID2", "sclsf_nm": "ì¼ë°ëë¡", "dclsf_cd": "ID2_2", "dclsf_nm": "ê°ë¡ì ìë ì¼ë°ëë¡", "ldc_lc_cd": "A", "ldc_lc_nm": "ìê°íê±´ì¡°ì§ì­", "ldc_mc_cd": "A5", "ldc_mc_nm": "êµíµì§ì­", "ldc_sc_cd": "A54", "ldc_sc_nm": "ëë¡", "shade": 0.2, "heat_score": 22.87 }, "geometry": { "type": "Point", "coordinates": [ 127.0838816, 37.310132 ] } },
{ "type": "Feature", "properties": { "osmid": 7857925252, "y": 37.307636, "x": 127.0815852, "junction": null, "street_count": 3, "highway": null, "ref": null, "felt_temp": 36.281837463378906, "heat_grade": 1.0, "index_right": 1889.0, "uid": "ì©ì¸_12777", "sgg_cd": "41460", "sgg_nm": "ì©ì¸ì", "lclsf_cd": "I", "lclsf_nm": "ìê°íê±´ì¡°ì§", "mclsf_cd": "ID", "mclsf_nm": "êµíµìì¤ì§", "sclsf_cd": "ID2", "sclsf_nm": "ì¼ë°ëë¡", "dclsf_cd": "ID2_2", "dclsf_nm": "ê°ë¡ì ìë ì¼ë°ëë¡", "ldc_lc_cd": "A", "ldc_lc_nm": "ìê°íê±´ì¡°ì§ì­", "ldc_mc_cd": "A5", "ldc_mc_nm": "êµíµì§ì­", "ldc_sc_cd": "A54", "ldc_sc_nm": "ëë¡", "shade": 0.2, "heat_score": 20.17 }, "geometry": { "type": "Point", "coordinates": [ 127.0815852, 37.307636 ] } },
{ "type": "Feature", "properties": { "osmid": 7857925244, "y": 37.3056832, "x": 127.0787577, "junction": null, "street_count": 3, "highway": null, "ref": null, "felt_temp": 36.203388214111328, "heat_grade": 1.0, "index_right": 1644.0, "uid": "ì©ì¸_2216", "sgg_cd": "41460", "sgg_nm": "ì©ì¸ì", "lclsf_cd": "H", "lclsf_nm": "ì¡°ì±ë¹ì§", "mclsf_cd": "HB", "mclsf_nm": "íê²½ê°ì ë¹ì§", "sclsf_cd": "HB2", "sclsf_nm": "ìì¶© ë° ê²½ê´ë¹ì§", "dclsf_cd": null, "dclsf_nm": null, "ldc_lc_cd": "D", "ldc_lc_nm": "ì´ì§", "ldc_mc_cd": "D2", "ldc_mc_nm": "ì¸ê³µì´ì§", "ldc_sc_cd": "D23", "ldc_sc_nm": "ê¸°íì´ì§", "shade": 0.2, "heat_score": 20.12 }, "geometry": { "type": "Point", "coordinates": [ 127.078757699999983, 37.3056832 ] } },
{ "type": "Feature", "properties": { "osmid": 4569903226, "y": 37.3032345, "x": 127.0747104, "junction": null, "street_count": 3, "highway": null, "ref": null, "felt_temp": 36.425434112548828, "heat_grade": 1.0, "index_right": 1889.0, "uid": "ì©ì¸_12777", "sgg_cd": "41460", "sgg_nm": "ì©ì¸ì", "lclsf_cd": "I", "lclsf_nm": "ìê°íê±´ì¡°ì§", "mclsf_cd": "ID", "mclsf_nm": "êµíµìì¤ì§", "sclsf_cd": "ID2", "sclsf_nm": "ì¼ë°ëë¡", "dclsf_cd": "ID2_2", "dclsf_nm": "ê°ë¡ì ìë ì¼ë°ëë¡", "ldc_lc_cd": "A", "ldc_lc_nm": "ìê°íê±´ì¡°ì§ì­", "ldc_mc_cd": "A5", "ldc_mc_nm": "êµíµì§ì­", "ldc_sc_cd": "A54", "ldc_sc_nm": "ëë¡", "shade": 0.2, "heat_score": 20.26 }, "geometry": { "type": "Point", "coordinates": [ 127.0747104, 37.3032345 ] } },
{ "type": "Feature", "properties": { "osmid": 7179444058, "y": 37.3030394, "x": 127.0743944, "junction": null, "street_count": 4, "highway": null, "ref": null, "felt_temp": 36.997943878173828, "heat_grade": 8.0, "index_right": 4223.0, "uid": "ì©ì¸_12793", "sgg_cd": "41460", "sgg_nm": "ì©ì¸ì", "lclsf_cd": "I", "lclsf_nm": "ìê°íê±´ì¡°ì§", "mclsf_cd": "ID", "mclsf_nm": "êµíµìì¤ì§", "sclsf_cd": "ID2", "sclsf_nm": "ì¼ë°ëë¡", "dclsf_cd": "ID2_1", "dclsf_nm": "ê°ë¡ì ìë ì¼ë°ëë¡", "ldc_lc_cd": "A", "ldc_lc_nm": "ìê°íê±´ì¡°ì§ì­", "ldc_mc_cd": "A5", "ldc_mc_nm": "êµíµì§ì­", "ldc_sc_cd": "A54", "ldc_sc_nm": "ëë¡", "shade": 0.2, "heat_score": 23.4 }, "geometry": { "type": "Point", "coordinates": [ 127.0743944, 37.3030394 ] } },
{ "type": "Feature", "properties": { "osmid": 4708513142, "y": 37.3028345, "x": 127.0746297, "junction": null, "street_count": 5, "highway": null, "ref": null, "felt_temp": 36.398815155029297, "heat_grade": 1.0, "index_right": 4223.0, "uid": "ì©ì¸_12793", "sgg_cd": "41460", "sgg_nm": "ì©ì¸ì", "lclsf_cd": "I", "lclsf_nm": "ìê°íê±´ì¡°ì§", "mclsf_cd": "ID", "mclsf_nm": "êµíµìì¤ì§", "sclsf_cd": "ID2", "sclsf_nm": "ì¼ë°ëë¡", "dclsf_cd": "ID2_1", "dclsf_nm": "ê°ë¡ì ìë ì¼ë°ëë¡", "ldc_lc_cd": "A", "ldc_lc_nm": "ìê°íê±´ì¡°ì§ì­", "ldc_mc_cd": "A5", "ldc_mc_nm": "êµíµì§ì­", "ldc_sc_cd": "A54", "ldc_sc_nm": "ëë¡", "shade": 0.2, "heat_score": 20.24 }, "geometry": { "type": "Point", "coordinates": [ 127.0746297, 37.3028345 ] } },
{ "type": "Feature", "properties": { "osmid": 7179444076, "y": 37.3028768, "x": 127.074137, "junction": null, "street_count": 3, "highway": null, "ref": null, "felt_temp": 36.915081024169922, "heat_grade": 8.0, "index_right": 4223.0, "uid": "ì©ì¸_12793", "sgg_cd": "41460", "sgg_nm": "ì©ì¸ì", "lclsf_cd": "I", "lclsf_nm": "ìê°íê±´ì¡°ì§", "mclsf_cd": "ID", "mclsf_nm": "êµíµìì¤ì§", "sclsf_cd": "ID2", "sclsf_nm": "ì¼ë°ëë¡", "dclsf_cd": "ID2_1", "dclsf_nm": "ê°ë¡ì ìë ì¼ë°ëë¡", "ldc_lc_cd": "A", "ldc_lc_nm": "ìê°íê±´ì¡°ì§ì­", "ldc_mc_cd": "A5", "ldc_mc_nm": "êµíµì§ì­", "ldc_sc_cd": "A54", "ldc_sc_nm": "ëë¡", "shade": 0.2, "heat_score": 23.35 }, "geometry": { "type": "Point", "coordinates": [ 127.074137, 37.3028768 ] } },
{ "type": "Feature", "properties": { "osmid": 6820615302, "y": 37.3018064, "x": 127.0723612, "junction": "yes", "street_count": 4, "highway": null, "ref": null, "felt_temp": 36.613399505615234, "heat_grade": 3.0, "index_right": 4223.0, "uid": "ì©ì¸_12793", "sgg_cd": "41460", "sgg_nm": "ì©ì¸ì", "lclsf_cd": "I", "lclsf_nm": "ìê°íê±´ì¡°ì§", "mclsf_cd": "ID", "mclsf_nm": "êµíµìì¤ì§", "sclsf_cd": "ID2", "sclsf_nm": "ì¼ë°ëë¡", "dclsf_cd": "ID2_1", "dclsf_nm": "ê°ë¡ì ìë ì¼ë°ëë¡", "ldc_lc_cd": "A", "ldc_lc_nm": "ìê°íê±´ì¡°ì§ì­", "ldc_mc_cd": "A5", "ldc_mc_nm": "êµíµì§ì­", "ldc_sc_cd": "A54", "ldc_sc_nm": "ëë¡", "shade": 0.2, "heat_score": 21.17 }, "geometry": { "type": "Point", "coordinates": [ 127.0723612, 37.301806400000011 ] } },
{ "type": "Feature", "properties": { "osmid": 6820615290, "y": 37.3020378, "x": 127.07215, "junction": null, "street_count": 4, "highway": null, "ref": null, "felt_temp": 36.83477783203125, "heat_grade": 8.0, "index_right": 4223.0, "uid": "ì©ì¸_12793", "sgg_cd": "41460", "sgg_nm": "ì©ì¸ì", "lclsf_cd": "I", "lclsf_nm": "ìê°íê±´ì¡°ì§", "mclsf_cd": "ID", "mclsf_nm": "êµíµìì¤ì§", "sclsf_cd": "ID2", "sclsf_nm": "ì¼ë°ëë¡", "dclsf_cd": "ID2_1", "dclsf_nm": "ê°ë¡ì ìë ì¼ë°ëë¡", "ldc_lc_cd": "A", "ldc_lc_nm": "ìê°íê±´ì¡°ì§ì­", "ldc_mc_cd": "A5", "ldc_mc_nm": "êµíµì§ì­", "ldc_sc_cd": "A54", "ldc_sc_nm": "ëë¡", "shade": 0.2, "heat_score": 23.3 }, "geometry": { "type": "Point", "coordinates": [ 127.07215, 37.3020378 ] } },
{ "type": "Feature", "properties": { "osmid": 6820615301, "y": 37.3010524, "x": 127.070317, "junction": null, "street_count": 3, "highway": null, "ref": null, "felt_temp": 36.446075439453125, "heat_grade": 1.0, "index_right": 4223.0, "uid": "ì©ì¸_12793", "sgg_cd": "41460", "sgg_nm": "ì©ì¸ì", "lclsf_cd": "I", "lclsf_nm": "ìê°íê±´ì¡°ì§", "mclsf_cd": "ID", "mclsf_nm": "êµíµìì¤ì§", "sclsf_cd": "ID2", "sclsf_nm": "ì¼ë°ëë¡", "dclsf_cd": "ID2_1", "dclsf_nm": "ê°ë¡ì ìë ì¼ë°ëë¡", "ldc_lc_cd": "A", "ldc_lc_nm": "ìê°íê±´ì¡°ì§ì­", "ldc_mc_cd": "A5", "ldc_mc_nm": "êµíµì§ì­", "ldc_sc_cd": "A54", "ldc_sc_nm": "ëë¡", "shade": 0.2, "heat_score": 20.27 }, "geometry": { "type": "Point", "coordinates": [ 127.070317, 37.3010524 ] } },
{ "type": "Feature", "properties": { "osmid": 3790582564, "y": 37.3008565, "x": 127.0699381, "junction": null, "street_count": 3, "highway": null, "ref": null, "felt_temp": 37.125492095947266, "heat_grade": 9.0, "index_right": 4223.0, "uid": "ì©ì¸_12793", "sgg_cd": "41460", "sgg_nm": "ì©ì¸ì", "lclsf_cd": "I", "lclsf_nm": "ìê°íê±´ì¡°ì§", "mclsf_cd": "ID", "mclsf_nm": "êµíµìì¤ì§", "sclsf_cd": "ID2", "sclsf_nm": "ì¼ë°ëë¡", "dclsf_cd": "ID2_1", "dclsf_nm": "ê°ë¡ì ìë ì¼ë°ëë¡", "ldc_lc_cd": "A", "ldc_lc_nm": "ìê°íê±´ì¡°ì§ì­", "ldc_mc_cd": "A5", "ldc_mc_nm": "êµíµì§ì­", "ldc_sc_cd": "A54", "ldc_sc_nm": "ëë¡", "shade": 0.2, "heat_score": 23.88 }, "geometry": { "type": "Point", "coordinates": [ 127.069938100000016, 37.3008565 ] } },
{ "type": "Feature", "properties": { "osmid": 3790816771, "y": 37.3006128, "x": 127.0701346, "junction": null, "street_count": 4, "highway": null, "ref": null, "felt_temp": 36.697883605957031, "heat_grade": 5.0, "index_right": 4223.0, "uid": "ì©ì¸_12793", "sgg_cd": "41460", "sgg_nm": "ì©ì¸ì", "lclsf_cd": "I", "lclsf_nm": "ìê°íê±´ì¡°ì§", "mclsf_cd": "ID", "mclsf_nm": "êµíµìì¤ì§", "sclsf_cd": "ID2", "sclsf_nm": "ì¼ë°ëë¡", "dclsf_cd": "ID2_1", "dclsf_nm": "ê°ë¡ì ìë ì¼ë°ëë¡", "ldc_lc_cd": "A", "ldc_lc_nm": "ìê°íê±´ì¡°ì§ì­", "ldc_mc_cd": "A5", "ldc_mc_nm": "êµíµì§ì­", "ldc_sc_cd": "A54", "ldc_sc_nm": "ëë¡", "shade": 0.2, "heat_score": 22.02 }, "geometry": { "type": "Point", "coordinates": [ 127.070134600000017, 37.30061280000001 ] } },
{ "type": "Feature", "properties": { "osmid": 3790816770, "y": 37.3000887, "x": 127.0699897, "junction": null, "street_count": 3, "highway": null, "ref": null, "felt_temp": 36.812282562255859, "heat_grade": 7.0, "index_right": 4223.0, "uid": "ì©ì¸_12793", "sgg_cd": "41460", "sgg_nm": "ì©ì¸ì", "lclsf_cd": "I", "lclsf_nm": "ìê°íê±´ì¡°ì§", "mclsf_cd": "ID", "mclsf_nm": "êµíµìì¤ì§", "sclsf_cd": "ID2", "sclsf_nm": "ì¼ë°ëë¡", "dclsf_cd": "ID2_1", "dclsf_nm": "ê°ë¡ì ìë ì¼ë°ëë¡", "ldc_lc_cd": "A", "ldc_lc_nm": "ìê°íê±´ì¡°ì§ì­", "ldc_mc_cd": "A5", "ldc_mc_nm": "êµíµì§ì­", "ldc_sc_cd": "A54", "ldc_sc_nm": "ëë¡", "shade": 0.2, "heat_score": 22.89 }, "geometry": { "type": "Point", "coordinates": [ 127.0699897, 37.3000887 ] } },
{ "type": "Feature", "properties": { "osmid": 3187954871, "y": 37.2987113, "x": 127.0696177, "junction": "yes", "street_count": 4, "highway": null, "ref": null, "felt_temp": 36.789409637451172, "heat_grade": 7.0, "index_right": 4223.0, "uid": "ì©ì¸_12793", "sgg_cd": "41460", "sgg_nm": "ì©ì¸ì", "lclsf_cd": "I", "lclsf_nm": "ìê°íê±´ì¡°ì§", "mclsf_cd": "ID", "mclsf_nm": "êµíµìì¤ì§", "sclsf_cd": "ID2", "sclsf_nm": "ì¼ë°ëë¡", "dclsf_cd": "ID2_1", "dclsf_nm": "ê°ë¡ì ìë ì¼ë°ëë¡", "ldc_lc_cd": "A", "ldc_lc_nm": "ìê°íê±´ì¡°ì§ì­", "ldc_mc_cd": "A5", "ldc_mc_nm": "êµíµì§ì­", "ldc_sc_cd": "A54", "ldc_sc_nm": "ëë¡", "shade": 0.2, "heat_score": 22.87 }, "geometry": { "type": "Point", "coordinates": [ 127.0696177, 37.2987113 ] } },
{ "type": "Feature", "properties": { "osmid": 3790849638, "y": 37.2983176, "x": 127.0716431, "junction": "yes", "street_count": 3, "highway": null, "ref": null, "felt_temp": 36.654678344726562, "heat_grade": 3.0, "index_right": 4223.0, "uid": "ì©ì¸_12793", "sgg_cd": "41460", "sgg_nm": "ì©ì¸ì", "lclsf_cd": "I", "lclsf_nm": "ìê°íê±´ì¡°ì§", "mclsf_cd": "ID", "mclsf_nm": "êµíµìì¤ì§", "sclsf_cd": "ID2", "sclsf_nm": "ì¼ë°ëë¡", "dclsf_cd": "ID2_1", "dclsf_nm": "ê°ë¡ì ìë ì¼ë°ëë¡", "ldc_lc_cd": "A", "ldc_lc_nm": "ìê°íê±´ì¡°ì§ì­", "ldc_mc_cd": "A5", "ldc_mc_nm": "êµíµì§ì­", "ldc_sc_cd": "A54", "ldc_sc_nm": "ëë¡", "shade": 0.2, "heat_score": 21.19 }, "geometry": { "type": "Point", "coordinates": [ 127.071643100000017, 37.2983176 ] } },
{ "type": "Feature", "properties": { "osmid": 3662166668, "y": 37.2966549, "x": 127.0708174, "junction": null, "street_count": 3, "highway": null, "ref": null, "felt_temp": 36.375995635986328, "heat_grade": 1.0, "index_right": 285.0, "uid": "ì©ì¸_4096", "sgg_cd": "41460", "sgg_nm": "ì©ì¸ì", "lclsf_cd": "I", "lclsf_nm": "ìê°íê±´ì¡°ì§", "mclsf_cd": "IA", "mclsf_nm": "ê³µëì£¼íì§", "sclsf_cd": "IA1", "sclsf_nm": "ê³ ì¸µ ê³µëì£¼íë¨ì§", "dclsf_cd": "IA1_2", "dclsf_nm": "ê³ ì¸µ ê³µëì£¼íìì¤", "ldc_lc_cd": "A", "ldc_lc_nm": "ìê°íê±´ì¡°ì§ì­", "ldc_mc_cd": "A1", "ldc_mc_nm": "ì£¼ê±°ì§ì­", "ldc_sc_cd": "A12", "ldc_sc_nm": "ê³µëì£¼ê±°ìì¤", "shade": 0.2, "heat_score": 20.23 }, "geometry": { "type": "Point", "coordinates": [ 127.0708174, 37.2966549 ] } },
{ "type": "Feature", "properties": { "osmid": 3662168493, "y": 37.296939, "x": 127.0730328, "junction": null, "street_count": 3, "highway": null, "ref": null, "felt_temp": 36.597354888916016, "heat_grade": 3.0, "index_right": 285.0, "uid": "ì©ì¸_4096", "sgg_cd": "41460", "sgg_nm": "ì©ì¸ì", "lclsf_cd": "I", "lclsf_nm": "ìê°íê±´ì¡°ì§", "mclsf_cd": "IA", "mclsf_nm": "ê³µëì£¼íì§", "sclsf_cd": "IA1", "sclsf_nm": "ê³ ì¸µ ê³µëì£¼íë¨ì§", "dclsf_cd": "IA1_2", "dclsf_nm": "ê³ ì¸µ ê³µëì£¼íìì¤", "ldc_lc_cd": "A", "ldc_lc_nm": "ìê°íê±´ì¡°ì§ì­", "ldc_mc_cd": "A1", "ldc_mc_nm": "ì£¼ê±°ì§ì­", "ldc_sc_cd": "A12", "ldc_sc_nm": "ê³µëì£¼ê±°ìì¤", "shade": 0.2, "heat_score": 21.16 }, "geometry": { "type": "Point", "coordinates": [ 127.0730328, 37.296939 ] } },
{ "type": "Feature", "properties": { "osmid": 3662168684, "y": 37.2969003, "x": 127.0732781, "junction": null, "street_count": 3, "highway": null, "ref": null, "felt_temp": 36.425430297851562, "heat_grade": 1.0, "index_right": 4223.0, "uid": "ì©ì¸_12793", "sgg_cd": "41460", "sgg_nm": "ì©ì¸ì", "lclsf_cd": "I", "lclsf_nm": "ìê°íê±´ì¡°ì§", "mclsf_cd": "ID", "mclsf_nm": "êµíµìì¤ì§", "sclsf_cd": "ID2", "sclsf_nm": "ì¼ë°ëë¡", "dclsf_cd": "ID2_1", "dclsf_nm": "ê°ë¡ì ìë ì¼ë°ëë¡", "ldc_lc_cd": "A", "ldc_lc_nm": "ìê°íê±´ì¡°ì§ì­", "ldc_mc_cd": "A5", "ldc_mc_nm": "êµíµì§ì­", "ldc_sc_cd": "A54", "ldc_sc_nm": "ëë¡", "shade": 0.2, "heat_score": 20.26 }, "geometry": { "type": "Point", "coordinates": [ 127.0732781, 37.2969003 ] } }
]
}
