{
"type": "FeatureCollection",
"name": "cool_cycle_1km_route2_nodes",
"crs": { "type": "name", "properties": { "name": "urn:ogc:def:crs:OGC:1.3:CRS84" } },
"features": [
{ "type": "Feature", "properties": { "osmid": 4311916814, "y": 37.3315367, "x": 127.1001698, "junction": null, "street_count": 4, "highway": null, "ref": null, "felt_temp": 35.944362640380859, "heat_grade": 1.0, "index_right": 9083.0, "uid": "ì©ì¸_119266", "sgg_cd": "41460", "sgg_nm": "ì©ì¸ì", "lclsf_cd": "I", "lclsf_nm": "ìê°íê±´ì¡°ì§", "mclsf_cd": "ID", "mclsf_nm": "êµíµìì¤ì§", "sclsf_cd": "ID2", "sclsf_nm": "ì¼ë°ëë¡", "dclsf_cd": "ID2_2", "dclsf_nm": "ê°ë¡ì ìë ì¼ë°ëë¡", "ldc_lc_cd": "A", "ldc_lc_nm": "ìê°íê±´ì¡°ì§ì­", "ldc_mc_cd": "A5", "ldc_mc_nm": "êµíµì§ì­", "ldc_sc_cd": "A54", "ldc_sc_nm": "ëë¡", "shade": 0.2, "heat_score": 19.97 }, "geometry": { "type": "Point", "coordinates": [ 127.1001698, 37.3315367 ] } },
{ "type": "Feature", "properties": { "osmid": 3641655908, "y": 37.3315409, "x": 127.100849, "junction": null, "street_count": 3, "highway": null, "ref": null, "felt_temp": 36.436534881591797, "heat_grade": 1.0, "index_right": 9085.0, "uid": "ì©ì¸_119320", "sgg_cd": "41460", "sgg_nm": "ì©ì¸ì", "lclsf_cd": "I", "lclsf_nm": "ìê°íê±´ì¡°ì§", "mclsf_cd": "ID", "mclsf_nm": "êµíµìì¤ì§", "sclsf_cd": "ID3", "sclsf_nm": "ìëë¡", "dclsf_cd": null, "dclsf_nm": null, "ldc_lc_cd": "A", "ldc_lc_nm": "ìê°íê±´ì¡°ì§ì­", "ldc_mc_cd": "A5", "ldc_mc_nm": "êµíµì§ì­", "ldc_sc_cd": "A54", "ldc_sc_nm": "ëë¡", "shade": 0.2, "heat_score": 20.26 }, "geometry": { "type": "Point", "coordinates": [ 127.100849, 37.3315409 ] } },
{ "type": "Feature", "properties": { "osmid": 3641655901, "y": 37.331544, "x": 127.1013462, "junction": null, "street_count": 4, "highway": null, "ref": null, "felt_temp": 36.423015594482422, "heat_grade": 1.0, "index_right": 9094.0, "uid": "ì©ì¸_119238", "sgg_cd": "41460", "sgg_nm": "ì©ì¸ì", "lclsf_cd": "I", "lclsf_nm": "ìê°íê±´ì¡°ì§", "mclsf_cd": "ID", "mclsf_nm": "êµíµìì¤ì§", "sclsf_cd": "ID2", "sclsf_nm": "ì¼ë°ëë¡", "dclsf_cd": "ID2_2", "dclsf_nm": "ê°ë¡ì ìë ì¼ë°ëë¡", "ldc_lc_cd": "A", "ldc_lc_nm": "ìê°íê±´ì¡°ì§ì­", "ldc_mc_cd": "A5", "ldc_mc_nm": "êµíµì§ì­", "ldc_sc_cd": "A54", "ldc_sc_nm": "ëë¡", "shade": 0.2, "heat_score": 20.25 }, "geometry": { "type": "Point", "coordinates": [ 127.1013462, 37.331544 ] } },
{ "type": "Feature", "properties": { "osmid": 3641655904, "y": 37.3311682, "x": 127.1013512, "junction": null, "street_count": 4, "highway": null, "ref": null, "felt_temp": 36.799102783203125, "heat_grade": 7.0, "index_right": 9094.0, "uid": "ì©ì¸_119238", "sgg_cd": "41460", "sgg_nm": "ì©ì¸ì", "lclsf_cd": "I", "lclsf_nm": "ìê°íê±´ì¡°ì§", "mclsf_cd": "ID", "mclsf_nm": "êµíµìì¤ì§", "sclsf_cd": "ID2", "sclsf_nm": "ì¼ë°ëë¡", "dclsf_cd": "ID2_2", "dclsf_nm": "ê°ë¡ì ìë ì¼ë°ëë¡", "ldc_lc_cd": "A", "ldc_lc_nm": "ìê°íê±´ì¡°ì§ì­", "ldc_mc_cd": "A5", "ldc_mc_nm": "êµíµì§ì­", "ldc_sc_cd": "A54", "ldc_sc_nm": "ëë¡", "shade": 0.2, "heat_score": 22.88 }, "geometry": { "type": "Point", "coordinates": [ 127.1013512, 37.3311682 ] } },
{ "type": "Feature", "properties": { "osmid": 3641655906, "y": 37.3311501, "x": 127.1001715, "junction": null, "street_count": 3, "highway": null, "ref": null, "felt_temp": 36.472202301025391, "heat_grade": 1.0, "index_right": 9075.0, "uid": "ì©ì¸_119314", "sgg_cd": "41460", "sgg_nm": "ì©ì¸ì", "lclsf_cd": "I", "lclsf_nm": "ìê°íê±´ì¡°ì§", "mclsf_cd": "ID", "mclsf_nm": "êµíµìì¤ì§", "sclsf_cd": "ID3", "sclsf_nm": "ìëë¡", "dclsf_cd": null, "dclsf_nm": null, "ldc_lc_cd": "A", "ldc_lc_nm": "ìê°íê±´ì¡°ì§ì­", "ldc_mc_cd": "A5", "ldc_mc_nm": "êµíµì§ì­", "ldc_sc_cd": "A54", "ldc_sc_nm": "ëë¡", "shade": 0.2, "heat_score": 20.28 }, "geometry": { "type": "Point", "coordinates": [ 127.100171500000016, 37.3311501 ] } },
{ "type": "Feature", "properties": { "osmid": 3641655903, "y": 37.331136, "x": 127.0992566, "junction": null, "street_count": 3, "highway": null, "ref": null, "felt_temp": 36.861427307128906, "heat_grade": 8.0, "index_right": 9083.0, "uid": "ì©ì¸_119266", "sgg_cd": "41460", "sgg_nm": "ì©ì¸ì", "lclsf_cd": "I", "lclsf_nm": "ìê°íê±´ì¡°ì§", "mclsf_cd": "ID", "mclsf_nm": "êµíµìì¤ì§", "sclsf_cd": "ID2", "sclsf_nm": "ì¼ë°ëë¡", "dclsf_cd": "ID2_2", "dclsf_nm": "ê°ë¡ì ìë ì¼ë°ëë¡", "ldc_lc_cd": "A", "ldc_lc_nm": "ìê°íê±´ì¡°ì§ì­", "ldc_mc_cd": "A5", "ldc_mc_nm": "êµíµì§ì­", "ldc_sc_cd": "A54", "ldc_sc_nm": "ëë¡", "shade": 0.2, "heat_score": 23.32 }, "geometry": { "type": "Point", "coordinates": [ 127.0992566, 37.331136 ] } },
{ "type": "Feature", "properties": { "osmid": 3641655900, "y": 37.3315311, "x": 127.0992546, "junction": null, "street_count": 3, "highway": null, "ref": null, "felt_temp": 36.55328369140625, "heat_grade": 2.0, "index_right": 9083.0, "uid": "ì©ì¸_119266", "sgg_cd": "41460", "sgg_nm": "ì©ì¸ì", "lclsf_cd": "I", "lclsf_nm": "ìê°íê±´ì¡°ì§", "mclsf_cd": "ID", "mclsf_nm": "êµíµìì¤ì§", "sclsf_cd": "ID2", "sclsf_nm": "ì¼ë°ëë¡", "dclsf_cd": "ID2_2", "dclsf_nm": "ê°ë¡ì ìë ì¼ë°ëë¡", "ldc_lc_cd": "A", "ldc_lc_nm": "ìê°íê±´ì¡°ì§ì­", "ldc_mc_cd": "A5", "ldc_mc_nm": "êµíµì§ì­", "ldc_sc_cd": "A54", "ldc_sc_nm": "ëë¡", "shade": 0.2, "heat_score": 20.73 }, "geometry": { "type": "Point", "coordinates": [ 127.0992546, 37.3315311 ] } },
{ "type": "Feature", "properties": { "osmid": 3641655924, "y": 37.3319556, "x": 127.0992525, "junction": null, "street_count": 3, "highway": null, "ref": null, "felt_temp": 36.810745239257812, "heat_grade": 7.0, "index_right": 9083.0, "uid": "ì©ì¸_119266", "sgg_cd": "41460", "sgg_nm": "ì©ì¸ì", "lclsf_cd": "I", "lclsf_nm": "ìê°íê±´ì¡°ì§", "mclsf_cd": "ID", "mclsf_nm": "êµíµìì¤ì§", "sclsf_cd": "ID2", "sclsf_nm": "ì¼ë°ëë¡", "dclsf_cd": "ID2_2", "dclsf_nm": "ê°ë¡ì ìë ì¼ë°ëë¡", "ldc_lc_cd": "A", "ldc_lc_nm": "ìê°íê±´ì¡°ì§ì­", "ldc_mc_cd": "A5", "ldc_mc_nm": "êµíµì§ì­", "ldc_sc_cd": "A54", "ldc_sc_nm": "ëë¡", "shade": 0.2, "heat_score": 22.89 }, "geometry": { "type": "Point", "coordinates": [ 127.09925250000002, 37.3319556 ] } },
{ "type": "Feature", "properties": { "osmid": 3641655926, "y": 37.3319481, "x": 127.098793, "junction": null, "street_count": 3, "highway": null, "ref": null, "felt_temp": 36.663093566894531, "heat_grade": 3.0, "index_right": 9083.0, "uid": "ì©ì¸_119266", "sgg_cd": "41460", "sgg_nm": "ì©ì¸ì", "lclsf_cd": "I", "lclsf_nm": "ìê°íê±´ì¡°ì§", "mclsf_cd": "ID", "mclsf_nm": "êµíµìì¤ì§", "sclsf_cd": "ID2", "sclsf_nm": "ì¼ë°ëë¡", "dclsf_cd": "ID2_2", "dclsf_nm": "ê°ë¡ì ìë ì¼ë°ëë¡", "ldc_lc_cd": "A", "ldc_lc_nm": "ìê°íê±´ì¡°ì§ì­", "ldc_mc_cd": "A5", "ldc_mc_nm": "êµíµì§ì­", "ldc_sc_cd": "A54", "ldc_sc_nm": "ëë¡", "shade": 0.2, "heat_score": 21.2 }, "geometry": { "type": "Point", "coordinates": [ 127.098793, 37.3319481 ] } },
{ "type": "Feature", "properties": { "osmid": 3641655922, "y": 37.3319406, "x": 127.098337, "junction": null, "street_count": 3, "highway": null, "ref": null, "felt_temp": 36.803565979003906, "heat_grade": 7.0, "index_right": 9083.0, "uid": "ì©ì¸_119266", "sgg_cd": "41460", "sgg_nm": "ì©ì¸ì", "lclsf_cd": "I", "lclsf_nm": "ìê°íê±´ì¡°ì§", "mclsf_cd": "ID", "mclsf_nm": "êµíµìì¤ì§", "sclsf_cd": "ID2", "sclsf_nm": "ì¼ë°ëë¡", "dclsf_cd": "ID2_2", "dclsf_nm": "ê°ë¡ì ìë ì¼ë°ëë¡", "ldc_lc_cd": "A", "ldc_lc_nm": "ìê°íê±´ì¡°ì§ì­", "ldc_mc_cd": "A5", "ldc_mc_nm": "êµíµì§ì­", "ldc_sc_cd": "A54", "ldc_sc_nm": "ëë¡", "shade": 0.2, "heat_score": 22.88 }, "geometry": { "type": "Point", "coordinates": [ 127.098337, 37.3319406 ] } },
{ "type": "Feature", "properties": { "osmid": 3641655911, "y": 37.332783, "x": 127.0983243, "junction": null, "street_count": 3, "highway": null, "ref": null, "felt_temp": 36.434799194335938, "heat_grade": 1.0, "index_right": 9083.0, "uid": "ì©ì¸_119266", "sgg_cd": "41460", "sgg_nm": "ì©ì¸ì", "lclsf_cd": "I", "lclsf_nm": "ìê°íê±´ì¡°ì§", "mclsf_cd": "ID", "mclsf_nm": "êµíµìì¤ì§", "sclsf_cd": "ID2", "sclsf_nm": "ì¼ë°ëë¡", "dclsf_cd": "ID2_2", "dclsf_nm": "ê°ë¡ì ìë ì¼ë°ëë¡", "ldc_lc_cd": "A", "ldc_lc_nm": "ìê°íê±´ì¡°ì§ì­", "ldc_mc_cd": "A5", "ldc_mc_nm": "êµíµì§ì­", "ldc_sc_cd": "A54", "ldc_sc_nm": "ëë¡", "shade": 0.2, "heat_score": 20.26 }, "geometry": { "type": "Point", "coordinates": [ 127.098324300000016, 37.332783 ] } },
{ "type": "Feature", "properties": { "osmid": 3641655925, "y": 37.3327833, "x": 127.0987877, "junction": null, "street_count": 3, "highway": null, "ref": null, "felt_temp": 36.010833740234375, "heat_grade": 1.0, "index_right": 9083.0, "uid": "ì©ì¸_119266", "sgg_cd": "41460", "sgg_nm": "ì©ì¸ì", "lclsf_cd": "I", "lclsf_nm": "ìê°íê±´ì¡°ì§", "mclsf_cd": "ID", "mclsf_nm": "êµíµìì¤ì§", "sclsf_cd": "ID2", "sclsf_nm": "ì¼ë°ëë¡", "dclsf_cd": "ID2_2", "dclsf_nm": "ê°ë¡ì ìë ì¼ë°ëë¡", "ldc_lc_cd": "A", "ldc_lc_nm": "ìê°íê±´ì¡°ì§ì­", "ldc_mc_cd": "A5", "ldc_mc_nm": "êµíµì§ì­", "ldc_sc_cd": "A54", "ldc_sc_nm": "ëë¡", "shade": 0.2, "heat_score": 20.01 }, "geometry": { "type": "Point", "coordinates": [ 127.0987877, 37.3327833 ] } },
{ "type": "Feature", "properties": { "osmid": 3641655910, "y": 37.3327836, "x": 127.0992484, "junction": null, "street_count": 4, "highway": null, "ref": null, "felt_temp": 36.269920349121094, "heat_grade": 1.0, "index_right": 9083.0, "uid": "ì©ì¸_119266", "sgg_cd": "41460", "sgg_nm": "ì©ì¸ì", "lclsf_cd": "I", "lclsf_nm": "ìê°íê±´ì¡°ì§", "mclsf_cd": "ID", "mclsf_nm": "êµíµìì¤ì§", "sclsf_cd": "ID2", "sclsf_nm": "ì¼ë°ëë¡", "dclsf_cd": "ID2_2", "dclsf_nm": "ê°ë¡ì ìë ì¼ë°ëë¡", "ldc_lc_cd": "A", "ldc_lc_nm": "ìê°íê±´ì¡°ì§ì­", "ldc_mc_cd": "A5", "ldc_mc_nm": "êµíµì§ì­", "ldc_sc_cd": "A54", "ldc_sc_nm": "ëë¡", "shade": 0.2, "heat_score": 20.16 }, "geometry": { "type": "Point", "coordinates": [ 127.0992484, 37.3327836 ] } },
{ "type": "Feature", "properties": { "osmid": 3641655916, "y": 37.3323944, "x": 127.0992504, "junction": null, "street_count": 3, "highway": null, "ref": null, "felt_temp": 36.636993408203125, "heat_grade": 3.0, "index_right": 9083.0, "uid": "ì©ì¸_119266", "sgg_cd": "41460", "sgg_nm": "ì©ì¸ì", "lclsf_cd": "I", "lclsf_nm": "ìê°íê±´ì¡°ì§", "mclsf_cd": "ID", "mclsf_nm": "êµíµìì¤ì§", "sclsf_cd": "ID2", "sclsf_nm": "ì¼ë°ëë¡", "dclsf_cd": "ID2_2", "dclsf_nm": "ê°ë¡ì ìë ì¼ë°ëë¡", "ldc_lc_cd": "A", "ldc_lc_nm": "ìê°íê±´ì¡°ì§ì­", "ldc_mc_cd": "A5", "ldc_mc_nm": "êµíµì§ì­", "ldc_sc_cd": "A54", "ldc_sc_nm": "ëë¡", "shade": 0.2, "heat_score": 21.18 }, "geometry": { "type": "Point", "coordinates": [ 127.099250400000017, 37.332394399999984 ] } },
{ "type": "Feature", "properties": { "osmid": 3641655917, "y": 37.3323949, "x": 127.0997104, "junction": null, "street_count": 3, "highway": null, "ref": null, "felt_temp": 36.780189514160156, "heat_grade": 7.0, "index_right": 9083.0, "uid": "ì©ì¸_119266", "sgg_cd": "41460", "sgg_nm": "ì©ì¸ì", "lclsf_cd": "I", "lclsf_nm": "ìê°íê±´ì¡°ì§", "mclsf_cd": "ID", "mclsf_nm": "êµíµìì¤ì§", "sclsf_cd": "ID2", "sclsf_nm": "ì¼ë°ëë¡", "dclsf_cd": "ID2_2", "dclsf_nm": "ê°ë¡ì ìë ì¼ë°ëë¡", "ldc_lc_cd": "A", "ldc_lc_nm": "ìê°íê±´ì¡°ì§ì­", "ldc_mc_cd": "A5", "ldc_mc_nm": "êµíµì§ì­", "ldc_sc_cd": "A54", "ldc_sc_nm": "ëë¡", "shade": 0.2, "heat_score": 22.87 }, "geometry": { "type": "Point", "coordinates": [ 127.0997104, 37.3323949 ] } },
{ "type": "Feature", "properties": { "osmid": 3641655918, "y": 37.3315339, "x": 127.0997105, "junction": null, "street_count": 3, "highway": null, "ref": null, "felt_temp": 36.415576934814453, "heat_grade": 1.0, "index_right": 9083.0, "uid": "ì©ì¸_119266", "sgg_cd": "41460", "sgg_nm": "ì©ì¸ì", "lclsf_cd": "I", "lclsf_nm": "ìê°íê±´ì¡°ì§", "mclsf_cd": "ID", "mclsf_nm": "êµíµìì¤ì§", "sclsf_cd": "ID2", "sclsf_nm": "ì¼ë°ëë¡", "dclsf_cd": "ID2_2", "dclsf_nm": "ê°ë¡ì ìë ì¼ë°ëë¡", "ldc_lc_cd": "A", "ldc_lc_nm": "ìê°íê±´ì¡°ì§ì­", "ldc_mc_cd": "A5", "ldc_mc_nm": "êµíµì§ì­", "ldc_sc_cd": "A54", "ldc_sc_nm": "ëë¡", "shade": 0.2, "heat_score": 20.25 }, "geometry": { "type": "Point", "coordinates": [ 127.0997105, 37.3315339 ] } },
{ "type": "Feature", "properties": { "osmid": 4311916814, "y": 37.3315367, "x": 127.1001698, "junction": null, "street_count": 4, "highway": null, "ref": null, "felt_temp": 35.944362640380859, "heat_grade": 1.0, "index_right": 9083.0, "uid": "ì©ì¸_119266", "sgg_cd": "41460", "sgg_nm": "ì©ì¸ì", "lclsf_cd": "I", "lclsf_nm": "ìê°íê±´ì¡°ì§", "mclsf_cd": "ID", "mclsf_nm": "êµíµìì¤ì§", "sclsf_cd": "ID2", "sclsf_nm": "ì¼ë°ëë¡", "dclsf_cd": "ID2_2", "dclsf_nm": "ê°ë¡ì ìë ì¼ë°ëë¡", "ldc_lc_cd": "A", "ldc_lc_nm": "ìê°íê±´ì¡°ì§ì­", "ldc_mc_cd": "A5", "ldc_mc_nm": "êµíµì§ì­", "ldc_sc_cd": "A54", "ldc_sc_nm": "ëë¡", "shade": 0.2, "heat_score": 19.97 }, "geometry": { "type": "Point", "coordinates": [ 127.1001698, 37.3315367 ] } }
]
}
