{
"type": "FeatureCollection",
"name": "cool_cycle_1km_route2_edges",
"crs": { "type": "name", "properties": { "name": "urn:ogc:def:crs:OGC:1.3:CRS84" } },
"features": [
{ "type": "Feature", "properties": { "u": 6541799368, "v": 6541799349, "length": 157.5053332498868, "heat_score": 20.02 }, "geometry": { "type": "LineString", "coordinates": [ [ 127.1151166, 37.3313381 ], [ 127.1143107, 37.3313345 ], [ 127.114303300000017, 37.3310178 ], [ 127.11488030000001, 37.3310078 ] ] } },
{ "type": "Feature", "properties": { "u": 6541799349, "v": 6541799338, "length": 24.855421315344653, "heat_score": 20.905 }, "geometry": { "type": "LineString", "coordinates": [ [ 127.11488030000001, 37.3310078 ], [ 127.1150328, 37.3310867 ], [ 127.115117899999987, 37.3311272 ] ] } },
{ "type": "Feature", "properties": { "u": 6541799338, "v": 6541799340, "length": 15.162382822638634, "heat_score": 21.38 }, "geometry": { "type": "LineString", "coordinates": [ [ 127.1152823, 37.3310884 ], [ 127.115117899999987, 37.3311272 ] ] } },
{ "type": "Feature", "properties": { "u": 6541799340, "v": 6541799342, "length": 58.249896419147149, "heat_score": 20.685 }, "geometry": { "type": "LineString", "coordinates": [ [ 127.1154435, 37.3306939 ], [ 127.115284, 37.3306914 ], [ 127.1152823, 37.3310884 ] ] } },
{ "type": "Feature", "properties": { "u": 6541799342, "v": 6541799343, "length": 43.94429708840341, "heat_score": 20.91 }, "geometry": { "type": "LineString", "coordinates": [ [ 127.1154435, 37.3310891 ], [ 127.1154435, 37.3306939 ] ] } },
{ "type": "Feature", "properties": { "u": 6541799343, "v": 6541799339, "length": 37.135570807126868, "heat_score": 21.175 }, "geometry": { "type": "LineString", "coordinates": [ [ 127.1154435, 37.3310891 ], [ 127.1157808, 37.331091 ], [ 127.1158635, 37.3310912 ] ] } },
{ "type": "Feature", "properties": { "u": 6541799339, "v": 2405708156, "length": 51.01585693037979, "heat_score": 20.965 }, "geometry": { "type": "LineString", "coordinates": [ [ 127.1158635, 37.3310912 ], [ 127.1160435, 37.33152710000001 ] ] } },
{ "type": "Feature", "properties": { "u": 2405708156, "v": 2405708152, "length": 719.31596234454253, "heat_score": 21.815 }, "geometry": { "type": "LineString", "coordinates": [ [ 127.1160435, 37.33152710000001 ], [ 127.116122099999984, 37.3315795 ], [ 127.1163394, 37.3317242 ], [ 127.1163759, 37.331770400000011 ], [ 127.1157864, 37.33180260000001 ], [ 127.1157187, 37.3318665 ], [ 127.1155423, 37.3323808 ], [ 127.1154559, 37.3325568 ], [ 127.1152192, 37.3329022 ], [ 127.115145, 37.3331024 ], [ 127.115127, 37.3333671 ], [ 127.1151211, 37.3333943 ], [ 127.115054, 37.3337035 ], [ 127.1149045, 37.333831099999983 ], [ 127.114787, 37.3339138 ], [ 127.114622, 37.3339874 ], [ 127.1142618, 37.3339748 ], [ 127.1136138, 37.3338846 ], [ 127.11362, 37.3337694 ], [ 127.1136209, 37.33375370000001 ], [ 127.113666399999985, 37.3332225 ], [ 127.1137096, 37.3327473 ], [ 127.113750300000021, 37.3322599 ], [ 127.1137537, 37.3321995 ], [ 127.1137407, 37.3315242 ] ] } },
{ "type": "Feature", "properties": { "u": 2405708152, "v": 2407283830, "length": 11.839111720708658, "heat_score": 21.585 }, "geometry": { "type": "LineString", "coordinates": [ [ 127.113874599999988, 37.3315249 ], [ 127.1137407, 37.3315242 ] ] } },
{ "type": "Feature", "properties": { "u": 2407283830, "v": 6541799337, "length": 110.15760298639341, "heat_score": 20.33 }, "geometry": { "type": "LineString", "coordinates": [ [ 127.1151204, 37.3315224 ], [ 127.1142543, 37.3315183 ], [ 127.113874599999988, 37.3315249 ] ] } },
{ "type": "Feature", "properties": { "u": 6541799337, "v": 6541799368, "length": 20.496007882738983, "heat_score": 19.88 }, "geometry": { "type": "LineString", "coordinates": [ [ 127.1151166, 37.3313381 ], [ 127.1151204, 37.3315224 ] ] } }
]
}
