{
"type": "FeatureCollection",
"name": "cool_cycle_7km_route1_edges",
"crs": { "type": "name", "properties": { "name": "urn:ogc:def:crs:OGC:1.3:CRS84" } },
"features": [
{ "type": "Feature", "properties": { "u": 3662168684, "v": 3187964067, "length": 91.867822164257277, "heat_score": 20.73 }, "geometry": { "type": "LineString", "coordinates": [ [ 127.0732781, 37.2969003 ], [ 127.0735029, 37.2977069 ] ] } },
{ "type": "Feature", "properties": { "u": 3187964067, "v": 3660798017, "length": 602.22791044255769, "heat_score": 21.61 }, "geometry": { "type": "LineString", "coordinates": [ [ 127.07549370000001, 37.3026928 ], [ 127.075429499999984, 37.30236750000001 ], [ 127.0753759, 37.3022053 ], [ 127.0752588, 37.3019619 ], [ 127.0752217, 37.3018848 ], [ 127.0752096, 37.3018597 ], [ 127.075185800000014, 37.3017849 ], [ 127.07509690000002, 37.3015055 ], [ 127.0750796, 37.3014675 ], [ 127.075005800000014, 37.3013049 ], [ 127.0749199, 37.301147 ], [ 127.0747719, 37.3009774 ], [ 127.074630500000012, 37.300851 ], [ 127.0745916, 37.3008163 ], [ 127.0744908, 37.3007203 ], [ 127.074225499999983, 37.3004862 ], [ 127.073949, 37.300242400000016 ], [ 127.0739222, 37.3002093 ], [ 127.0738685, 37.3001421 ], [ 127.073832300000021, 37.3000898 ], [ 127.073793400000014, 37.300029 ], [ 127.073762599999981, 37.2999746 ], [ 127.0737371, 37.29992020000001 ], [ 127.073713, 37.2998584 ], [ 127.0736942, 37.2997965 ], [ 127.0736754, 37.2997261 ], [ 127.073659299999989, 37.299662 ], [ 127.0736486, 37.2995959 ], [ 127.0736459, 37.2995212 ], [ 127.07365129999998, 37.2994572 ], [ 127.073659299999989, 37.2993932 ], [ 127.073685, 37.2992257 ], [ 127.073734300000012, 37.2987563 ], [ 127.073729500000013, 37.2986825 ], [ 127.0737193, 37.298588400000014 ], [ 127.0737029, 37.2984579 ], [ 127.0736518, 37.2982239 ], [ 127.0735781, 37.2979504 ], [ 127.0735529, 37.2978679 ], [ 127.0735029, 37.2977069 ] ] } },
{ "type": "Feature", "properties": { "u": 3660798017, "v": 842899448, "length": 293.21895369983247, "heat_score": 21.61 }, "geometry": { "type": "LineString", "coordinates": [ [ 127.07549370000001, 37.3026928 ], [ 127.075796, 37.3026122 ], [ 127.075951800000013, 37.3025657 ], [ 127.076252400000016, 37.3024657 ], [ 127.0770599, 37.302212 ], [ 127.0771643, 37.3021936 ], [ 127.0772588, 37.3021858 ], [ 127.077358600000011, 37.3021822 ], [ 127.0774242, 37.3021858 ], [ 127.077500400000019, 37.3022004 ], [ 127.0775766, 37.3022193 ], [ 127.077678100000014, 37.3022464 ], [ 127.0777742, 37.3022777 ], [ 127.0778748, 37.3023115 ], [ 127.078008199999985, 37.3023796 ], [ 127.0781631, 37.3024647 ], [ 127.0784727, 37.3026413 ], [ 127.0785225, 37.3026709 ] ] } },
{ "type": "Feature", "properties": { "u": 842899448, "v": 1824007722, "length": 261.27167925636337, "heat_score": 22.04 }, "geometry": { "type": "LineString", "coordinates": [ [ 127.0806231, 37.3024198 ], [ 127.079557799999989, 37.3017535 ], [ 127.079525100000012, 37.3017474 ], [ 127.0794828, 37.3017493 ], [ 127.079438, 37.3017592 ], [ 127.0793976, 37.301771 ], [ 127.0793513, 37.3017961 ], [ 127.078904, 37.3022586 ], [ 127.0788514, 37.3023129 ], [ 127.0785225, 37.3026709 ] ] } },
{ "type": "Feature", "properties": { "u": 1824007722, "v": 1824007718, "length": 253.53078467618872, "heat_score": 21.795 }, "geometry": { "type": "LineString", "coordinates": [ [ 127.0806231, 37.3024198 ], [ 127.081416100000013, 37.3029078 ], [ 127.0814751, 37.3029611 ], [ 127.0814992, 37.3030177 ], [ 127.081546900000021, 37.3032665 ], [ 127.0816038, 37.3035607 ], [ 127.0813415, 37.3038292 ], [ 127.0809848, 37.3041943 ] ] } },
{ "type": "Feature", "properties": { "u": 1824007718, "v": 842899450, "length": 200.58106745106704, "heat_score": 22.005 }, "geometry": { "type": "LineString", "coordinates": [ [ 127.0809848, 37.3041943 ], [ 127.082752400000018, 37.3053244 ] ] } },
{ "type": "Feature", "properties": { "u": 842899450, "v": 3692805734, "length": 184.91169404037097, "heat_score": 23.335 }, "geometry": { "type": "LineString", "coordinates": [ [ 127.084044099999986, 37.3065922 ], [ 127.0839502, 37.306351 ], [ 127.0838034, 37.3061325 ], [ 127.0827979, 37.3053594 ], [ 127.082752400000018, 37.3053244 ] ] } },
{ "type": "Feature", "properties": { "u": 3692805734, "v": 3691554532, "length": 200.8205320207494, "heat_score": 22.06 }, "geometry": { "type": "LineString", "coordinates": [ [ 127.084044099999986, 37.3065922 ], [ 127.0845517, 37.3053921 ], [ 127.0845919, 37.3053623 ], [ 127.08465630000002, 37.3053303 ], [ 127.084736800000016, 37.30530250000001 ], [ 127.084836, 37.3052833 ], [ 127.08492990000002, 37.3052663 ], [ 127.0850264, 37.3052513 ], [ 127.0851897, 37.305250900000011 ] ] } },
{ "type": "Feature", "properties": { "u": 3691554532, "v": 4558451097, "length": 263.04740863849952, "heat_score": 20.955 }, "geometry": { "type": "LineString", "coordinates": [ [ 127.0850703, 37.3076137 ], [ 127.085128, 37.30710770000001 ], [ 127.085136, 37.3069918 ], [ 127.0851621, 37.306237 ], [ 127.0851897, 37.30543870000001 ], [ 127.0851897, 37.305250900000011 ] ] } },
{ "type": "Feature", "properties": { "u": 4558451097, "v": 3692802266, "length": 85.250475158806722, "heat_score": 22.275 }, "geometry": { "type": "LineString", "coordinates": [ [ 127.0850703, 37.3076137 ], [ 127.0849136, 37.3075634 ], [ 127.084746, 37.3075096 ], [ 127.0846631, 37.3074993 ], [ 127.084585200000021, 37.3075141 ], [ 127.084496800000011, 37.3075415 ], [ 127.084189599999988, 37.3076835 ] ] } },
{ "type": "Feature", "properties": { "u": 3692802266, "v": 3692802261, "length": 198.4104238423169, "heat_score": 22.05 }, "geometry": { "type": "LineString", "coordinates": [ [ 127.084189599999988, 37.3076835 ], [ 127.0842137, 37.3077987 ], [ 127.0842459, 37.3079608 ], [ 127.084294200000016, 37.3081144 ], [ 127.0846013, 37.3086734 ], [ 127.0848373, 37.3090958 ], [ 127.084861, 37.309368 ] ] } },
{ "type": "Feature", "properties": { "u": 3692802261, "v": 3751077470, "length": 122.61301148898255, "heat_score": 21.79 }, "geometry": { "type": "LineString", "coordinates": [ [ 127.0838816, 37.310132 ], [ 127.0840697, 37.3100109 ], [ 127.08451890000002, 37.3097218 ], [ 127.084721, 37.3095631 ], [ 127.0847944, 37.309467 ], [ 127.084861, 37.309368 ] ] } },
{ "type": "Feature", "properties": { "u": 3751077470, "v": 3751077474, "length": 73.068981976486782, "heat_score": 23.08 }, "geometry": { "type": "LineString", "coordinates": [ [ 127.0832953, 37.31059350000001 ], [ 127.083464400000011, 37.310475 ], [ 127.0837742, 37.3102362 ], [ 127.0838816, 37.310132 ] ] } },
{ "type": "Feature", "properties": { "u": 3751077474, "v": 3844401866, "length": 155.46211058571441, "heat_score": 22.66 }, "geometry": { "type": "LineString", "coordinates": [ [ 127.0820382, 37.3115699 ], [ 127.0821723, 37.3114767 ], [ 127.0825391, 37.3111829 ], [ 127.0829877, 37.3108177 ], [ 127.083146, 37.3107045 ], [ 127.0832953, 37.31059350000001 ] ] } },
{ "type": "Feature", "properties": { "u": 3844401866, "v": 842899424, "length": 133.55653813298443, "heat_score": 22.71 }, "geometry": { "type": "LineString", "coordinates": [ [ 127.0820382, 37.3115699 ], [ 127.0817326, 37.3118434 ], [ 127.080994, 37.3124371 ] ] } },
{ "type": "Feature", "properties": { "u": 842899424, "v": 6152750610, "length": 57.518544897430246, "heat_score": 22.915 }, "geometry": { "type": "LineString", "coordinates": [ [ 127.0805981, 37.3128475 ], [ 127.080994, 37.3124371 ] ] } },
{ "type": "Feature", "properties": { "u": 6152750610, "v": 6152750617, "length": 80.86979690831032, "heat_score": 22.92 }, "geometry": { "type": "LineString", "coordinates": [ [ 127.0797676, 37.3130345 ], [ 127.0799114, 37.3130667 ], [ 127.080072, 37.31306570000001 ], [ 127.0801136, 37.313062 ], [ 127.080159699999982, 37.3130535 ], [ 127.0801766, 37.3130508 ], [ 127.080198900000013, 37.3130492 ], [ 127.0802195, 37.3130423 ], [ 127.0802812, 37.3130252 ], [ 127.0804532, 37.3129229 ], [ 127.0805981, 37.3128475 ] ] } },
{ "type": "Feature", "properties": { "u": 6152750617, "v": 842899426, "length": 50.101290386548236, "heat_score": 23.145 }, "geometry": { "type": "LineString", "coordinates": [ [ 127.0797676, 37.3130345 ], [ 127.0798431, 37.313085900000011 ], [ 127.0800001, 37.3131789 ], [ 127.0800539, 37.3132108 ], [ 127.0802048, 37.3133203 ] ] } },
{ "type": "Feature", "properties": { "u": 842899426, "v": 13539327729, "length": 9.9103586157520827, "heat_score": 23.09 }, "geometry": { "type": "LineString", "coordinates": [ [ 127.080143100000015, 37.3133947 ], [ 127.0802048, 37.3133203 ] ] } },
{ "type": "Feature", "properties": { "u": 13539327729, "v": 13539327727, "length": 47.27426896456906, "heat_score": 21.755 }, "geometry": { "type": "LineString", "coordinates": [ [ 127.0804595, 37.31373640000001 ], [ 127.0804138, 37.31367190000001 ], [ 127.080353700000018, 37.3136039 ], [ 127.080297, 37.3135475 ], [ 127.080256500000019, 37.3135072 ], [ 127.080143100000015, 37.3133947 ] ] } },
{ "type": "Feature", "properties": { "u": 13539327727, "v": 13539327749, "length": 142.0643759549142, "heat_score": 21.77 }, "geometry": { "type": "LineString", "coordinates": [ [ 127.0811156, 37.3149003 ], [ 127.0810613, 37.3148114 ], [ 127.0808894, 37.3144877 ], [ 127.0807165, 37.314129 ], [ 127.0806773, 37.3140584 ], [ 127.0806254, 37.313965 ], [ 127.0805012, 37.3137939 ], [ 127.0804595, 37.31373640000001 ] ] } },
{ "type": "Feature", "properties": { "u": 13539327749, "v": 13539327739, "length": 104.93927250892878, "heat_score": 23.325 }, "geometry": { "type": "LineString", "coordinates": [ [ 127.0816127, 37.315757 ], [ 127.0814117, 37.3154339 ], [ 127.0812195, 37.31508980000001 ], [ 127.0811156, 37.3149003 ] ] } },
{ "type": "Feature", "properties": { "u": 13539327739, "v": 3655078943, "length": 10.875769449256902, "heat_score": 23.325 }, "geometry": { "type": "LineString", "coordinates": [ [ 127.0816127, 37.315757 ], [ 127.0817247, 37.3157166 ] ] } },
{ "type": "Feature", "properties": { "u": 3655078943, "v": 3520971522, "length": 104.57685750563954, "heat_score": 23.325 }, "geometry": { "type": "LineString", "coordinates": [ [ 127.081234600000016, 37.3148607 ], [ 127.0813409, 37.3150494 ], [ 127.0817247, 37.3157166 ] ] } },
{ "type": "Feature", "properties": { "u": 3520971522, "v": 1978988811, "length": 99.237808277441317, "heat_score": 22.015 }, "geometry": { "type": "LineString", "coordinates": [ [ 127.080819, 37.3140318 ], [ 127.0808338, 37.3140621 ], [ 127.080851, 37.3140973 ], [ 127.0810317, 37.314456 ], [ 127.081182799999979, 37.3147675 ], [ 127.081234600000016, 37.3148607 ] ] } },
{ "type": "Feature", "properties": { "u": 1978988811, "v": 4162278681, "length": 263.54092914717592, "heat_score": 20.29 }, "geometry": { "type": "LineString", "coordinates": [ [ 127.0836829, 37.3135843 ], [ 127.083343400000018, 37.3135413 ], [ 127.0829342, 37.3135063 ], [ 127.082735900000017, 37.3135169 ], [ 127.0825257, 37.313548 ], [ 127.0821116, 37.3136554 ], [ 127.081533100000016, 37.313826700000014 ], [ 127.0809443, 37.3139972 ], [ 127.080819, 37.3140318 ] ] } },
{ "type": "Feature", "properties": { "u": 4162278681, "v": 3689716839, "length": 178.42866887638516, "heat_score": 21.595 }, "geometry": { "type": "LineString", "coordinates": [ [ 127.0836829, 37.3135843 ], [ 127.0839746, 37.3136638 ], [ 127.0845218, 37.3138089 ], [ 127.0851012, 37.3139882 ], [ 127.0852911, 37.314048 ], [ 127.085455399999987, 37.3140742 ], [ 127.085594300000011, 37.3140739 ] ] } },
{ "type": "Feature", "properties": { "u": 3689716839, "v": 3690924094, "length": 147.94107693589385, "heat_score": 22.67 }, "geometry": { "type": "LineString", "coordinates": [ [ 127.0869092, 37.3148957 ], [ 127.0866566, 37.3147503 ], [ 127.0864243, 37.3146034 ], [ 127.0858519, 37.3142379 ], [ 127.085704, 37.3141374 ], [ 127.085594300000011, 37.3140739 ] ] } },
{ "type": "Feature", "properties": { "u": 3690924094, "v": 414694400, "length": 30.286420182425367, "heat_score": 23.165 }, "geometry": { "type": "LineString", "coordinates": [ [ 127.0869092, 37.3148957 ], [ 127.0869829, 37.3149061 ], [ 127.0870456, 37.3149111 ], [ 127.0871135, 37.3149023 ], [ 127.08713010000001, 37.3148988 ], [ 127.087244700000014, 37.3148744 ] ] } },
{ "type": "Feature", "properties": { "u": 414694400, "v": 7857925268, "length": 322.29770127559522, "heat_score": 22.74 }, "geometry": { "type": "LineString", "coordinates": [ [ 127.0849889, 37.3126107 ], [ 127.0852226, 37.31292590000001 ], [ 127.085385, 37.3131231 ], [ 127.085795500000017, 37.3135586 ], [ 127.085985, 37.3137683 ], [ 127.0862958, 37.314057 ], [ 127.0865927, 37.3143094 ], [ 127.0870856, 37.3147026 ], [ 127.087244700000014, 37.3148744 ] ] } },
{ "type": "Feature", "properties": { "u": 7857925268, "v": 3751077470, "length": 292.74977002664633, "heat_score": 22.025 }, "geometry": { "type": "LineString", "coordinates": [ [ 127.0838816, 37.310132 ], [ 127.083973299999982, 37.3103238 ], [ 127.0840304, 37.31044330000001 ], [ 127.0841591, 37.3107505 ], [ 127.0842781, 37.31103370000001 ], [ 127.0844532, 37.3114657 ], [ 127.084571299999979, 37.31174930000001 ], [ 127.0847661, 37.3121402 ], [ 127.08483649999998, 37.3122669 ], [ 127.084906600000011, 37.3123838 ], [ 127.0849889, 37.3126107 ] ] } },
{ "type": "Feature", "properties": { "u": 3751077470, "v": 7857925252, "length": 346.54723616338555, "heat_score": 21.52 }, "geometry": { "type": "LineString", "coordinates": [ [ 127.0815852, 37.307636 ], [ 127.081978400000011, 37.3079244 ], [ 127.082073200000011, 37.3080076 ], [ 127.08232910000001, 37.3082451 ], [ 127.0825236, 37.3084153 ], [ 127.082579699999982, 37.3084644 ], [ 127.0826373, 37.3085148 ], [ 127.0829386, 37.3088306 ], [ 127.083221400000014, 37.3091565 ], [ 127.08351540000001, 37.3095814 ], [ 127.0837193, 37.309846 ], [ 127.083815799999982, 37.3100081 ], [ 127.083824100000015, 37.3100237 ], [ 127.0838816, 37.310132 ] ] } },
{ "type": "Feature", "properties": { "u": 7857925252, "v": 7857925244, "length": 332.06022318184671, "heat_score": 20.145 }, "geometry": { "type": "LineString", "coordinates": [ [ 127.078757699999983, 37.3056832 ], [ 127.079636, 37.3061769 ], [ 127.0800987, 37.3064877 ], [ 127.080681399999989, 37.3069006 ], [ 127.0815852, 37.307636 ] ] } },
{ "type": "Feature", "properties": { "u": 7857925244, "v": 4569903226, "length": 450.15053880014307, "heat_score": 20.19 }, "geometry": { "type": "LineString", "coordinates": [ [ 127.0747104, 37.3032345 ], [ 127.076193600000011, 37.3041434 ], [ 127.078075699999985, 37.3052352 ], [ 127.0785889, 37.3055374 ], [ 127.078757699999983, 37.3056832 ] ] } },
{ "type": "Feature", "properties": { "u": 4569903226, "v": 7179444058, "length": 35.381265085056462, "heat_score": 21.83 }, "geometry": { "type": "LineString", "coordinates": [ [ 127.0743944, 37.3030394 ], [ 127.0744211, 37.3030559 ], [ 127.0745257, 37.3031204 ], [ 127.0745517, 37.3031365 ], [ 127.0747104, 37.3032345 ] ] } },
{ "type": "Feature", "properties": { "u": 7179444058, "v": 4708513142, "length": 30.980307906186432, "heat_score": 21.82 }, "geometry": { "type": "LineString", "coordinates": [ [ 127.0743944, 37.3030394 ], [ 127.074483700000016, 37.3029489 ], [ 127.0745208, 37.3029113 ], [ 127.0746297, 37.3028345 ] ] } },
{ "type": "Feature", "properties": { "u": 4708513142, "v": 7179444076, "length": 45.056049549349225, "heat_score": 21.795 }, "geometry": { "type": "LineString", "coordinates": [ [ 127.074137, 37.3028768 ], [ 127.074332, 37.302906 ], [ 127.0746297, 37.3028345 ] ] } },
{ "type": "Feature", "properties": { "u": 7179444076, "v": 6820615302, "length": 197.10807189886197, "heat_score": 22.26 }, "geometry": { "type": "LineString", "coordinates": [ [ 127.0723612, 37.301806400000011 ], [ 127.0729545, 37.3021458 ], [ 127.0737984, 37.302674 ], [ 127.074137, 37.3028768 ] ] } },
{ "type": "Feature", "properties": { "u": 6820615302, "v": 6820615290, "length": 31.796712210196659, "heat_score": 22.235 }, "geometry": { "type": "LineString", "coordinates": [ [ 127.0723612, 37.301806400000011 ], [ 127.07215, 37.3020378 ] ] } },
{ "type": "Feature", "properties": { "u": 6820615290, "v": 6820615301, "length": 276.46944008198705, "heat_score": 21.785 }, "geometry": { "type": "LineString", "coordinates": [ [ 127.070317, 37.3010524 ], [ 127.07022520000001, 37.3011338 ], [ 127.070163, 37.301189 ], [ 127.0700643, 37.30137890000001 ], [ 127.0700772, 37.3014451 ], [ 127.07015770000001, 37.30148350000001 ], [ 127.070334700000018, 37.3015603 ], [ 127.0706834, 37.3017224 ], [ 127.0709784, 37.3018633 ], [ 127.071246599999981, 37.3019529 ], [ 127.0716865, 37.302179 ], [ 127.0719494, 37.3023028 ], [ 127.07215, 37.3020378 ] ] } },
{ "type": "Feature", "properties": { "u": 6820615301, "v": 3790582564, "length": 39.990671471360933, "heat_score": 22.075 }, "geometry": { "type": "LineString", "coordinates": [ [ 127.070317, 37.3010524 ], [ 127.070085400000011, 37.3009262 ], [ 127.069938100000016, 37.3008565 ] ] } },
{ "type": "Feature", "properties": { "u": 3790582564, "v": 3790816771, "length": 32.193273890800143, "heat_score": 22.95 }, "geometry": { "type": "LineString", "coordinates": [ [ 127.070134600000017, 37.30061280000001 ], [ 127.070036400000021, 37.3007347 ], [ 127.069938100000016, 37.3008565 ] ] } },
{ "type": "Feature", "properties": { "u": 3790816771, "v": 3790816770, "length": 59.670073202983254, "heat_score": 22.455 }, "geometry": { "type": "LineString", "coordinates": [ [ 127.070134600000017, 37.30061280000001 ], [ 127.07010750000002, 37.3005148 ], [ 127.0699897, 37.3000887 ] ] } },
{ "type": "Feature", "properties": { "u": 3790816770, "v": 3187954871, "length": 156.65483559065359, "heat_score": 22.88 }, "geometry": { "type": "LineString", "coordinates": [ [ 127.0699897, 37.3000887 ], [ 127.069836, 37.2995196 ], [ 127.0697422, 37.29917240000001 ], [ 127.06968280000001, 37.2989524 ], [ 127.0696687, 37.2989 ], [ 127.0696177, 37.2987113 ] ] } },
{ "type": "Feature", "properties": { "u": 3187954871, "v": 3790849638, "length": 184.60535625059862, "heat_score": 22.03 }, "geometry": { "type": "LineString", "coordinates": [ [ 127.071643100000017, 37.2983176 ], [ 127.071367400000014, 37.2983966 ], [ 127.0710495, 37.2984532 ], [ 127.0703224, 37.2985772 ], [ 127.0696177, 37.2987113 ] ] } },
{ "type": "Feature", "properties": { "u": 3790849638, "v": 3662166668, "length": 208.18918379713523, "heat_score": 20.71 }, "geometry": { "type": "LineString", "coordinates": [ [ 127.071643100000017, 37.2983176 ], [ 127.071588800000015, 37.2981556 ], [ 127.0714994, 37.2975195 ], [ 127.071418, 37.2973815 ], [ 127.0713468, 37.297317 ], [ 127.07127490000002, 37.297268099999989 ], [ 127.0711978, 37.297232 ], [ 127.071084199999987, 37.2971757 ], [ 127.0710303, 37.2971385 ], [ 127.070970800000012, 37.2970671 ], [ 127.0709154, 37.2969648 ], [ 127.0708411, 37.2967368 ], [ 127.0708174, 37.2966549 ] ] } },
{ "type": "Feature", "properties": { "u": 3662166668, "v": 3662168493, "length": 246.66286548174594, "heat_score": 20.695 }, "geometry": { "type": "LineString", "coordinates": [ [ 127.0730328, 37.296939 ], [ 127.072920900000014, 37.2965972 ], [ 127.0728928, 37.2965151 ], [ 127.0728431, 37.2964585 ], [ 127.0726607, 37.2963198 ], [ 127.072591, 37.2963091 ], [ 127.0716334, 37.296467 ], [ 127.0708174, 37.2966549 ] ] } },
{ "type": "Feature", "properties": { "u": 3662168493, "v": 3662168684, "length": 22.12094412342201, "heat_score": 20.71 }, "geometry": { "type": "LineString", "coordinates": [ [ 127.0732781, 37.2969003 ], [ 127.0730328, 37.296939 ] ] } }
]
}
