{
"type": "FeatureCollection",
"name": "cool_cycle_3km_route3_nodes",
"crs": { "type": "name", "properties": { "name": "urn:ogc:def:crs:OGC:1.3:CRS84" } },
"features": [
{ "type": "Feature", "properties": { "osmid": 2446592484, "y": 37.3374421, "x": 127.0891064, "junction": null, "street_count": 4, "highway": null, "ref": null, "felt_temp": 35.946830749511719, "heat_grade": 1.0, "index_right": 4223.0, "uid": "ì©ì¸_12793", "sgg_cd": "41460", "sgg_nm": "ì©ì¸ì", "lclsf_cd": "I", "lclsf_nm": "ìê°íê±´ì¡°ì§", "mclsf_cd": "ID", "mclsf_nm": "êµíµìì¤ì§", "sclsf_cd": "ID2", "sclsf_nm": "ì¼ë°ëë¡", "dclsf_cd": "ID2_1", "dclsf_nm": "ê°ë¡ì ìë ì¼ë°ëë¡", "ldc_lc_cd": "A", "ldc_lc_nm": "ìê°íê±´ì¡°ì§ì­", "ldc_mc_cd": "A5", "ldc_mc_nm": "êµíµì§ì­", "ldc_sc_cd": "A54", "ldc_sc_nm": "ëë¡", "shade": 0.2, "heat_score": 19.97 }, "geometry": { "type": "Point", "coordinates": [ 127.0891064, 37.3374421 ] } },
{ "type": "Feature", "properties": { "osmid": 8670224977, "y": 37.3376039, "x": 127.0907071, "junction": null, "street_count": 3, "highway": null, "ref": null, "felt_temp": 36.482761383056641, "heat_grade": 1.0, "index_right": 4223.0, "uid": "ì©ì¸_12793", "sgg_cd": "41460", "sgg_nm": "ì©ì¸ì", "lclsf_cd": "I", "lclsf_nm": "ìê°íê±´ì¡°ì§", "mclsf_cd": "ID", "mclsf_nm": "êµíµìì¤ì§", "sclsf_cd": "ID2", "sclsf_nm": "ì¼ë°ëë¡", "dclsf_cd": "ID2_1", "dclsf_nm": "ê°ë¡ì ìë ì¼ë°ëë¡", "ldc_lc_cd": "A", "ldc_lc_nm": "ìê°íê±´ì¡°ì§ì­", "ldc_mc_cd": "A5", "ldc_mc_nm": "êµíµì§ì­", "ldc_sc_cd": "A54", "ldc_sc_nm": "ëë¡", "shade": 0.2, "heat_score": 20.29 }, "geometry": { "type": "Point", "coordinates": [ 127.0907071, 37.3376039 ] } },
{ "type": "Feature", "properties": { "osmid": 2446592478, "y": 37.3385604, "x": 127.0929186, "junction": null, "street_count": 3, "highway": null, "ref": null, "felt_temp": 36.545845031738281, "heat_grade": 2.0, "index_right": 10590.0, "uid": "ì©ì¸_121067", "sgg_cd": "41460", "sgg_nm": "ì©ì¸ì", "lclsf_cd": "I", "lclsf_nm": "ìê°íê±´ì¡°ì§", "mclsf_cd": "ID", "mclsf_nm": "êµíµìì¤ì§", "sclsf_cd": "ID2", "sclsf_nm": "ì¼ë°ëë¡", "dclsf_cd": "ID2_2", "dclsf_nm": "ê°ë¡ì ìë ì¼ë°ëë¡", "ldc_lc_cd": "A", "ldc_lc_nm": "ìê°íê±´ì¡°ì§ì­", "ldc_mc_cd": "A5", "ldc_mc_nm": "êµíµì§ì­", "ldc_sc_cd": "A54", "ldc_sc_nm": "ëë¡", "shade": 0.2, "heat_score": 20.73 }, "geometry": { "type": "Point", "coordinates": [ 127.0929186, 37.3385604 ] } },
{ "type": "Feature", "properties": { "osmid": 2446592479, "y": 37.3382832, "x": 127.0927738, "junction": null, "street_count": 4, "highway": null, "ref": null, "felt_temp": 36.960578918457031, "heat_grade": 8.0, "index_right": 10590.0, "uid": "ì©ì¸_121067", "sgg_cd": "41460", "sgg_nm": "ì©ì¸ì", "lclsf_cd": "I", "lclsf_nm": "ìê°íê±´ì¡°ì§", "mclsf_cd": "ID", "mclsf_nm": "êµíµìì¤ì§", "sclsf_cd": "ID2", "sclsf_nm": "ì¼ë°ëë¡", "dclsf_cd": "ID2_2", "dclsf_nm": "ê°ë¡ì ìë ì¼ë°ëë¡", "ldc_lc_cd": "A", "ldc_lc_nm": "ìê°íê±´ì¡°ì§ì­", "ldc_mc_cd": "A5", "ldc_mc_nm": "êµíµì§ì­", "ldc_sc_cd": "A54", "ldc_sc_nm": "ëë¡", "shade": 0.2, "heat_score": 23.38 }, "geometry": { "type": "Point", "coordinates": [ 127.092773800000018, 37.3382832 ] } },
{ "type": "Feature", "properties": { "osmid": 3636126851, "y": 37.3388251, "x": 127.0940236, "junction": null, "street_count": 3, "highway": null, "ref": null, "felt_temp": 36.498291015625, "heat_grade": 2.0, "index_right": 10590.0, "uid": "ì©ì¸_121067", "sgg_cd": "41460", "sgg_nm": "ì©ì¸ì", "lclsf_cd": "I", "lclsf_nm": "ìê°íê±´ì¡°ì§", "mclsf_cd": "ID", "mclsf_nm": "êµíµìì¤ì§", "sclsf_cd": "ID2", "sclsf_nm": "ì¼ë°ëë¡", "dclsf_cd": "ID2_2", "dclsf_nm": "ê°ë¡ì ìë ì¼ë°ëë¡", "ldc_lc_cd": "A", "ldc_lc_nm": "ìê°íê±´ì¡°ì§ì­", "ldc_mc_cd": "A5", "ldc_mc_nm": "êµíµì§ì­", "ldc_sc_cd": "A54", "ldc_sc_nm": "ëë¡", "shade": 0.2, "heat_score": 20.7 }, "geometry": { "type": "Point", "coordinates": [ 127.0940236, 37.3388251 ] } },
{ "type": "Feature", "properties": { "osmid": 5607323386, "y": 37.3396598, "x": 127.095039, "junction": null, "street_count": 3, "highway": null, "ref": null, "felt_temp": 36.851181030273438, "heat_grade": 8.0, "index_right": 10590.0, "uid": "ì©ì¸_121067", "sgg_cd": "41460", "sgg_nm": "ì©ì¸ì", "lclsf_cd": "I", "lclsf_nm": "ìê°íê±´ì¡°ì§", "mclsf_cd": "ID", "mclsf_nm": "êµíµìì¤ì§", "sclsf_cd": "ID2", "sclsf_nm": "ì¼ë°ëë¡", "dclsf_cd": "ID2_2", "dclsf_nm": "ê°ë¡ì ìë ì¼ë°ëë¡", "ldc_lc_cd": "A", "ldc_lc_nm": "ìê°íê±´ì¡°ì§ì­", "ldc_mc_cd": "A5", "ldc_mc_nm": "êµíµì§ì­", "ldc_sc_cd": "A54", "ldc_sc_nm": "ëë¡", "shade": 0.2, "heat_score": 23.31 }, "geometry": { "type": "Point", "coordinates": [ 127.095039, 37.3396598 ] } },
{ "type": "Feature", "properties": { "osmid": 4839373955, "y": 37.3398868, "x": 127.0946888, "junction": null, "street_count": 4, "highway": null, "ref": null, "felt_temp": 36.658187866210938, "heat_grade": 3.0, "index_right": 10956.0, "uid": "ì©ì¸_11894", "sgg_cd": "41460", "sgg_nm": "ì©ì¸ì", "lclsf_cd": "I", "lclsf_nm": "ìê°íê±´ì¡°ì§", "mclsf_cd": "ID", "mclsf_nm": "êµíµìì¤ì§", "sclsf_cd": "ID2", "sclsf_nm": "ì¼ë°ëë¡", "dclsf_cd": "ID2_1", "dclsf_nm": "ê°ë¡ì ìë ì¼ë°ëë¡", "ldc_lc_cd": "A", "ldc_lc_nm": "ìê°íê±´ì¡°ì§ì­", "ldc_mc_cd": "A5", "ldc_mc_nm": "êµíµì§ì­", "ldc_sc_cd": "A54", "ldc_sc_nm": "ëë¡", "shade": 0.2, "heat_score": 21.19 }, "geometry": { "type": "Point", "coordinates": [ 127.0946888, 37.3398868 ] } },
{ "type": "Feature", "properties": { "osmid": 2446592468, "y": 37.3428771, "x": 127.0968774, "junction": null, "street_count": 3, "highway": null, "ref": null, "felt_temp": 36.822851419289591, "heat_grade": 6.4863059452237808, "index_right": null, "uid": null, "sgg_cd": null, "sgg_nm": null, "lclsf_cd": null, "lclsf_nm": null, "mclsf_cd": null, "mclsf_nm": null, "sclsf_cd": null, "sclsf_nm": null, "dclsf_cd": null, "dclsf_nm": null, "ldc_lc_cd": null, "ldc_lc_nm": null, "ldc_mc_cd": null, "ldc_mc_nm": null, "ldc_sc_cd": null, "ldc_sc_nm": null, "shade": 0.2, "heat_score": 22.69 }, "geometry": { "type": "Point", "coordinates": [ 127.0968774, 37.34287710000001 ] } },
{ "type": "Feature", "properties": { "osmid": 2933795644, "y": 37.3426227, "x": 127.0977151, "junction": null, "street_count": 3, "highway": null, "ref": null, "felt_temp": 36.822851419289591, "heat_grade": 6.4863059452237808, "index_right": null, "uid": null, "sgg_cd": null, "sgg_nm": null, "lclsf_cd": null, "lclsf_nm": null, "mclsf_cd": null, "mclsf_nm": null, "sclsf_cd": null, "sclsf_nm": null, "dclsf_cd": null, "dclsf_nm": null, "ldc_lc_cd": null, "ldc_lc_nm": null, "ldc_mc_cd": null, "ldc_mc_nm": null, "ldc_sc_cd": null, "ldc_sc_nm": null, "shade": 0.2, "heat_score": 22.69 }, "geometry": { "type": "Point", "coordinates": [ 127.0977151, 37.3426227 ] } },
{ "type": "Feature", "properties": { "osmid": 878203507, "y": 37.3408158, "x": 127.09974, "junction": null, "street_count": 4, "highway": null, "ref": null, "felt_temp": 36.822851419289591, "heat_grade": 6.4863059452237808, "index_right": null, "uid": null, "sgg_cd": null, "sgg_nm": null, "lclsf_cd": null, "lclsf_nm": null, "mclsf_cd": null, "mclsf_nm": null, "sclsf_cd": null, "sclsf_nm": null, "dclsf_cd": null, "dclsf_nm": null, "ldc_lc_cd": null, "ldc_lc_nm": null, "ldc_mc_cd": null, "ldc_mc_nm": null, "ldc_sc_cd": null, "ldc_sc_nm": null, "shade": 0.2, "heat_score": 22.69 }, "geometry": { "type": "Point", "coordinates": [ 127.09974, 37.3408158 ] } },
{ "type": "Feature", "properties": { "osmid": 878203503, "y": 37.3406078, "x": 127.0991466, "junction": null, "street_count": 3, "highway": null, "ref": null, "felt_temp": 36.568531036376953, "heat_grade": 2.0, "index_right": 10756.0, "uid": "ì©ì¸_121062", "sgg_cd": "41460", "sgg_nm": "ì©ì¸ì", "lclsf_cd": "I", "lclsf_nm": "ìê°íê±´ì¡°ì§", "mclsf_cd": "ID", "mclsf_nm": "êµíµìì¤ì§", "sclsf_cd": "ID2", "sclsf_nm": "ì¼ë°ëë¡", "dclsf_cd": "ID2_2", "dclsf_nm": "ê°ë¡ì ìë ì¼ë°ëë¡", "ldc_lc_cd": "A", "ldc_lc_nm": "ìê°íê±´ì¡°ì§ì­", "ldc_mc_cd": "A5", "ldc_mc_nm": "êµíµì§ì­", "ldc_sc_cd": "A54", "ldc_sc_nm": "ëë¡", "shade": 0.2, "heat_score": 20.74 }, "geometry": { "type": "Point", "coordinates": [ 127.0991466, 37.3406078 ] } },
{ "type": "Feature", "properties": { "osmid": 878203534, "y": 37.3391484, "x": 127.097361, "junction": null, "street_count": 3, "highway": null, "ref": null, "felt_temp": 36.578022003173828, "heat_grade": 2.0, "index_right": 4223.0, "uid": "ì©ì¸_12793", "sgg_cd": "41460", "sgg_nm": "ì©ì¸ì", "lclsf_cd": "I", "lclsf_nm": "ìê°íê±´ì¡°ì§", "mclsf_cd": "ID", "mclsf_nm": "êµíµìì¤ì§", "sclsf_cd": "ID2", "sclsf_nm": "ì¼ë°ëë¡", "dclsf_cd": "ID2_1", "dclsf_nm": "ê°ë¡ì ìë ì¼ë°ëë¡", "ldc_lc_cd": "A", "ldc_lc_nm": "ìê°íê±´ì¡°ì§ì­", "ldc_mc_cd": "A5", "ldc_mc_nm": "êµíµì§ì­", "ldc_sc_cd": "A54", "ldc_sc_nm": "ëë¡", "shade": 0.2, "heat_score": 20.75 }, "geometry": { "type": "Point", "coordinates": [ 127.097361, 37.3391484 ] } },
{ "type": "Feature", "properties": { "osmid": 842899436, "y": 37.3391115, "x": 127.0977656, "junction": null, "street_count": 3, "highway": null, "ref": null, "felt_temp": 36.701183319091797, "heat_grade": 5.0, "index_right": 4223.0, "uid": "ì©ì¸_12793", "sgg_cd": "41460", "sgg_nm": "ì©ì¸ì", "lclsf_cd": "I", "lclsf_nm": "ìê°íê±´ì¡°ì§", "mclsf_cd": "ID", "mclsf_nm": "êµíµìì¤ì§", "sclsf_cd": "ID2", "sclsf_nm": "ì¼ë°ëë¡", "dclsf_cd": "ID2_1", "dclsf_nm": "ê°ë¡ì ìë ì¼ë°ëë¡", "ldc_lc_cd": "A", "ldc_lc_nm": "ìê°íê±´ì¡°ì§ì­", "ldc_mc_cd": "A5", "ldc_mc_nm": "êµíµì§ì­", "ldc_sc_cd": "A54", "ldc_sc_nm": "ëë¡", "shade": 0.2, "heat_score": 22.02 }, "geometry": { "type": "Point", "coordinates": [ 127.097765600000017, 37.3391115 ] } },
{ "type": "Feature", "properties": { "osmid": 3636134759, "y": 37.3388345, "x": 127.0977677, "junction": null, "street_count": 3, "highway": null, "ref": null, "felt_temp": 36.564655303955078, "heat_grade": 2.0, "index_right": 4223.0, "uid": "ì©ì¸_12793", "sgg_cd": "41460", "sgg_nm": "ì©ì¸ì", "lclsf_cd": "I", "lclsf_nm": "ìê°íê±´ì¡°ì§", "mclsf_cd": "ID", "mclsf_nm": "êµíµìì¤ì§", "sclsf_cd": "ID2", "sclsf_nm": "ì¼ë°ëë¡", "dclsf_cd": "ID2_1", "dclsf_nm": "ê°ë¡ì ìë ì¼ë°ëë¡", "ldc_lc_cd": "A", "ldc_lc_nm": "ìê°íê±´ì¡°ì§ì­", "ldc_mc_cd": "A5", "ldc_mc_nm": "êµíµì§ì­", "ldc_sc_cd": "A54", "ldc_sc_nm": "ëë¡", "shade": 0.2, "heat_score": 20.74 }, "geometry": { "type": "Point", "coordinates": [ 127.09776770000002, 37.3388345 ] } },
{ "type": "Feature", "properties": { "osmid": 3636017314, "y": 37.3376932, "x": 127.097767, "junction": "yes", "street_count": 3, "highway": null, "ref": null, "felt_temp": 36.715496063232422, "heat_grade": 5.0, "index_right": 4223.0, "uid": "ì©ì¸_12793", "sgg_cd": "41460", "sgg_nm": "ì©ì¸ì", "lclsf_cd": "I", "lclsf_nm": "ìê°íê±´ì¡°ì§", "mclsf_cd": "ID", "mclsf_nm": "êµíµìì¤ì§", "sclsf_cd": "ID2", "sclsf_nm": "ì¼ë°ëë¡", "dclsf_cd": "ID2_1", "dclsf_nm": "ê°ë¡ì ìë ì¼ë°ëë¡", "ldc_lc_cd": "A", "ldc_lc_nm": "ìê°íê±´ì¡°ì§ì­", "ldc_mc_cd": "A5", "ldc_mc_nm": "êµíµì§ì­", "ldc_sc_cd": "A54", "ldc_sc_nm": "ëë¡", "shade": 0.2, "heat_score": 22.03 }, "geometry": { "type": "Point", "coordinates": [ 127.097767, 37.3376932 ] } },
{ "type": "Feature", "properties": { "osmid": 3636132184, "y": 37.3370456, "x": 127.0977697, "junction": null, "street_count": 3, "highway": null, "ref": null, "felt_temp": 36.725147247314453, "heat_grade": 6.0, "index_right": 4223.0, "uid": "ì©ì¸_12793", "sgg_cd": "41460", "sgg_nm": "ì©ì¸ì", "lclsf_cd": "I", "lclsf_nm": "ìê°íê±´ì¡°ì§", "mclsf_cd": "ID", "mclsf_nm": "êµíµìì¤ì§", "sclsf_cd": "ID2", "sclsf_nm": "ì¼ë°ëë¡", "dclsf_cd": "ID2_1", "dclsf_nm": "ê°ë¡ì ìë ì¼ë°ëë¡", "ldc_lc_cd": "A", "ldc_lc_nm": "ìê°íê±´ì¡°ì§ì­", "ldc_mc_cd": "A5", "ldc_mc_nm": "êµíµì§ì­", "ldc_sc_cd": "A54", "ldc_sc_nm": "ëë¡", "shade": 0.2, "heat_score": 22.44 }, "geometry": { "type": "Point", "coordinates": [ 127.0977697, 37.3370456 ] } },
{ "type": "Feature", "properties": { "osmid": 3908284730, "y": 37.3361278, "x": 127.0977617, "junction": "yes", "street_count": 4, "highway": null, "ref": null, "felt_temp": 36.734039306640625, "heat_grade": 6.0, "index_right": 4223.0, "uid": "ì©ì¸_12793", "sgg_cd": "41460", "sgg_nm": "ì©ì¸ì", "lclsf_cd": "I", "lclsf_nm": "ìê°íê±´ì¡°ì§", "mclsf_cd": "ID", "mclsf_nm": "êµíµìì¤ì§", "sclsf_cd": "ID2", "sclsf_nm": "ì¼ë°ëë¡", "dclsf_cd": "ID2_1", "dclsf_nm": "ê°ë¡ì ìë ì¼ë°ëë¡", "ldc_lc_cd": "A", "ldc_lc_nm": "ìê°íê±´ì¡°ì§ì­", "ldc_mc_cd": "A5", "ldc_mc_nm": "êµíµì§ì­", "ldc_sc_cd": "A54", "ldc_sc_nm": "ëë¡", "shade": 0.2, "heat_score": 22.44 }, "geometry": { "type": "Point", "coordinates": [ 127.097761700000021, 37.3361278 ] } },
{ "type": "Feature", "properties": { "osmid": 3636126875, "y": 37.3361263, "x": 127.0958418, "junction": null, "street_count": 3, "highway": null, "ref": null, "felt_temp": 35.988876342773438, "heat_grade": 1.0, "index_right": 4223.0, "uid": "ì©ì¸_12793", "sgg_cd": "41460", "sgg_nm": "ì©ì¸ì", "lclsf_cd": "I", "lclsf_nm": "ìê°íê±´ì¡°ì§", "mclsf_cd": "ID", "mclsf_nm": "êµíµìì¤ì§", "sclsf_cd": "ID2", "sclsf_nm": "ì¼ë°ëë¡", "dclsf_cd": "ID2_1", "dclsf_nm": "ê°ë¡ì ìë ì¼ë°ëë¡", "ldc_lc_cd": "A", "ldc_lc_nm": "ìê°íê±´ì¡°ì§ì­", "ldc_mc_cd": "A5", "ldc_mc_nm": "êµíµì§ì­", "ldc_sc_cd": "A54", "ldc_sc_nm": "ëë¡", "shade": 0.2, "heat_score": 19.99 }, "geometry": { "type": "Point", "coordinates": [ 127.0958418, 37.3361263 ] } },
{ "type": "Feature", "properties": { "osmid": 878203466, "y": 37.3361211, "x": 127.0936201, "junction": null, "street_count": 3, "highway": null, "ref": null, "felt_temp": 36.312393188476562, "heat_grade": 1.0, "index_right": 4223.0, "uid": "ì©ì¸_12793", "sgg_cd": "41460", "sgg_nm": "ì©ì¸ì", "lclsf_cd": "I", "lclsf_nm": "ìê°íê±´ì¡°ì§", "mclsf_cd": "ID", "mclsf_nm": "êµíµìì¤ì§", "sclsf_cd": "ID2", "sclsf_nm": "ì¼ë°ëë¡", "dclsf_cd": "ID2_1", "dclsf_nm": "ê°ë¡ì ìë ì¼ë°ëë¡", "ldc_lc_cd": "A", "ldc_lc_nm": "ìê°íê±´ì¡°ì§ì­", "ldc_mc_cd": "A5", "ldc_mc_nm": "êµíµì§ì­", "ldc_sc_cd": "A54", "ldc_sc_nm": "ëë¡", "shade": 0.2, "heat_score": 20.19 }, "geometry": { "type": "Point", "coordinates": [ 127.0936201, 37.3361211 ] } },
{ "type": "Feature", "properties": { "osmid": 3636021913, "y": 37.336129, "x": 127.0924296, "junction": null, "street_count": 4, "highway": null, "ref": null, "felt_temp": 36.696224212646484, "heat_grade": 4.0, "index_right": 4223.0, "uid": "ì©ì¸_12793", "sgg_cd": "41460", "sgg_nm": "ì©ì¸ì", "lclsf_cd": "I", "lclsf_nm": "ìê°íê±´ì¡°ì§", "mclsf_cd": "ID", "mclsf_nm": "êµíµìì¤ì§", "sclsf_cd": "ID2", "sclsf_nm": "ì¼ë°ëë¡", "dclsf_cd": "ID2_1", "dclsf_nm": "ê°ë¡ì ìë ì¼ë°ëë¡", "ldc_lc_cd": "A", "ldc_lc_nm": "ìê°íê±´ì¡°ì§ì­", "ldc_mc_cd": "A5", "ldc_mc_nm": "êµíµì§ì­", "ldc_sc_cd": "A54", "ldc_sc_nm": "ëë¡", "shade": 0.2, "heat_score": 21.62 }, "geometry": { "type": "Point", "coordinates": [ 127.0924296, 37.336129 ] } },
{ "type": "Feature", "properties": { "osmid": 3636021914, "y": 37.3358311, "x": 127.0923327, "junction": null, "street_count": 4, "highway": null, "ref": null, "felt_temp": 36.582515716552734, "heat_grade": 2.0, "index_right": 9196.0, "uid": "ì©ì¸_12675", "sgg_cd": "41460", "sgg_nm": "ì©ì¸ì", "lclsf_cd": "I", "lclsf_nm": "ìê°íê±´ì¡°ì§", "mclsf_cd": "ID", "mclsf_nm": "êµíµìì¤ì§", "sclsf_cd": "ID3", "sclsf_nm": "ìëë¡", "dclsf_cd": null, "dclsf_nm": null, "ldc_lc_cd": "A", "ldc_lc_nm": "ìê°íê±´ì¡°ì§ì­", "ldc_mc_cd": "A5", "ldc_mc_nm": "êµíµì§ì­", "ldc_sc_cd": "A54", "ldc_sc_nm": "ëë¡", "shade": 0.2, "heat_score": 20.75 }, "geometry": { "type": "Point", "coordinates": [ 127.0923327, 37.3358311 ] } },
{ "type": "Feature", "properties": { "osmid": 3663151884, "y": 37.3354385, "x": 127.092416, "junction": null, "street_count": 3, "highway": null, "ref": null, "felt_temp": 36.616703033447266, "heat_grade": 3.0, "index_right": 9196.0, "uid": "ì©ì¸_12675", "sgg_cd": "41460", "sgg_nm": "ì©ì¸ì", "lclsf_cd": "I", "lclsf_nm": "ìê°íê±´ì¡°ì§", "mclsf_cd": "ID", "mclsf_nm": "êµíµìì¤ì§", "sclsf_cd": "ID3", "sclsf_nm": "ìëë¡", "dclsf_cd": null, "dclsf_nm": null, "ldc_lc_cd": "A", "ldc_lc_nm": "ìê°íê±´ì¡°ì§ì­", "ldc_mc_cd": "A5", "ldc_mc_nm": "êµíµì§ì­", "ldc_sc_cd": "A54", "ldc_sc_nm": "ëë¡", "shade": 0.2, "heat_score": 21.17 }, "geometry": { "type": "Point", "coordinates": [ 127.092416, 37.3354385 ] } },
{ "type": "Feature", "properties": { "osmid": 3636021915, "y": 37.3351614, "x": 127.0924721, "junction": null, "street_count": 3, "highway": null, "ref": null, "felt_temp": 36.696208953857422, "heat_grade": 4.0, "index_right": 9196.0, "uid": "ì©ì¸_12675", "sgg_cd": "41460", "sgg_nm": "ì©ì¸ì", "lclsf_cd": "I", "lclsf_nm": "ìê°íê±´ì¡°ì§", "mclsf_cd": "ID", "mclsf_nm": "êµíµìì¤ì§", "sclsf_cd": "ID3", "sclsf_nm": "ìëë¡", "dclsf_cd": null, "dclsf_nm": null, "ldc_lc_cd": "A", "ldc_lc_nm": "ìê°íê±´ì¡°ì§ì­", "ldc_mc_cd": "A5", "ldc_mc_nm": "êµíµì§ì­", "ldc_sc_cd": "A54", "ldc_sc_nm": "ëë¡", "shade": 0.2, "heat_score": 21.62 }, "geometry": { "type": "Point", "coordinates": [ 127.0924721, 37.3351614 ] } },
{ "type": "Feature", "properties": { "osmid": 3636017367, "y": 37.3351572, "x": 127.0920886, "junction": null, "street_count": 3, "highway": null, "ref": null, "felt_temp": 35.776500701904297, "heat_grade": 1.0, "index_right": 9195.0, "uid": "ì©ì¸_121207", "sgg_cd": "41460", "sgg_nm": "ì©ì¸ì", "lclsf_cd": "I", "lclsf_nm": "ìê°íê±´ì¡°ì§", "mclsf_cd": "IG", "mclsf_nm": "ê³µê³µì©ëì§", "sclsf_cd": "IG7", "sclsf_nm": "ì¢êµìì¤", "dclsf_cd": null, "dclsf_nm": null, "ldc_lc_cd": "A", "ldc_lc_nm": "ìê°íê±´ì¡°ì§ì­", "ldc_mc_cd": "A3", "ldc_mc_nm": "ììì§ì­", "ldc_sc_cd": "A31", "ldc_sc_nm": "ììÂ·ìë¬´ìì¤", "shade": 0.2, "heat_score": 19.87 }, "geometry": { "type": "Point", "coordinates": [ 127.092088600000011, 37.3351572 ] } },
{ "type": "Feature", "properties": { "osmid": 3636017368, "y": 37.3351529, "x": 127.0916594, "junction": null, "street_count": 3, "highway": null, "ref": null, "felt_temp": 36.810127258300781, "heat_grade": 7.0, "index_right": 9196.0, "uid": "ì©ì¸_12675", "sgg_cd": "41460", "sgg_nm": "ì©ì¸ì", "lclsf_cd": "I", "lclsf_nm": "ìê°íê±´ì¡°ì§", "mclsf_cd": "ID", "mclsf_nm": "êµíµìì¤ì§", "sclsf_cd": "ID3", "sclsf_nm": "ìëë¡", "dclsf_cd": null, "dclsf_nm": null, "ldc_lc_cd": "A", "ldc_lc_nm": "ìê°íê±´ì¡°ì§ì­", "ldc_mc_cd": "A5", "ldc_mc_nm": "êµíµì§ì­", "ldc_sc_cd": "A54", "ldc_sc_nm": "ëë¡", "shade": 0.2, "heat_score": 22.89 }, "geometry": { "type": "Point", "coordinates": [ 127.0916594, 37.3351529 ] } },
{ "type": "Feature", "properties": { "osmid": 3636020174, "y": 37.3343297, "x": 127.0912356, "junction": null, "street_count": 3, "highway": null, "ref": null, "felt_temp": 36.231372833251953, "heat_grade": 1.0, "index_right": 9063.0, "uid": "ì©ì¸_121245", "sgg_cd": "41460", "sgg_nm": "ì©ì¸ì", "lclsf_cd": "A", "lclsf_nm": "ìì°ì°ë¦¼", "mclsf_cd": "AA", "mclsf_nm": "ì°¸ëë¬´ë¥ ìë¦¼", "sclsf_cd": "AA3", "sclsf_nm": "ì ê°ëë¬´ ì°ì  ì°¸ëë¬´ë¦¼", "dclsf_cd": "QmQ", "dclsf_nm": "ì ê°ëë¬´-ì°¸ëë¬´ë¥êµ°ë½", "ldc_lc_cd": "C", "ldc_lc_nm": "ì°ë¦¼ì§ì­", "ldc_mc_cd": "C1", "ldc_mc_nm": "íì½ìë¦¼", "ldc_sc_cd": "C11", "ldc_sc_nm": "íì½ìë¦¼", "shade": 0.2, "heat_score": 20.14 }, "geometry": { "type": "Point", "coordinates": [ 127.091235600000019, 37.3343297 ] } },
{ "type": "Feature", "properties": { "osmid": 3636017366, "y": 37.3343259, "x": 127.0908483, "junction": null, "street_count": 3, "highway": null, "ref": null, "felt_temp": 36.164749145507812, "heat_grade": 1.0, "index_right": 9048.0, "uid": "ì©ì¸_7458", "sgg_cd": "41460", "sgg_nm": "ì©ì¸ì", "lclsf_cd": "H", "lclsf_nm": "ì¡°ì±ë¹ì§", "mclsf_cd": "HD", "mclsf_nm": "ê³µê³µí´ìë¹ì§", "sclsf_cd": "HD2", "sclsf_nm": "ì´ë¦°ì´ê³µì", "dclsf_cd": null, "dclsf_nm": null, "ldc_lc_cd": "D", "ldc_lc_nm": "ì´ì§", "ldc_mc_cd": "D2", "ldc_mc_nm": "ì¸ê³µì´ì§", "ldc_sc_cd": "D23", "ldc_sc_nm": "ê¸°íì´ì§", "shade": 0.2, "heat_score": 20.1 }, "geometry": { "type": "Point", "coordinates": [ 127.0908483, 37.3343259 ] } },
{ "type": "Feature", "properties": { "osmid": 3636017369, "y": 37.3351614, "x": 127.09049, "junction": null, "street_count": 3, "highway": null, "ref": null, "felt_temp": 36.538436889648438, "heat_grade": 2.0, "index_right": 4223.0, "uid": "ì©ì¸_12793", "sgg_cd": "41460", "sgg_nm": "ì©ì¸ì", "lclsf_cd": "I", "lclsf_nm": "ìê°íê±´ì¡°ì§", "mclsf_cd": "ID", "mclsf_nm": "êµíµìì¤ì§", "sclsf_cd": "ID2", "sclsf_nm": "ì¼ë°ëë¡", "dclsf_cd": "ID2_1", "dclsf_nm": "ê°ë¡ì ìë ì¼ë°ëë¡", "ldc_lc_cd": "A", "ldc_lc_nm": "ìê°íê±´ì¡°ì§ì­", "ldc_mc_cd": "A5", "ldc_mc_nm": "êµíµì§ì­", "ldc_sc_cd": "A54", "ldc_sc_nm": "ëë¡", "shade": 0.2, "heat_score": 20.72 }, "geometry": { "type": "Point", "coordinates": [ 127.09049, 37.3351614 ] } },
{ "type": "Feature", "properties": { "osmid": 3636017372, "y": 37.3355336, "x": 127.0900166, "junction": null, "street_count": 3, "highway": null, "ref": null, "felt_temp": 36.300247192382812, "heat_grade": 1.0, "index_right": 4223.0, "uid": "ì©ì¸_12793", "sgg_cd": "41460", "sgg_nm": "ì©ì¸ì", "lclsf_cd": "I", "lclsf_nm": "ìê°íê±´ì¡°ì§", "mclsf_cd": "ID", "mclsf_nm": "êµíµìì¤ì§", "sclsf_cd": "ID2", "sclsf_nm": "ì¼ë°ëë¡", "dclsf_cd": "ID2_1", "dclsf_nm": "ê°ë¡ì ìë ì¼ë°ëë¡", "ldc_lc_cd": "A", "ldc_lc_nm": "ìê°íê±´ì¡°ì§ì­", "ldc_mc_cd": "A5", "ldc_mc_nm": "êµíµì§ì­", "ldc_sc_cd": "A54", "ldc_sc_nm": "ëë¡", "shade": 0.2, "heat_score": 20.18 }, "geometry": { "type": "Point", "coordinates": [ 127.090016600000013, 37.3355336 ] } },
{ "type": "Feature", "properties": { "osmid": 3635959397, "y": 37.3354045, "x": 127.0890067, "junction": null, "street_count": 3, "highway": null, "ref": null, "felt_temp": 36.372966766357422, "heat_grade": 1.0, "index_right": 4223.0, "uid": "ì©ì¸_12793", "sgg_cd": "41460", "sgg_nm": "ì©ì¸ì", "lclsf_cd": "I", "lclsf_nm": "ìê°íê±´ì¡°ì§", "mclsf_cd": "ID", "mclsf_nm": "êµíµìì¤ì§", "sclsf_cd": "ID2", "sclsf_nm": "ì¼ë°ëë¡", "dclsf_cd": "ID2_1", "dclsf_nm": "ê°ë¡ì ìë ì¼ë°ëë¡", "ldc_lc_cd": "A", "ldc_lc_nm": "ìê°íê±´ì¡°ì§ì­", "ldc_mc_cd": "A5", "ldc_mc_nm": "êµíµì§ì­", "ldc_sc_cd": "A54", "ldc_sc_nm": "ëë¡", "shade": 0.2, "heat_score": 20.22 }, "geometry": { "type": "Point", "coordinates": [ 127.089006700000013, 37.3354045 ] } },
{ "type": "Feature", "properties": { "osmid": 2446592484, "y": 37.3374421, "x": 127.0891064, "junction": null, "street_count": 4, "highway": null, "ref": null, "felt_temp": 35.946830749511719, "heat_grade": 1.0, "index_right": 4223.0, "uid": "ì©ì¸_12793", "sgg_cd": "41460", "sgg_nm": "ì©ì¸ì", "lclsf_cd": "I", "lclsf_nm": "ìê°íê±´ì¡°ì§", "mclsf_cd": "ID", "mclsf_nm": "êµíµìì¤ì§", "sclsf_cd": "ID2", "sclsf_nm": "ì¼ë°ëë¡", "dclsf_cd": "ID2_1", "dclsf_nm": "ê°ë¡ì ìë ì¼ë°ëë¡", "ldc_lc_cd": "A", "ldc_lc_nm": "ìê°íê±´ì¡°ì§ì­", "ldc_mc_cd": "A5", "ldc_mc_nm": "êµíµì§ì­", "ldc_sc_cd": "A54", "ldc_sc_nm": "ëë¡", "shade": 0.2, "heat_score": 19.97 }, "geometry": { "type": "Point", "coordinates": [ 127.0891064, 37.3374421 ] } }
]
}
