{
"type": "FeatureCollection",
"name": "cool_cycle_3km_route2_nodes",
"crs": { "type": "name", "properties": { "name": "urn:ogc:def:crs:OGC:1.3:CRS84" } },
"features": [
{ "type": "Feature", "properties": { "osmid": 3662166668, "y": 37.2966549, "x": 127.0708174, "junction": null, "street_count": 3, "highway": null, "ref": null, "felt_temp": 36.375995635986328, "heat_grade": 1.0, "index_right": 285.0, "uid": "ì©ì¸_4096", "sgg_cd": "41460", "sgg_nm": "ì©ì¸ì", "lclsf_cd": "I", "lclsf_nm": "ìê°íê±´ì¡°ì§", "mclsf_cd": "IA", "mclsf_nm": "ê³µëì£¼íì§", "sclsf_cd": "IA1", "sclsf_nm": "ê³ ì¸µ ê³µëì£¼íë¨ì§", "dclsf_cd": "IA1_2", "dclsf_nm": "ê³ ì¸µ ê³µëì£¼íìì¤", "ldc_lc_cd": "A", "ldc_lc_nm": "ìê°íê±´ì¡°ì§ì­", "ldc_mc_cd": "A1", "ldc_mc_nm": "ì£¼ê±°ì§ì­", "ldc_sc_cd": "A12", "ldc_sc_nm": "ê³µëì£¼ê±°ìì¤", "shade": 0.2, "heat_score": 20.23 }, "geometry": { "type": "Point", "coordinates": [ 127.0708174, 37.2966549 ] } },
{ "type": "Feature", "properties": { "osmid": 3790849638, "y": 37.2983176, "x": 127.0716431, "junction": "yes", "street_count": 3, "highway": null, "ref": null, "felt_temp": 36.654678344726562, "heat_grade": 3.0, "index_right": 4223.0, "uid": "ì©ì¸_12793", "sgg_cd": "41460", "sgg_nm": "ì©ì¸ì", "lclsf_cd": "I", "lclsf_nm": "ìê°íê±´ì¡°ì§", "mclsf_cd": "ID", "mclsf_nm": "êµíµìì¤ì§", "sclsf_cd": "ID2", "sclsf_nm": "ì¼ë°ëë¡", "dclsf_cd": "ID2_1", "dclsf_nm": "ê°ë¡ì ìë ì¼ë°ëë¡", "ldc_lc_cd": "A", "ldc_lc_nm": "ìê°íê±´ì¡°ì§ì­", "ldc_mc_cd": "A5", "ldc_mc_nm": "êµíµì§ì­", "ldc_sc_cd": "A54", "ldc_sc_nm": "ëë¡", "shade": 0.2, "heat_score": 21.19 }, "geometry": { "type": "Point", "coordinates": [ 127.071643100000017, 37.2983176 ] } },
{ "type": "Feature", "properties": { "osmid": 3187954871, "y": 37.2987113, "x": 127.0696177, "junction": "yes", "street_count": 4, "highway": null, "ref": null, "felt_temp": 36.789409637451172, "heat_grade": 7.0, "index_right": 4223.0, "uid": "ì©ì¸_12793", "sgg_cd": "41460", "sgg_nm": "ì©ì¸ì", "lclsf_cd": "I", "lclsf_nm": "ìê°íê±´ì¡°ì§", "mclsf_cd": "ID", "mclsf_nm": "êµíµìì¤ì§", "sclsf_cd": "ID2", "sclsf_nm": "ì¼ë°ëë¡", "dclsf_cd": "ID2_1", "dclsf_nm": "ê°ë¡ì ìë ì¼ë°ëë¡", "ldc_lc_cd": "A", "ldc_lc_nm": "ìê°íê±´ì¡°ì§ì­", "ldc_mc_cd": "A5", "ldc_mc_nm": "êµíµì§ì­", "ldc_sc_cd": "A54", "ldc_sc_nm": "ëë¡", "shade": 0.2, "heat_score": 22.87 }, "geometry": { "type": "Point", "coordinates": [ 127.0696177, 37.2987113 ] } },
{ "type": "Feature", "properties": { "osmid": 3790816770, "y": 37.3000887, "x": 127.0699897, "junction": null, "street_count": 3, "highway": null, "ref": null, "felt_temp": 36.812282562255859, "heat_grade": 7.0, "index_right": 4223.0, "uid": "ì©ì¸_12793", "sgg_cd": "41460", "sgg_nm": "ì©ì¸ì", "lclsf_cd": "I", "lclsf_nm": "ìê°íê±´ì¡°ì§", "mclsf_cd": "ID", "mclsf_nm": "êµíµìì¤ì§", "sclsf_cd": "ID2", "sclsf_nm": "ì¼ë°ëë¡", "dclsf_cd": "ID2_1", "dclsf_nm": "ê°ë¡ì ìë ì¼ë°ëë¡", "ldc_lc_cd": "A", "ldc_lc_nm": "ìê°íê±´ì¡°ì§ì­", "ldc_mc_cd": "A5", "ldc_mc_nm": "êµíµì§ì­", "ldc_sc_cd": "A54", "ldc_sc_nm": "ëë¡", "shade": 0.2, "heat_score": 22.89 }, "geometry": { "type": "Point", "coordinates": [ 127.0699897, 37.3000887 ] } },
{ "type": "Feature", "properties": { "osmid": 3790816771, "y": 37.3006128, "x": 127.0701346, "junction": null, "street_count": 4, "highway": null, "ref": null, "felt_temp": 36.697883605957031, "heat_grade": 5.0, "index_right": 4223.0, "uid": "ì©ì¸_12793", "sgg_cd": "41460", "sgg_nm": "ì©ì¸ì", "lclsf_cd": "I", "lclsf_nm": "ìê°íê±´ì¡°ì§", "mclsf_cd": "ID", "mclsf_nm": "êµíµìì¤ì§", "sclsf_cd": "ID2", "sclsf_nm": "ì¼ë°ëë¡", "dclsf_cd": "ID2_1", "dclsf_nm": "ê°ë¡ì ìë ì¼ë°ëë¡", "ldc_lc_cd": "A", "ldc_lc_nm": "ìê°íê±´ì¡°ì§ì­", "ldc_mc_cd": "A5", "ldc_mc_nm": "êµíµì§ì­", "ldc_sc_cd": "A54", "ldc_sc_nm": "ëë¡", "shade": 0.2, "heat_score": 22.02 }, "geometry": { "type": "Point", "coordinates": [ 127.070134600000017, 37.30061280000001 ] } },
{ "type": "Feature", "properties": { "osmid": 3790582564, "y": 37.3008565, "x": 127.0699381, "junction": null, "street_count": 3, "highway": null, "ref": null, "felt_temp": 37.125492095947266, "heat_grade": 9.0, "index_right": 4223.0, "uid": "ì©ì¸_12793", "sgg_cd": "41460", "sgg_nm": "ì©ì¸ì", "lclsf_cd": "I", "lclsf_nm": "ìê°íê±´ì¡°ì§", "mclsf_cd": "ID", "mclsf_nm": "êµíµìì¤ì§", "sclsf_cd": "ID2", "sclsf_nm": "ì¼ë°ëë¡", "dclsf_cd": "ID2_1", "dclsf_nm": "ê°ë¡ì ìë ì¼ë°ëë¡", "ldc_lc_cd": "A", "ldc_lc_nm": "ìê°íê±´ì¡°ì§ì­", "ldc_mc_cd": "A5", "ldc_mc_nm": "êµíµì§ì­", "ldc_sc_cd": "A54", "ldc_sc_nm": "ëë¡", "shade": 0.2, "heat_score": 23.88 }, "geometry": { "type": "Point", "coordinates": [ 127.069938100000016, 37.3008565 ] } },
{ "type": "Feature", "properties": { "osmid": 6820615301, "y": 37.3010524, "x": 127.070317, "junction": null, "street_count": 3, "highway": null, "ref": null, "felt_temp": 36.446075439453125, "heat_grade": 1.0, "index_right": 4223.0, "uid": "ì©ì¸_12793", "sgg_cd": "41460", "sgg_nm": "ì©ì¸ì", "lclsf_cd": "I", "lclsf_nm": "ìê°íê±´ì¡°ì§", "mclsf_cd": "ID", "mclsf_nm": "êµíµìì¤ì§", "sclsf_cd": "ID2", "sclsf_nm": "ì¼ë°ëë¡", "dclsf_cd": "ID2_1", "dclsf_nm": "ê°ë¡ì ìë ì¼ë°ëë¡", "ldc_lc_cd": "A", "ldc_lc_nm": "ìê°íê±´ì¡°ì§ì­", "ldc_mc_cd": "A5", "ldc_mc_nm": "êµíµì§ì­", "ldc_sc_cd": "A54", "ldc_sc_nm": "ëë¡", "shade": 0.2, "heat_score": 20.27 }, "geometry": { "type": "Point", "coordinates": [ 127.070317, 37.3010524 ] } },
{ "type": "Feature", "properties": { "osmid": 6820615290, "y": 37.3020378, "x": 127.07215, "junction": null, "street_count": 4, "highway": null, "ref": null, "felt_temp": 36.83477783203125, "heat_grade": 8.0, "index_right": 4223.0, "uid": "ì©ì¸_12793", "sgg_cd": "41460", "sgg_nm": "ì©ì¸ì", "lclsf_cd": "I", "lclsf_nm": "ìê°íê±´ì¡°ì§", "mclsf_cd": "ID", "mclsf_nm": "êµíµìì¤ì§", "sclsf_cd": "ID2", "sclsf_nm": "ì¼ë°ëë¡", "dclsf_cd": "ID2_1", "dclsf_nm": "ê°ë¡ì ìë ì¼ë°ëë¡", "ldc_lc_cd": "A", "ldc_lc_nm": "ìê°íê±´ì¡°ì§ì­", "ldc_mc_cd": "A5", "ldc_mc_nm": "êµíµì§ì­", "ldc_sc_cd": "A54", "ldc_sc_nm": "ëë¡", "shade": 0.2, "heat_score": 23.3 }, "geometry": { "type": "Point", "coordinates": [ 127.07215, 37.3020378 ] } },
{ "type": "Feature", "properties": { "osmid": 6820615302, "y": 37.3018064, "x": 127.0723612, "junction": "yes", "street_count": 4, "highway": null, "ref": null, "felt_temp": 36.613399505615234, "heat_grade": 3.0, "index_right": 4223.0, "uid": "ì©ì¸_12793", "sgg_cd": "41460", "sgg_nm": "ì©ì¸ì", "lclsf_cd": "I", "lclsf_nm": "ìê°íê±´ì¡°ì§", "mclsf_cd": "ID", "mclsf_nm": "êµíµìì¤ì§", "sclsf_cd": "ID2", "sclsf_nm": "ì¼ë°ëë¡", "dclsf_cd": "ID2_1", "dclsf_nm": "ê°ë¡ì ìë ì¼ë°ëë¡", "ldc_lc_cd": "A", "ldc_lc_nm": "ìê°íê±´ì¡°ì§ì­", "ldc_mc_cd": "A5", "ldc_mc_nm": "êµíµì§ì­", "ldc_sc_cd": "A54", "ldc_sc_nm": "ëë¡", "shade": 0.2, "heat_score": 21.17 }, "geometry": { "type": "Point", "coordinates": [ 127.0723612, 37.301806400000011 ] } },
{ "type": "Feature", "properties": { "osmid": 7179444076, "y": 37.3028768, "x": 127.074137, "junction": null, "street_count": 3, "highway": null, "ref": null, "felt_temp": 36.915081024169922, "heat_grade": 8.0, "index_right": 4223.0, "uid": "ì©ì¸_12793", "sgg_cd": "41460", "sgg_nm": "ì©ì¸ì", "lclsf_cd": "I", "lclsf_nm": "ìê°íê±´ì¡°ì§", "mclsf_cd": "ID", "mclsf_nm": "êµíµìì¤ì§", "sclsf_cd": "ID2", "sclsf_nm": "ì¼ë°ëë¡", "dclsf_cd": "ID2_1", "dclsf_nm": "ê°ë¡ì ìë ì¼ë°ëë¡", "ldc_lc_cd": "A", "ldc_lc_nm": "ìê°íê±´ì¡°ì§ì­", "ldc_mc_cd": "A5", "ldc_mc_nm": "êµíµì§ì­", "ldc_sc_cd": "A54", "ldc_sc_nm": "ëë¡", "shade": 0.2, "heat_score": 23.35 }, "geometry": { "type": "Point", "coordinates": [ 127.074137, 37.3028768 ] } },
{ "type": "Feature", "properties": { "osmid": 4708513142, "y": 37.3028345, "x": 127.0746297, "junction": null, "street_count": 5, "highway": null, "ref": null, "felt_temp": 36.398815155029297, "heat_grade": 1.0, "index_right": 4223.0, "uid": "ì©ì¸_12793", "sgg_cd": "41460", "sgg_nm": "ì©ì¸ì", "lclsf_cd": "I", "lclsf_nm": "ìê°íê±´ì¡°ì§", "mclsf_cd": "ID", "mclsf_nm": "êµíµìì¤ì§", "sclsf_cd": "ID2", "sclsf_nm": "ì¼ë°ëë¡", "dclsf_cd": "ID2_1", "dclsf_nm": "ê°ë¡ì ìë ì¼ë°ëë¡", "ldc_lc_cd": "A", "ldc_lc_nm": "ìê°íê±´ì¡°ì§ì­", "ldc_mc_cd": "A5", "ldc_mc_nm": "êµíµì§ì­", "ldc_sc_cd": "A54", "ldc_sc_nm": "ëë¡", "shade": 0.2, "heat_score": 20.24 }, "geometry": { "type": "Point", "coordinates": [ 127.0746297, 37.3028345 ] } },
{ "type": "Feature", "properties": { "osmid": 3660798017, "y": 37.3026928, "x": 127.0754937, "junction": null, "street_count": 4, "highway": null, "ref": null, "felt_temp": 36.700706481933594, "heat_grade": 5.0, "index_right": 4223.0, "uid": "ì©ì¸_12793", "sgg_cd": "41460", "sgg_nm": "ì©ì¸ì", "lclsf_cd": "I", "lclsf_nm": "ìê°íê±´ì¡°ì§", "mclsf_cd": "ID", "mclsf_nm": "êµíµìì¤ì§", "sclsf_cd": "ID2", "sclsf_nm": "ì¼ë°ëë¡", "dclsf_cd": "ID2_1", "dclsf_nm": "ê°ë¡ì ìë ì¼ë°ëë¡", "ldc_lc_cd": "A", "ldc_lc_nm": "ìê°íê±´ì¡°ì§ì­", "ldc_mc_cd": "A5", "ldc_mc_nm": "êµíµì§ì­", "ldc_sc_cd": "A54", "ldc_sc_nm": "ëë¡", "shade": 0.2, "heat_score": 22.02 }, "geometry": { "type": "Point", "coordinates": [ 127.07549370000001, 37.3026928 ] } },
{ "type": "Feature", "properties": { "osmid": 3187964067, "y": 37.2977069, "x": 127.0735029, "junction": "yes", "street_count": 4, "highway": null, "ref": null, "felt_temp": 36.659690856933594, "heat_grade": 3.0, "index_right": 4223.0, "uid": "ì©ì¸_12793", "sgg_cd": "41460", "sgg_nm": "ì©ì¸ì", "lclsf_cd": "I", "lclsf_nm": "ìê°íê±´ì¡°ì§", "mclsf_cd": "ID", "mclsf_nm": "êµíµìì¤ì§", "sclsf_cd": "ID2", "sclsf_nm": "ì¼ë°ëë¡", "dclsf_cd": "ID2_1", "dclsf_nm": "ê°ë¡ì ìë ì¼ë°ëë¡", "ldc_lc_cd": "A", "ldc_lc_nm": "ìê°íê±´ì¡°ì§ì­", "ldc_mc_cd": "A5", "ldc_mc_nm": "êµíµì§ì­", "ldc_sc_cd": "A54", "ldc_sc_nm": "ëë¡", "shade": 0.2, "heat_score": 21.2 }, "geometry": { "type": "Point", "coordinates": [ 127.0735029, 37.2977069 ] } },
{ "type": "Feature", "properties": { "osmid": 3662168684, "y": 37.2969003, "x": 127.0732781, "junction": null, "street_count": 3, "highway": null, "ref": null, "felt_temp": 36.425430297851562, "heat_grade": 1.0, "index_right": 4223.0, "uid": "ì©ì¸_12793", "sgg_cd": "41460", "sgg_nm": "ì©ì¸ì", "lclsf_cd": "I", "lclsf_nm": "ìê°íê±´ì¡°ì§", "mclsf_cd": "ID", "mclsf_nm": "êµíµìì¤ì§", "sclsf_cd": "ID2", "sclsf_nm": "ì¼ë°ëë¡", "dclsf_cd": "ID2_1", "dclsf_nm": "ê°ë¡ì ìë ì¼ë°ëë¡", "ldc_lc_cd": "A", "ldc_lc_nm": "ìê°íê±´ì¡°ì§ì­", "ldc_mc_cd": "A5", "ldc_mc_nm": "êµíµì§ì­", "ldc_sc_cd": "A54", "ldc_sc_nm": "ëë¡", "shade": 0.2, "heat_score": 20.26 }, "geometry": { "type": "Point", "coordinates": [ 127.0732781, 37.2969003 ] } },
{ "type": "Feature", "properties": { "osmid": 3662168493, "y": 37.296939, "x": 127.0730328, "junction": null, "street_count": 3, "highway": null, "ref": null, "felt_temp": 36.597354888916016, "heat_grade": 3.0, "index_right": 285.0, "uid": "ì©ì¸_4096", "sgg_cd": "41460", "sgg_nm": "ì©ì¸ì", "lclsf_cd": "I", "lclsf_nm": "ìê°íê±´ì¡°ì§", "mclsf_cd": "IA", "mclsf_nm": "ê³µëì£¼íì§", "sclsf_cd": "IA1", "sclsf_nm": "ê³ ì¸µ ê³µëì£¼íë¨ì§", "dclsf_cd": "IA1_2", "dclsf_nm": "ê³ ì¸µ ê³µëì£¼íìì¤", "ldc_lc_cd": "A", "ldc_lc_nm": "ìê°íê±´ì¡°ì§ì­", "ldc_mc_cd": "A1", "ldc_mc_nm": "ì£¼ê±°ì§ì­", "ldc_sc_cd": "A12", "ldc_sc_nm": "ê³µëì£¼ê±°ìì¤", "shade": 0.2, "heat_score": 21.16 }, "geometry": { "type": "Point", "coordinates": [ 127.0730328, 37.296939 ] } },
{ "type": "Feature", "properties": { "osmid": 3662166668, "y": 37.2966549, "x": 127.0708174, "junction": null, "street_count": 3, "highway": null, "ref": null, "felt_temp": 36.375995635986328, "heat_grade": 1.0, "index_right": 285.0, "uid": "ì©ì¸_4096", "sgg_cd": "41460", "sgg_nm": "ì©ì¸ì", "lclsf_cd": "I", "lclsf_nm": "ìê°íê±´ì¡°ì§", "mclsf_cd": "IA", "mclsf_nm": "ê³µëì£¼íì§", "sclsf_cd": "IA1", "sclsf_nm": "ê³ ì¸µ ê³µëì£¼íë¨ì§", "dclsf_cd": "IA1_2", "dclsf_nm": "ê³ ì¸µ ê³µëì£¼íìì¤", "ldc_lc_cd": "A", "ldc_lc_nm": "ìê°íê±´ì¡°ì§ì­", "ldc_mc_cd": "A1", "ldc_mc_nm": "ì£¼ê±°ì§ì­", "ldc_sc_cd": "A12", "ldc_sc_nm": "ê³µëì£¼ê±°ìì¤", "shade": 0.2, "heat_score": 20.23 }, "geometry": { "type": "Point", "coordinates": [ 127.0708174, 37.2966549 ] } }
]
}
