{
"type": "FeatureCollection",
"name": "cool_cycle_1km_route2_nodes",
"crs": { "type": "name", "properties": { "name": "urn:ogc:def:crs:OGC:1.3:CRS84" } },
"features": [
{ "type": "Feature", "properties": { "osmid": 6541799368, "y": 37.3313381, "x": 127.1151166, "junction": null, "street_count": 4, "highway": null, "ref": null, "felt_temp": 35.713943481445312, "heat_grade": 1.0, "index_right": 7207.0, "uid": "ì©ì¸_118595", "sgg_cd": "41460", "sgg_nm": "ì©ì¸ì", "lclsf_cd": "I", "lclsf_nm": "ìê°íê±´ì¡°ì§", "mclsf_cd": "IA", "mclsf_nm": "ê³µëì£¼íì§", "sclsf_cd": "IA1", "sclsf_nm": "ê³ ì¸µ ê³µëì£¼íë¨ì§", "dclsf_cd": "IA1_2", "dclsf_nm": "ê³ ì¸µ ê³µëì£¼íìì¤", "ldc_lc_cd": "A", "ldc_lc_nm": "ìê°íê±´ì¡°ì§ì­", "ldc_mc_cd": "A1", "ldc_mc_nm": "ì£¼ê±°ì§ì­", "ldc_sc_cd": "A12", "ldc_sc_nm": "ê³µëì£¼ê±°ìì¤", "shade": 0.2, "heat_score": 19.83 }, "geometry": { "type": "Point", "coordinates": [ 127.1151166, 37.3313381 ] } },
{ "type": "Feature", "properties": { "osmid": 6541799349, "y": 37.3310078, "x": 127.1148803, "junction": null, "street_count": 3, "highway": null, "ref": null, "felt_temp": 36.343997955322266, "heat_grade": 1.0, "index_right": 7207.0, "uid": "ì©ì¸_118595", "sgg_cd": "41460", "sgg_nm": "ì©ì¸ì", "lclsf_cd": "I", "lclsf_nm": "ìê°íê±´ì¡°ì§", "mclsf_cd": "IA", "mclsf_nm": "ê³µëì£¼íì§", "sclsf_cd": "IA1", "sclsf_nm": "ê³ ì¸µ ê³µëì£¼íë¨ì§", "dclsf_cd": "IA1_2", "dclsf_nm": "ê³ ì¸µ ê³µëì£¼íìì¤", "ldc_lc_cd": "A", "ldc_lc_nm": "ìê°íê±´ì¡°ì§ì­", "ldc_mc_cd": "A1", "ldc_mc_nm": "ì£¼ê±°ì§ì­", "ldc_sc_cd": "A12", "ldc_sc_nm": "ê³µëì£¼ê±°ìì¤", "shade": 0.2, "heat_score": 20.21 }, "geometry": { "type": "Point", "coordinates": [ 127.11488030000001, 37.3310078 ] } },
{ "type": "Feature", "properties": { "osmid": 6541799338, "y": 37.3311272, "x": 127.1151179, "junction": null, "street_count": 3, "highway": null, "ref": null, "felt_temp": 36.671604156494141, "heat_grade": 4.0, "index_right": 7207.0, "uid": "ì©ì¸_118595", "sgg_cd": "41460", "sgg_nm": "ì©ì¸ì", "lclsf_cd": "I", "lclsf_nm": "ìê°íê±´ì¡°ì§", "mclsf_cd": "IA", "mclsf_nm": "ê³µëì£¼íì§", "sclsf_cd": "IA1", "sclsf_nm": "ê³ ì¸µ ê³µëì£¼íë¨ì§", "dclsf_cd": "IA1_2", "dclsf_nm": "ê³ ì¸µ ê³µëì£¼íìì¤", "ldc_lc_cd": "A", "ldc_lc_nm": "ìê°íê±´ì¡°ì§ì­", "ldc_mc_cd": "A1", "ldc_mc_nm": "ì£¼ê±°ì§ì­", "ldc_sc_cd": "A12", "ldc_sc_nm": "ê³µëì£¼ê±°ìì¤", "shade": 0.2, "heat_score": 21.6 }, "geometry": { "type": "Point", "coordinates": [ 127.115117899999987, 37.3311272 ] } },
{ "type": "Feature", "properties": { "osmid": 6541799340, "y": 37.3310884, "x": 127.1152823, "junction": null, "street_count": 3, "highway": null, "ref": null, "felt_temp": 36.600151062011719, "heat_grade": 3.0, "index_right": 7207.0, "uid": "ì©ì¸_118595", "sgg_cd": "41460", "sgg_nm": "ì©ì¸ì", "lclsf_cd": "I", "lclsf_nm": "ìê°íê±´ì¡°ì§", "mclsf_cd": "IA", "mclsf_nm": "ê³µëì£¼íì§", "sclsf_cd": "IA1", "sclsf_nm": "ê³ ì¸µ ê³µëì£¼íë¨ì§", "dclsf_cd": "IA1_2", "dclsf_nm": "ê³ ì¸µ ê³µëì£¼íìì¤", "ldc_lc_cd": "A", "ldc_lc_nm": "ìê°íê±´ì¡°ì§ì­", "ldc_mc_cd": "A1", "ldc_mc_nm": "ì£¼ê±°ì§ì­", "ldc_sc_cd": "A12", "ldc_sc_nm": "ê³µëì£¼ê±°ìì¤", "shade": 0.2, "heat_score": 21.16 }, "geometry": { "type": "Point", "coordinates": [ 127.1152823, 37.3310884 ] } },
{ "type": "Feature", "properties": { "osmid": 6541799342, "y": 37.3306939, "x": 127.1154435, "junction": null, "street_count": 3, "highway": null, "ref": null, "felt_temp": 36.348628997802734, "heat_grade": 1.0, "index_right": 7207.0, "uid": "ì©ì¸_118595", "sgg_cd": "41460", "sgg_nm": "ì©ì¸ì", "lclsf_cd": "I", "lclsf_nm": "ìê°íê±´ì¡°ì§", "mclsf_cd": "IA", "mclsf_nm": "ê³µëì£¼íì§", "sclsf_cd": "IA1", "sclsf_nm": "ê³ ì¸µ ê³µëì£¼íë¨ì§", "dclsf_cd": "IA1_2", "dclsf_nm": "ê³ ì¸µ ê³µëì£¼íìì¤", "ldc_lc_cd": "A", "ldc_lc_nm": "ìê°íê±´ì¡°ì§ì­", "ldc_mc_cd": "A1", "ldc_mc_nm": "ì£¼ê±°ì§ì­", "ldc_sc_cd": "A12", "ldc_sc_nm": "ê³µëì£¼ê±°ìì¤", "shade": 0.2, "heat_score": 20.21 }, "geometry": { "type": "Point", "coordinates": [ 127.1154435, 37.3306939 ] } },
{ "type": "Feature", "properties": { "osmid": 6541799343, "y": 37.3310891, "x": 127.1154435, "junction": null, "street_count": 3, "highway": null, "ref": null, "felt_temp": 36.688251495361328, "heat_grade": 4.0, "index_right": 7207.0, "uid": "ì©ì¸_118595", "sgg_cd": "41460", "sgg_nm": "ì©ì¸ì", "lclsf_cd": "I", "lclsf_nm": "ìê°íê±´ì¡°ì§", "mclsf_cd": "IA", "mclsf_nm": "ê³µëì£¼íì§", "sclsf_cd": "IA1", "sclsf_nm": "ê³ ì¸µ ê³µëì£¼íë¨ì§", "dclsf_cd": "IA1_2", "dclsf_nm": "ê³ ì¸µ ê³µëì£¼íìì¤", "ldc_lc_cd": "A", "ldc_lc_nm": "ìê°íê±´ì¡°ì§ì­", "ldc_mc_cd": "A1", "ldc_mc_nm": "ì£¼ê±°ì§ì­", "ldc_sc_cd": "A12", "ldc_sc_nm": "ê³µëì£¼ê±°ìì¤", "shade": 0.2, "heat_score": 21.61 }, "geometry": { "type": "Point", "coordinates": [ 127.1154435, 37.3310891 ] } },
{ "type": "Feature", "properties": { "osmid": 6541799339, "y": 37.3310912, "x": 127.1158635, "junction": null, "street_count": 3, "highway": null, "ref": null, "felt_temp": 36.561634063720703, "heat_grade": 2.0, "index_right": 7214.0, "uid": "ì©ì¸_119225", "sgg_cd": "41460", "sgg_nm": "ì©ì¸ì", "lclsf_cd": "I", "lclsf_nm": "ìê°íê±´ì¡°ì§", "mclsf_cd": "ID", "mclsf_nm": "êµíµìì¤ì§", "sclsf_cd": "ID2", "sclsf_nm": "ì¼ë°ëë¡", "dclsf_cd": "ID2_2", "dclsf_nm": "ê°ë¡ì ìë ì¼ë°ëë¡", "ldc_lc_cd": "A", "ldc_lc_nm": "ìê°íê±´ì¡°ì§ì­", "ldc_mc_cd": "A5", "ldc_mc_nm": "êµíµì§ì­", "ldc_sc_cd": "A54", "ldc_sc_nm": "ëë¡", "shade": 0.2, "heat_score": 20.74 }, "geometry": { "type": "Point", "coordinates": [ 127.1158635, 37.3310912 ] } },
{ "type": "Feature", "properties": { "osmid": 2405708156, "y": 37.3315271, "x": 127.1160435, "junction": null, "street_count": 4, "highway": null, "ref": null, "felt_temp": 36.6551513671875, "heat_grade": 3.0, "index_right": 7152.0, "uid": "ì©ì¸_119228", "sgg_cd": "41460", "sgg_nm": "ì©ì¸ì", "lclsf_cd": "I", "lclsf_nm": "ìê°íê±´ì¡°ì§", "mclsf_cd": "ID", "mclsf_nm": "êµíµìì¤ì§", "sclsf_cd": "ID2", "sclsf_nm": "ì¼ë°ëë¡", "dclsf_cd": "ID2_1", "dclsf_nm": "ê°ë¡ì ìë ì¼ë°ëë¡", "ldc_lc_cd": "A", "ldc_lc_nm": "ìê°íê±´ì¡°ì§ì­", "ldc_mc_cd": "A5", "ldc_mc_nm": "êµíµì§ì­", "ldc_sc_cd": "A54", "ldc_sc_nm": "ëë¡", "shade": 0.2, "heat_score": 21.19 }, "geometry": { "type": "Point", "coordinates": [ 127.1160435, 37.33152710000001 ] } },
{ "type": "Feature", "properties": { "osmid": 2405708152, "y": 37.3315242, "x": 127.1137407, "junction": "yes", "street_count": 3, "highway": null, "ref": null, "felt_temp": 36.73614501953125, "heat_grade": 6.0, "index_right": 7406.0, "uid": "ì©ì¸_119242", "sgg_cd": "41460", "sgg_nm": "ì©ì¸ì", "lclsf_cd": "I", "lclsf_nm": "ìê°íê±´ì¡°ì§", "mclsf_cd": "ID", "mclsf_nm": "êµíµìì¤ì§", "sclsf_cd": "ID2", "sclsf_nm": "ì¼ë°ëë¡", "dclsf_cd": "ID2_2", "dclsf_nm": "ê°ë¡ì ìë ì¼ë°ëë¡", "ldc_lc_cd": "A", "ldc_lc_nm": "ìê°íê±´ì¡°ì§ì­", "ldc_mc_cd": "A5", "ldc_mc_nm": "êµíµì§ì­", "ldc_sc_cd": "A54", "ldc_sc_nm": "ëë¡", "shade": 0.2, "heat_score": 22.44 }, "geometry": { "type": "Point", "coordinates": [ 127.1137407, 37.3315242 ] } },
{ "type": "Feature", "properties": { "osmid": 2407283830, "y": 37.3315249, "x": 127.1138746, "junction": null, "street_count": 3, "highway": null, "ref": null, "felt_temp": 36.548843383789062, "heat_grade": 2.0, "index_right": 7406.0, "uid": "ì©ì¸_119242", "sgg_cd": "41460", "sgg_nm": "ì©ì¸ì", "lclsf_cd": "I", "lclsf_nm": "ìê°íê±´ì¡°ì§", "mclsf_cd": "ID", "mclsf_nm": "êµíµìì¤ì§", "sclsf_cd": "ID2", "sclsf_nm": "ì¼ë°ëë¡", "dclsf_cd": "ID2_2", "dclsf_nm": "ê°ë¡ì ìë ì¼ë°ëë¡", "ldc_lc_cd": "A", "ldc_lc_nm": "ìê°íê±´ì¡°ì§ì­", "ldc_mc_cd": "A5", "ldc_mc_nm": "êµíµì§ì­", "ldc_sc_cd": "A54", "ldc_sc_nm": "ëë¡", "shade": 0.2, "heat_score": 20.73 }, "geometry": { "type": "Point", "coordinates": [ 127.113874599999988, 37.3315249 ] } },
{ "type": "Feature", "properties": { "osmid": 6541799337, "y": 37.3315224, "x": 127.1151204, "junction": null, "street_count": 3, "highway": null, "ref": null, "felt_temp": 35.883197784423828, "heat_grade": 1.0, "index_right": 7152.0, "uid": "ì©ì¸_119228", "sgg_cd": "41460", "sgg_nm": "ì©ì¸ì", "lclsf_cd": "I", "lclsf_nm": "ìê°íê±´ì¡°ì§", "mclsf_cd": "ID", "mclsf_nm": "êµíµìì¤ì§", "sclsf_cd": "ID2", "sclsf_nm": "ì¼ë°ëë¡", "dclsf_cd": "ID2_1", "dclsf_nm": "ê°ë¡ì ìë ì¼ë°ëë¡", "ldc_lc_cd": "A", "ldc_lc_nm": "ìê°íê±´ì¡°ì§ì­", "ldc_mc_cd": "A5", "ldc_mc_nm": "êµíµì§ì­", "ldc_sc_cd": "A54", "ldc_sc_nm": "ëë¡", "shade": 0.2, "heat_score": 19.93 }, "geometry": { "type": "Point", "coordinates": [ 127.1151204, 37.3315224 ] } },
{ "type": "Feature", "properties": { "osmid": 6541799368, "y": 37.3313381, "x": 127.1151166, "junction": null, "street_count": 4, "highway": null, "ref": null, "felt_temp": 35.713943481445312, "heat_grade": 1.0, "index_right": 7207.0, "uid": "ì©ì¸_118595", "sgg_cd": "41460", "sgg_nm": "ì©ì¸ì", "lclsf_cd": "I", "lclsf_nm": "ìê°íê±´ì¡°ì§", "mclsf_cd": "IA", "mclsf_nm": "ê³µëì£¼íì§", "sclsf_cd": "IA1", "sclsf_nm": "ê³ ì¸µ ê³µëì£¼íë¨ì§", "dclsf_cd": "IA1_2", "dclsf_nm": "ê³ ì¸µ ê³µëì£¼íìì¤", "ldc_lc_cd": "A", "ldc_lc_nm": "ìê°íê±´ì¡°ì§ì­", "ldc_mc_cd": "A1", "ldc_mc_nm": "ì£¼ê±°ì§ì­", "ldc_sc_cd": "A12", "ldc_sc_nm": "ê³µëì£¼ê±°ìì¤", "shade": 0.2, "heat_score": 19.83 }, "geometry": { "type": "Point", "coordinates": [ 127.1151166, 37.3313381 ] } }
]
}
