{
"type": "FeatureCollection",
"name": "cool_cycle_3km_route3_edges",
"crs": { "type": "name", "properties": { "name": "urn:ogc:def:crs:OGC:1.3:CRS84" } },
"features": [
{ "type": "Feature", "properties": { "u": 2446592484, "v": 8670224977, "length": 148.23888463189022, "heat_score": 20.13 }, "geometry": { "type": "LineString", "coordinates": [ [ 127.0907071, 37.3376039 ], [ 127.0903331, 37.3374533 ], [ 127.0896358, 37.3373381 ], [ 127.0891064, 37.3374421 ] ] } },
{ "type": "Feature", "properties": { "u": 8670224977, "v": 2446592478, "length": 274.54166264272828, "heat_score": 20.51 }, "geometry": { "type": "LineString", "coordinates": [ [ 127.0907071, 37.3376039 ], [ 127.0904773, 37.337943 ], [ 127.0913964, 37.3383175 ], [ 127.0919778, 37.3384654 ], [ 127.092629200000019, 37.3385289 ], [ 127.09273330000002, 37.338593 ], [ 127.0929186, 37.3385604 ] ] } },
{ "type": "Feature", "properties": { "u": 2446592478, "v": 2446592479, "length": 34.731439892443149, "heat_score": 22.055 }, "geometry": { "type": "LineString", "coordinates": [ [ 127.092773800000018, 37.3382832 ], [ 127.0927711, 37.3383472 ], [ 127.0928046, 37.3384431 ], [ 127.0928536, 37.3385039 ], [ 127.0929186, 37.3385604 ] ] } },
{ "type": "Feature", "properties": { "u": 2446592479, "v": 3636126851, "length": 129.19975622510512, "heat_score": 22.04 }, "geometry": { "type": "LineString", "coordinates": [ [ 127.0940236, 37.3388251 ], [ 127.093721099999982, 37.3386193 ], [ 127.093578800000017, 37.3385225 ], [ 127.093486700000014, 37.3384637 ], [ 127.093410700000021, 37.3384176 ], [ 127.09328330000001, 37.3383709 ], [ 127.0931438, 37.3383389 ], [ 127.092966800000013, 37.3383068 ], [ 127.092773800000018, 37.3382832 ] ] } },
{ "type": "Feature", "properties": { "u": 3636126851, "v": 5607323386, "length": 129.13257290860739, "heat_score": 22.005 }, "geometry": { "type": "LineString", "coordinates": [ [ 127.095039, 37.3396598 ], [ 127.0947263, 37.3394078 ], [ 127.094704800000017, 37.3393923 ], [ 127.0940236, 37.3388251 ] ] } },
{ "type": "Feature", "properties": { "u": 5607323386, "v": 4839373955, "length": 39.946024647816017, "heat_score": 22.25 }, "geometry": { "type": "LineString", "coordinates": [ [ 127.095039, 37.3396598 ], [ 127.0949825, 37.3396964 ], [ 127.0947983, 37.3398146 ], [ 127.0946888, 37.3398868 ] ] } },
{ "type": "Feature", "properties": { "u": 4839373955, "v": 2446592468, "length": 394.8309548728497, "heat_score": 21.94 }, "geometry": { "type": "LineString", "coordinates": [ [ 127.0946888, 37.3398868 ], [ 127.0947425, 37.3399892 ], [ 127.094774700000016, 37.340074500000014 ], [ 127.094796099999982, 37.3401854 ], [ 127.0948766, 37.3406161 ], [ 127.0949034, 37.3407355 ], [ 127.094935599999985, 37.3408464 ], [ 127.0949812, 37.3409402 ], [ 127.095048300000016, 37.3410341 ], [ 127.0951529, 37.3411201 ], [ 127.0952038, 37.341162 ], [ 127.095391600000013, 37.3412857 ], [ 127.0955069, 37.3413646 ], [ 127.09561690000001, 37.3414478 ], [ 127.095724200000021, 37.3415523 ], [ 127.0962017, 37.3421131 ], [ 127.0964519, 37.342393 ], [ 127.0968774, 37.34287710000001 ] ] } },
{ "type": "Feature", "properties": { "u": 2446592468, "v": 2933795644, "length": 80.158870284548058, "heat_score": 22.69 }, "geometry": { "type": "LineString", "coordinates": [ [ 127.0977151, 37.3426227 ], [ 127.0975365, 37.3426472 ], [ 127.0973301, 37.3426866 ], [ 127.0971624, 37.3427433 ], [ 127.097012299999989, 37.3428157 ], [ 127.0968774, 37.34287710000001 ] ] } },
{ "type": "Feature", "properties": { "u": 2933795644, "v": 878203507, "length": 271.11222233442714, "heat_score": 22.69 }, "geometry": { "type": "LineString", "coordinates": [ [ 127.0977151, 37.3426227 ], [ 127.0977554, 37.3425376 ], [ 127.097821100000019, 37.3424598 ], [ 127.0979002, 37.342383 ], [ 127.097984700000012, 37.34230620000001 ], [ 127.0980394, 37.342257 ], [ 127.098075900000012, 37.3422241 ], [ 127.098167100000012, 37.3421377 ], [ 127.098251, 37.3420495 ], [ 127.0983295, 37.3419656 ], [ 127.0984336, 37.3418568 ], [ 127.0985455, 37.3417592 ], [ 127.098758700000019, 37.3415982 ], [ 127.09884270000002, 37.3415327 ], [ 127.0990033, 37.3414236 ], [ 127.099168, 37.3413228 ], [ 127.0992813, 37.3412582 ], [ 127.0993858, 37.3411744 ], [ 127.09948, 37.3410778 ], [ 127.0995991, 37.3409432 ], [ 127.099655500000011, 37.3408863 ], [ 127.09974, 37.3408158 ] ] } },
{ "type": "Feature", "properties": { "u": 878203507, "v": 878203503, "length": 57.331693015983419, "heat_score": 21.715 }, "geometry": { "type": "LineString", "coordinates": [ [ 127.09974, 37.3408158 ], [ 127.0991466, 37.3406078 ] ] } },
{ "type": "Feature", "properties": { "u": 878203503, "v": 878203534, "length": 242.24431300935476, "heat_score": 20.745 }, "geometry": { "type": "LineString", "coordinates": [ [ 127.097361, 37.3391484 ], [ 127.0973978, 37.3393625 ], [ 127.097424599999982, 37.3394201 ], [ 127.0974568, 37.33947340000001 ], [ 127.0974984, 37.3395117 ], [ 127.0975507, 37.3395501 ], [ 127.097655299999985, 37.3396226 ], [ 127.097848400000018, 37.3397378 ], [ 127.09797180000001, 37.3398039 ], [ 127.098122, 37.3398785 ], [ 127.0982447, 37.3399332 ], [ 127.0983556, 37.3399796 ], [ 127.098474600000017, 37.3400283 ], [ 127.098604800000018, 37.3400896 ], [ 127.0987496, 37.3401547 ], [ 127.098859600000011, 37.3402048 ], [ 127.098968199999987, 37.3402571 ], [ 127.0990446, 37.3403008 ], [ 127.099090299999986, 37.3403455 ], [ 127.099121100000019, 37.340402 ], [ 127.0991276, 37.3404318 ], [ 127.0991385, 37.340482 ], [ 127.0991466, 37.3406078 ] ] } },
{ "type": "Feature", "properties": { "u": 878203534, "v": 842899436, "length": 36.003915033382739, "heat_score": 21.385 }, "geometry": { "type": "LineString", "coordinates": [ [ 127.097361, 37.3391484 ], [ 127.097765600000017, 37.3391115 ] ] } },
{ "type": "Feature", "properties": { "u": 842899436, "v": 3636134759, "length": 30.801597707106612, "heat_score": 21.38 }, "geometry": { "type": "LineString", "coordinates": [ [ 127.09776770000002, 37.3388345 ], [ 127.097765600000017, 37.3391115 ] ] } },
{ "type": "Feature", "properties": { "u": 3636134759, "v": 3636017314, "length": 126.90696414359653, "heat_score": 21.385 }, "geometry": { "type": "LineString", "coordinates": [ [ 127.09776770000002, 37.3388345 ], [ 127.097767, 37.3376932 ] ] } },
{ "type": "Feature", "properties": { "u": 3636017314, "v": 3636132184, "length": 72.010331853411301, "heat_score": 22.235 }, "geometry": { "type": "LineString", "coordinates": [ [ 127.0977697, 37.3370456 ], [ 127.097767, 37.3376932 ] ] } },
{ "type": "Feature", "properties": { "u": 3636132184, "v": 3908284730, "length": 102.05729866006938, "heat_score": 22.44 }, "geometry": { "type": "LineString", "coordinates": [ [ 127.097761700000021, 37.3361278 ], [ 127.0977697, 37.3370456 ] ] } },
{ "type": "Feature", "properties": { "u": 3908284730, "v": 3636126875, "length": 169.73905564872496, "heat_score": 21.215 }, "geometry": { "type": "LineString", "coordinates": [ [ 127.097761700000021, 37.3361278 ], [ 127.0965714, 37.3361279 ], [ 127.0958418, 37.3361263 ] ] } },
{ "type": "Feature", "properties": { "u": 3636126875, "v": 878203466, "length": 196.42286848342471, "heat_score": 20.09 }, "geometry": { "type": "LineString", "coordinates": [ [ 127.0958418, 37.3361263 ], [ 127.095123, 37.336122 ], [ 127.0936201, 37.3361211 ] ] } },
{ "type": "Feature", "properties": { "u": 878203466, "v": 3636021913, "length": 105.25605368968421, "heat_score": 20.905 }, "geometry": { "type": "LineString", "coordinates": [ [ 127.0924296, 37.336129 ], [ 127.0936201, 37.3361211 ] ] } },
{ "type": "Feature", "properties": { "u": 3636021913, "v": 3636021914, "length": 34.21490316371419, "heat_score": 21.185 }, "geometry": { "type": "LineString", "coordinates": [ [ 127.0923327, 37.3358311 ], [ 127.0924296, 37.336129 ] ] } },
{ "type": "Feature", "properties": { "u": 3636021914, "v": 3663151884, "length": 44.272036807680628, "heat_score": 20.96 }, "geometry": { "type": "LineString", "coordinates": [ [ 127.092416, 37.3354385 ], [ 127.0923327, 37.3358311 ] ] } },
{ "type": "Feature", "properties": { "u": 3663151884, "v": 3636021915, "length": 31.208802618287521, "heat_score": 21.395 }, "geometry": { "type": "LineString", "coordinates": [ [ 127.092416, 37.3354385 ], [ 127.0924721, 37.3351614 ] ] } },
{ "type": "Feature", "properties": { "u": 3636021915, "v": 3636017367, "length": 33.908978308442528, "heat_score": 20.745 }, "geometry": { "type": "LineString", "coordinates": [ [ 127.0924721, 37.3351614 ], [ 127.092088600000011, 37.3351572 ] ] } },
{ "type": "Feature", "properties": { "u": 3636017367, "v": 3636017368, "length": 37.949176311483214, "heat_score": 21.38 }, "geometry": { "type": "LineString", "coordinates": [ [ 127.0916594, 37.3351529 ], [ 127.092088600000011, 37.3351572 ] ] } },
{ "type": "Feature", "properties": { "u": 3636017368, "v": 3636020174, "length": 119.86784605995976, "heat_score": 21.515 }, "geometry": { "type": "LineString", "coordinates": [ [ 127.091235600000019, 37.3343297 ], [ 127.09152, 37.334334 ], [ 127.091589699999986, 37.3343894 ], [ 127.091632600000011, 37.3344449 ], [ 127.0916594, 37.3351529 ] ] } },
{ "type": "Feature", "properties": { "u": 3636020174, "v": 3636017366, "length": 34.244711293644869, "heat_score": 20.12 }, "geometry": { "type": "LineString", "coordinates": [ [ 127.091235600000019, 37.3343297 ], [ 127.0908483, 37.3343259 ] ] } },
{ "type": "Feature", "properties": { "u": 3636017366, "v": 3636017369, "length": 125.16710455841091, "heat_score": 20.41 }, "geometry": { "type": "LineString", "coordinates": [ [ 127.09049, 37.3351614 ], [ 127.0904782, 37.3343301 ], [ 127.0908483, 37.3343259 ] ] } },
{ "type": "Feature", "properties": { "u": 3636017369, "v": 3636017372, "length": 62.880780222790179, "heat_score": 20.45 }, "geometry": { "type": "LineString", "coordinates": [ [ 127.090016600000013, 37.3355336 ], [ 127.0904478, 37.3352956 ], [ 127.0904953, 37.335251 ], [ 127.09049, 37.3351614 ] ] } },
{ "type": "Feature", "properties": { "u": 3636017372, "v": 3635959397, "length": 93.173342568952393, "heat_score": 20.2 }, "geometry": { "type": "LineString", "coordinates": [ [ 127.090016600000013, 37.3355336 ], [ 127.0899401, 37.3354728 ], [ 127.089876800000013, 37.3354439 ], [ 127.0898007, 37.335430100000011 ], [ 127.089006700000013, 37.3354045 ] ] } },
{ "type": "Feature", "properties": { "u": 3635959397, "v": 2446592484, "length": 226.82089069829806, "heat_score": 20.095 }, "geometry": { "type": "LineString", "coordinates": [ [ 127.089006700000013, 37.3354045 ], [ 127.0890211, 37.3360901 ], [ 127.0890317, 37.3365954 ], [ 127.0891064, 37.3374421 ] ] } }
]
}
