{
"type": "FeatureCollection",
"name": "cool_cycle_3km_route2_edges",
"crs": { "type": "name", "properties": { "name": "urn:ogc:def:crs:OGC:1.3:CRS84" } },
"features": [
{ "type": "Feature", "properties": { "u": 3662166668, "v": 3790849638, "length": 208.18918379713523, "heat_score": 20.71 }, "geometry": { "type": "LineString", "coordinates": [ [ 127.071643100000017, 37.2983176 ], [ 127.071588800000015, 37.2981556 ], [ 127.0714994, 37.2975195 ], [ 127.071418, 37.2973815 ], [ 127.0713468, 37.297317 ], [ 127.07127490000002, 37.297268099999989 ], [ 127.0711978, 37.297232 ], [ 127.071084199999987, 37.2971757 ], [ 127.0710303, 37.2971385 ], [ 127.070970800000012, 37.2970671 ], [ 127.0709154, 37.2969648 ], [ 127.0708411, 37.2967368 ], [ 127.0708174, 37.2966549 ] ] } },
{ "type": "Feature", "properties": { "u": 3790849638, "v": 3187954871, "length": 184.60535625059862, "heat_score": 22.03 }, "geometry": { "type": "LineString", "coordinates": [ [ 127.071643100000017, 37.2983176 ], [ 127.071367400000014, 37.2983966 ], [ 127.0710495, 37.2984532 ], [ 127.0703224, 37.2985772 ], [ 127.0696177, 37.2987113 ] ] } },
{ "type": "Feature", "properties": { "u": 3187954871, "v": 3790816770, "length": 156.65483559065359, "heat_score": 22.88 }, "geometry": { "type": "LineString", "coordinates": [ [ 127.0699897, 37.3000887 ], [ 127.069836, 37.2995196 ], [ 127.0697422, 37.29917240000001 ], [ 127.06968280000001, 37.2989524 ], [ 127.0696687, 37.2989 ], [ 127.0696177, 37.2987113 ] ] } },
{ "type": "Feature", "properties": { "u": 3790816770, "v": 3790816771, "length": 59.670073202983254, "heat_score": 22.455 }, "geometry": { "type": "LineString", "coordinates": [ [ 127.070134600000017, 37.30061280000001 ], [ 127.07010750000002, 37.3005148 ], [ 127.0699897, 37.3000887 ] ] } },
{ "type": "Feature", "properties": { "u": 3790816771, "v": 3790582564, "length": 32.193273890800143, "heat_score": 22.95 }, "geometry": { "type": "LineString", "coordinates": [ [ 127.070134600000017, 37.30061280000001 ], [ 127.070036400000021, 37.3007347 ], [ 127.069938100000016, 37.3008565 ] ] } },
{ "type": "Feature", "properties": { "u": 3790582564, "v": 6820615301, "length": 39.990671471360933, "heat_score": 22.075 }, "geometry": { "type": "LineString", "coordinates": [ [ 127.070317, 37.3010524 ], [ 127.070085400000011, 37.3009262 ], [ 127.069938100000016, 37.3008565 ] ] } },
{ "type": "Feature", "properties": { "u": 6820615301, "v": 6820615290, "length": 276.46944008198705, "heat_score": 21.785 }, "geometry": { "type": "LineString", "coordinates": [ [ 127.070317, 37.3010524 ], [ 127.07022520000001, 37.3011338 ], [ 127.070163, 37.301189 ], [ 127.0700643, 37.30137890000001 ], [ 127.0700772, 37.3014451 ], [ 127.07015770000001, 37.30148350000001 ], [ 127.070334700000018, 37.3015603 ], [ 127.0706834, 37.3017224 ], [ 127.0709784, 37.3018633 ], [ 127.071246599999981, 37.3019529 ], [ 127.0716865, 37.302179 ], [ 127.0719494, 37.3023028 ], [ 127.07215, 37.3020378 ] ] } },
{ "type": "Feature", "properties": { "u": 6820615290, "v": 6820615302, "length": 31.796712210196659, "heat_score": 22.235 }, "geometry": { "type": "LineString", "coordinates": [ [ 127.0723612, 37.301806400000011 ], [ 127.07215, 37.3020378 ] ] } },
{ "type": "Feature", "properties": { "u": 6820615302, "v": 7179444076, "length": 197.10807189886197, "heat_score": 22.26 }, "geometry": { "type": "LineString", "coordinates": [ [ 127.0723612, 37.301806400000011 ], [ 127.0729545, 37.3021458 ], [ 127.0737984, 37.302674 ], [ 127.074137, 37.3028768 ] ] } },
{ "type": "Feature", "properties": { "u": 7179444076, "v": 4708513142, "length": 45.056049549349225, "heat_score": 21.795 }, "geometry": { "type": "LineString", "coordinates": [ [ 127.074137, 37.3028768 ], [ 127.074332, 37.302906 ], [ 127.0746297, 37.3028345 ] ] } },
{ "type": "Feature", "properties": { "u": 4708513142, "v": 3660798017, "length": 78.607492483856589, "heat_score": 21.13 }, "geometry": { "type": "LineString", "coordinates": [ [ 127.0746297, 37.3028345 ], [ 127.0747135, 37.3027953 ], [ 127.0749946, 37.3027716 ], [ 127.07549370000001, 37.3026928 ] ] } },
{ "type": "Feature", "properties": { "u": 3660798017, "v": 3187964067, "length": 602.22791044255769, "heat_score": 21.61 }, "geometry": { "type": "LineString", "coordinates": [ [ 127.07549370000001, 37.3026928 ], [ 127.075429499999984, 37.30236750000001 ], [ 127.0753759, 37.3022053 ], [ 127.0752588, 37.3019619 ], [ 127.0752217, 37.3018848 ], [ 127.0752096, 37.3018597 ], [ 127.075185800000014, 37.3017849 ], [ 127.07509690000002, 37.3015055 ], [ 127.0750796, 37.3014675 ], [ 127.075005800000014, 37.3013049 ], [ 127.0749199, 37.301147 ], [ 127.0747719, 37.3009774 ], [ 127.074630500000012, 37.300851 ], [ 127.0745916, 37.3008163 ], [ 127.0744908, 37.3007203 ], [ 127.074225499999983, 37.3004862 ], [ 127.073949, 37.300242400000016 ], [ 127.0739222, 37.3002093 ], [ 127.0738685, 37.3001421 ], [ 127.073832300000021, 37.3000898 ], [ 127.073793400000014, 37.300029 ], [ 127.073762599999981, 37.2999746 ], [ 127.0737371, 37.29992020000001 ], [ 127.073713, 37.2998584 ], [ 127.0736942, 37.2997965 ], [ 127.0736754, 37.2997261 ], [ 127.073659299999989, 37.299662 ], [ 127.0736486, 37.2995959 ], [ 127.0736459, 37.2995212 ], [ 127.07365129999998, 37.2994572 ], [ 127.073659299999989, 37.2993932 ], [ 127.073685, 37.2992257 ], [ 127.073734300000012, 37.2987563 ], [ 127.073729500000013, 37.2986825 ], [ 127.0737193, 37.298588400000014 ], [ 127.0737029, 37.2984579 ], [ 127.0736518, 37.2982239 ], [ 127.0735781, 37.2979504 ], [ 127.0735529, 37.2978679 ], [ 127.0735029, 37.2977069 ] ] } },
{ "type": "Feature", "properties": { "u": 3187964067, "v": 3662168684, "length": 91.867822164257277, "heat_score": 20.73 }, "geometry": { "type": "LineString", "coordinates": [ [ 127.0732781, 37.2969003 ], [ 127.0735029, 37.2977069 ] ] } },
{ "type": "Feature", "properties": { "u": 3662168684, "v": 3662168493, "length": 22.12094412342201, "heat_score": 20.71 }, "geometry": { "type": "LineString", "coordinates": [ [ 127.0732781, 37.2969003 ], [ 127.0730328, 37.296939 ] ] } },
{ "type": "Feature", "properties": { "u": 3662168493, "v": 3662166668, "length": 246.66286548174594, "heat_score": 20.695 }, "geometry": { "type": "LineString", "coordinates": [ [ 127.0730328, 37.296939 ], [ 127.072920900000014, 37.2965972 ], [ 127.0728928, 37.2965151 ], [ 127.0728431, 37.2964585 ], [ 127.0726607, 37.2963198 ], [ 127.072591, 37.2963091 ], [ 127.0716334, 37.296467 ], [ 127.0708174, 37.2966549 ] ] } }
]
}
