{
"type": "FeatureCollection",
"name": "cool_cycle_5km_route2_nodes",
"crs": { "type": "name", "properties": { "name": "urn:ogc:def:crs:OGC:1.3:CRS84" } },
"features": [
{ "type": "Feature", "properties": { "osmid": 2405708031, "y": 37.3284208, "x": 127.1136213, "junction": null, "street_count": 3, "highway": null, "ref": null, "felt_temp": 36.000068664550781, "heat_grade": 1.0, "index_right": 7162.0, "uid": "ì©ì¸_119299", "sgg_cd": "41460", "sgg_nm": "ì©ì¸ì", "lclsf_cd": "I", "lclsf_nm": "ìê°íê±´ì¡°ì§", "mclsf_cd": "ID", "mclsf_nm": "êµíµìì¤ì§", "sclsf_cd": "ID3", "sclsf_nm": "ìëë¡", "dclsf_cd": null, "dclsf_nm": null, "ldc_lc_cd": "A", "ldc_lc_nm": "ìê°íê±´ì¡°ì§ì­", "ldc_mc_cd": "A5", "ldc_mc_nm": "êµíµì§ì­", "ldc_sc_cd": "A54", "ldc_sc_nm": "ëë¡", "shade": 0.2, "heat_score": 20.0 }, "geometry": { "type": "Point", "coordinates": [ 127.11362130000002, 37.328420800000011 ] } },
{ "type": "Feature", "properties": { "osmid": 2405708042, "y": 37.3287535, "x": 127.1140156, "junction": null, "street_count": 3, "highway": null, "ref": null, "felt_temp": 36.235767364501953, "heat_grade": 1.0, "index_right": 7162.0, "uid": "ì©ì¸_119299", "sgg_cd": "41460", "sgg_nm": "ì©ì¸ì", "lclsf_cd": "I", "lclsf_nm": "ìê°íê±´ì¡°ì§", "mclsf_cd": "ID", "mclsf_nm": "êµíµìì¤ì§", "sclsf_cd": "ID3", "sclsf_nm": "ìëë¡", "dclsf_cd": null, "dclsf_nm": null, "ldc_lc_cd": "A", "ldc_lc_nm": "ìê°íê±´ì¡°ì§ì­", "ldc_mc_cd": "A5", "ldc_mc_nm": "êµíµì§ì­", "ldc_sc_cd": "A54", "ldc_sc_nm": "ëë¡", "shade": 0.2, "heat_score": 20.14 }, "geometry": { "type": "Point", "coordinates": [ 127.114015599999988, 37.3287535 ] } },
{ "type": "Feature", "properties": { "osmid": 2405708044, "y": 37.3288571, "x": 127.1141035, "junction": null, "street_count": 3, "highway": null, "ref": null, "felt_temp": 36.953701019287109, "heat_grade": 8.0, "index_right": 7162.0, "uid": "ì©ì¸_119299", "sgg_cd": "41460", "sgg_nm": "ì©ì¸ì", "lclsf_cd": "I", "lclsf_nm": "ìê°íê±´ì¡°ì§", "mclsf_cd": "ID", "mclsf_nm": "êµíµìì¤ì§", "sclsf_cd": "ID3", "sclsf_nm": "ìëë¡", "dclsf_cd": null, "dclsf_nm": null, "ldc_lc_cd": "A", "ldc_lc_nm": "ìê°íê±´ì¡°ì§ì­", "ldc_mc_cd": "A5", "ldc_mc_nm": "êµíµì§ì­", "ldc_sc_cd": "A54", "ldc_sc_nm": "ëë¡", "shade": 0.2, "heat_score": 23.37 }, "geometry": { "type": "Point", "coordinates": [ 127.114103500000013, 37.3288571 ] } },
{ "type": "Feature", "properties": { "osmid": 2405708039, "y": 37.3286443, "x": 127.1147246, "junction": "yes", "street_count": 4, "highway": null, "ref": null, "felt_temp": 36.291110992431641, "heat_grade": 1.0, "index_right": 7152.0, "uid": "ì©ì¸_119228", "sgg_cd": "41460", "sgg_nm": "ì©ì¸ì", "lclsf_cd": "I", "lclsf_nm": "ìê°íê±´ì¡°ì§", "mclsf_cd": "ID", "mclsf_nm": "êµíµìì¤ì§", "sclsf_cd": "ID2", "sclsf_nm": "ì¼ë°ëë¡", "dclsf_cd": "ID2_1", "dclsf_nm": "ê°ë¡ì ìë ì¼ë°ëë¡", "ldc_lc_cd": "A", "ldc_lc_nm": "ìê°íê±´ì¡°ì§ì­", "ldc_mc_cd": "A5", "ldc_mc_nm": "êµíµì§ì­", "ldc_sc_cd": "A54", "ldc_sc_nm": "ëë¡", "shade": 0.2, "heat_score": 20.17 }, "geometry": { "type": "Point", "coordinates": [ 127.1147246, 37.3286443 ] } },
{ "type": "Feature", "properties": { "osmid": 2405708010, "y": 37.3276419, "x": 127.1146289, "junction": null, "street_count": 3, "highway": null, "ref": null, "felt_temp": 36.364772796630859, "heat_grade": 1.0, "index_right": 7015.0, "uid": "ì©ì¸_119260", "sgg_cd": "41460", "sgg_nm": "ì©ì¸ì", "lclsf_cd": "I", "lclsf_nm": "ìê°íê±´ì¡°ì§", "mclsf_cd": "ID", "mclsf_nm": "êµíµìì¤ì§", "sclsf_cd": "ID2", "sclsf_nm": "ì¼ë°ëë¡", "dclsf_cd": "ID2_2", "dclsf_nm": "ê°ë¡ì ìë ì¼ë°ëë¡", "ldc_lc_cd": "A", "ldc_lc_nm": "ìê°íê±´ì¡°ì§ì­", "ldc_mc_cd": "A5", "ldc_mc_nm": "êµíµì§ì­", "ldc_sc_cd": "A54", "ldc_sc_nm": "ëë¡", "shade": 0.2, "heat_score": 20.22 }, "geometry": { "type": "Point", "coordinates": [ 127.114628899999985, 37.3276419 ] } },
{ "type": "Feature", "properties": { "osmid": 2405707995, "y": 37.3270343, "x": 127.1149012, "junction": null, "street_count": 3, "highway": null, "ref": null, "felt_temp": 36.571037292480469, "heat_grade": 2.0, "index_right": 6966.0, "uid": "ì©ì¸_119378", "sgg_cd": "41460", "sgg_nm": "ì©ì¸ì", "lclsf_cd": "I", "lclsf_nm": "ìê°íê±´ì¡°ì§", "mclsf_cd": "ID", "mclsf_nm": "êµíµìì¤ì§", "sclsf_cd": "ID3", "sclsf_nm": "ìëë¡", "dclsf_cd": null, "dclsf_nm": null, "ldc_lc_cd": "A", "ldc_lc_nm": "ìê°íê±´ì¡°ì§ì­", "ldc_mc_cd": "A5", "ldc_mc_nm": "êµíµì§ì­", "ldc_sc_cd": "A54", "ldc_sc_nm": "ëë¡", "shade": 0.2, "heat_score": 20.74 }, "geometry": { "type": "Point", "coordinates": [ 127.11490120000002, 37.3270343 ] } },
{ "type": "Feature", "properties": { "osmid": 2405707963, "y": 37.3260763, "x": 127.1153315, "junction": null, "street_count": 3, "highway": null, "ref": null, "felt_temp": 36.715614318847656, "heat_grade": 5.0, "index_right": 6966.0, "uid": "ì©ì¸_119378", "sgg_cd": "41460", "sgg_nm": "ì©ì¸ì", "lclsf_cd": "I", "lclsf_nm": "ìê°íê±´ì¡°ì§", "mclsf_cd": "ID", "mclsf_nm": "êµíµìì¤ì§", "sclsf_cd": "ID3", "sclsf_nm": "ìëë¡", "dclsf_cd": null, "dclsf_nm": null, "ldc_lc_cd": "A", "ldc_lc_nm": "ìê°íê±´ì¡°ì§ì­", "ldc_mc_cd": "A5", "ldc_mc_nm": "êµíµì§ì­", "ldc_sc_cd": "A54", "ldc_sc_nm": "ëë¡", "shade": 0.2, "heat_score": 22.03 }, "geometry": { "type": "Point", "coordinates": [ 127.115331500000011, 37.3260763 ] } },
{ "type": "Feature", "properties": { "osmid": 2405707966, "y": 37.3262043, "x": 127.117807, "junction": null, "street_count": 3, "highway": null, "ref": null, "felt_temp": 36.711372375488281, "heat_grade": 5.0, "index_right": 6966.0, "uid": "ì©ì¸_119378", "sgg_cd": "41460", "sgg_nm": "ì©ì¸ì", "lclsf_cd": "I", "lclsf_nm": "ìê°íê±´ì¡°ì§", "mclsf_cd": "ID", "mclsf_nm": "êµíµìì¤ì§", "sclsf_cd": "ID3", "sclsf_nm": "ìëë¡", "dclsf_cd": null, "dclsf_nm": null, "ldc_lc_cd": "A", "ldc_lc_nm": "ìê°íê±´ì¡°ì§ì­", "ldc_mc_cd": "A5", "ldc_mc_nm": "êµíµì§ì­", "ldc_sc_cd": "A54", "ldc_sc_nm": "ëë¡", "shade": 0.2, "heat_score": 22.03 }, "geometry": { "type": "Point", "coordinates": [ 127.117807, 37.3262043 ] } },
{ "type": "Feature", "properties": { "osmid": 2405707993, "y": 37.3269902, "x": 127.1181408, "junction": null, "street_count": 4, "highway": null, "ref": null, "felt_temp": 36.920864105224609, "heat_grade": 8.0, "index_right": 7152.0, "uid": "ì©ì¸_119228", "sgg_cd": "41460", "sgg_nm": "ì©ì¸ì", "lclsf_cd": "I", "lclsf_nm": "ìê°íê±´ì¡°ì§", "mclsf_cd": "ID", "mclsf_nm": "êµíµìì¤ì§", "sclsf_cd": "ID2", "sclsf_nm": "ì¼ë°ëë¡", "dclsf_cd": "ID2_1", "dclsf_nm": "ê°ë¡ì ìë ì¼ë°ëë¡", "ldc_lc_cd": "A", "ldc_lc_nm": "ìê°íê±´ì¡°ì§ì­", "ldc_mc_cd": "A5", "ldc_mc_nm": "êµíµì§ì­", "ldc_sc_cd": "A54", "ldc_sc_nm": "ëë¡", "shade": 0.2, "heat_score": 23.35 }, "geometry": { "type": "Point", "coordinates": [ 127.11814080000002, 37.3269902 ] } },
{ "type": "Feature", "properties": { "osmid": 2405708056, "y": 37.3293836, "x": 127.1166666, "junction": null, "street_count": 3, "highway": null, "ref": null, "felt_temp": 36.702995300292969, "heat_grade": 5.0, "index_right": 7152.0, "uid": "ì©ì¸_119228", "sgg_cd": "41460", "sgg_nm": "ì©ì¸ì", "lclsf_cd": "I", "lclsf_nm": "ìê°íê±´ì¡°ì§", "mclsf_cd": "ID", "mclsf_nm": "êµíµìì¤ì§", "sclsf_cd": "ID2", "sclsf_nm": "ì¼ë°ëë¡", "dclsf_cd": "ID2_1", "dclsf_nm": "ê°ë¡ì ìë ì¼ë°ëë¡", "ldc_lc_cd": "A", "ldc_lc_nm": "ìê°íê±´ì¡°ì§ì­", "ldc_mc_cd": "A5", "ldc_mc_nm": "êµíµì§ì­", "ldc_sc_cd": "A54", "ldc_sc_nm": "ëë¡", "shade": 0.2, "heat_score": 22.02 }, "geometry": { "type": "Point", "coordinates": [ 127.116666600000016, 37.3293836 ] } },
{ "type": "Feature", "properties": { "osmid": 2405708045, "y": 37.3289265, "x": 127.1151889, "junction": "yes", "street_count": 3, "highway": null, "ref": null, "felt_temp": 36.129642486572266, "heat_grade": 1.0, "index_right": 7152.0, "uid": "ì©ì¸_119228", "sgg_cd": "41460", "sgg_nm": "ì©ì¸ì", "lclsf_cd": "I", "lclsf_nm": "ìê°íê±´ì¡°ì§", "mclsf_cd": "ID", "mclsf_nm": "êµíµìì¤ì§", "sclsf_cd": "ID2", "sclsf_nm": "ì¼ë°ëë¡", "dclsf_cd": "ID2_1", "dclsf_nm": "ê°ë¡ì ìë ì¼ë°ëë¡", "ldc_lc_cd": "A", "ldc_lc_nm": "ìê°íê±´ì¡°ì§ì­", "ldc_mc_cd": "A5", "ldc_mc_nm": "êµíµì§ì­", "ldc_sc_cd": "A54", "ldc_sc_nm": "ëë¡", "shade": 0.2, "heat_score": 20.08 }, "geometry": { "type": "Point", "coordinates": [ 127.115188900000021, 37.3289265 ] } },
{ "type": "Feature", "properties": { "osmid": 6541799339, "y": 37.3310912, "x": 127.1158635, "junction": null, "street_count": 3, "highway": null, "ref": null, "felt_temp": 36.561634063720703, "heat_grade": 2.0, "index_right": 7214.0, "uid": "ì©ì¸_119225", "sgg_cd": "41460", "sgg_nm": "ì©ì¸ì", "lclsf_cd": "I", "lclsf_nm": "ìê°íê±´ì¡°ì§", "mclsf_cd": "ID", "mclsf_nm": "êµíµìì¤ì§", "sclsf_cd": "ID2", "sclsf_nm": "ì¼ë°ëë¡", "dclsf_cd": "ID2_2", "dclsf_nm": "ê°ë¡ì ìë ì¼ë°ëë¡", "ldc_lc_cd": "A", "ldc_lc_nm": "ìê°íê±´ì¡°ì§ì­", "ldc_mc_cd": "A5", "ldc_mc_nm": "êµíµì§ì­", "ldc_sc_cd": "A54", "ldc_sc_nm": "ëë¡", "shade": 0.2, "heat_score": 20.74 }, "geometry": { "type": "Point", "coordinates": [ 127.1158635, 37.3310912 ] } },
{ "type": "Feature", "properties": { "osmid": 6541799343, "y": 37.3310891, "x": 127.1154435, "junction": null, "street_count": 3, "highway": null, "ref": null, "felt_temp": 36.688251495361328, "heat_grade": 4.0, "index_right": 7207.0, "uid": "ì©ì¸_118595", "sgg_cd": "41460", "sgg_nm": "ì©ì¸ì", "lclsf_cd": "I", "lclsf_nm": "ìê°íê±´ì¡°ì§", "mclsf_cd": "IA", "mclsf_nm": "ê³µëì£¼íì§", "sclsf_cd": "IA1", "sclsf_nm": "ê³ ì¸µ ê³µëì£¼íë¨ì§", "dclsf_cd": "IA1_2", "dclsf_nm": "ê³ ì¸µ ê³µëì£¼íìì¤", "ldc_lc_cd": "A", "ldc_lc_nm": "ìê°íê±´ì¡°ì§ì­", "ldc_mc_cd": "A1", "ldc_mc_nm": "ì£¼ê±°ì§ì­", "ldc_sc_cd": "A12", "ldc_sc_nm": "ê³µëì£¼ê±°ìì¤", "shade": 0.2, "heat_score": 21.61 }, "geometry": { "type": "Point", "coordinates": [ 127.1154435, 37.3310891 ] } },
{ "type": "Feature", "properties": { "osmid": 6541799340, "y": 37.3310884, "x": 127.1152823, "junction": null, "street_count": 3, "highway": null, "ref": null, "felt_temp": 36.600151062011719, "heat_grade": 3.0, "index_right": 7207.0, "uid": "ì©ì¸_118595", "sgg_cd": "41460", "sgg_nm": "ì©ì¸ì", "lclsf_cd": "I", "lclsf_nm": "ìê°íê±´ì¡°ì§", "mclsf_cd": "IA", "mclsf_nm": "ê³µëì£¼íì§", "sclsf_cd": "IA1", "sclsf_nm": "ê³ ì¸µ ê³µëì£¼íë¨ì§", "dclsf_cd": "IA1_2", "dclsf_nm": "ê³ ì¸µ ê³µëì£¼íìì¤", "ldc_lc_cd": "A", "ldc_lc_nm": "ìê°íê±´ì¡°ì§ì­", "ldc_mc_cd": "A1", "ldc_mc_nm": "ì£¼ê±°ì§ì­", "ldc_sc_cd": "A12", "ldc_sc_nm": "ê³µëì£¼ê±°ìì¤", "shade": 0.2, "heat_score": 21.16 }, "geometry": { "type": "Point", "coordinates": [ 127.1152823, 37.3310884 ] } },
{ "type": "Feature", "properties": { "osmid": 6541799338, "y": 37.3311272, "x": 127.1151179, "junction": null, "street_count": 3, "highway": null, "ref": null, "felt_temp": 36.671604156494141, "heat_grade": 4.0, "index_right": 7207.0, "uid": "ì©ì¸_118595", "sgg_cd": "41460", "sgg_nm": "ì©ì¸ì", "lclsf_cd": "I", "lclsf_nm": "ìê°íê±´ì¡°ì§", "mclsf_cd": "IA", "mclsf_nm": "ê³µëì£¼íì§", "sclsf_cd": "IA1", "sclsf_nm": "ê³ ì¸µ ê³µëì£¼íë¨ì§", "dclsf_cd": "IA1_2", "dclsf_nm": "ê³ ì¸µ ê³µëì£¼íìì¤", "ldc_lc_cd": "A", "ldc_lc_nm": "ìê°íê±´ì¡°ì§ì­", "ldc_mc_cd": "A1", "ldc_mc_nm": "ì£¼ê±°ì§ì­", "ldc_sc_cd": "A12", "ldc_sc_nm": "ê³µëì£¼ê±°ìì¤", "shade": 0.2, "heat_score": 21.6 }, "geometry": { "type": "Point", "coordinates": [ 127.115117899999987, 37.3311272 ] } },
{ "type": "Feature", "properties": { "osmid": 6541799349, "y": 37.3310078, "x": 127.1148803, "junction": null, "street_count": 3, "highway": null, "ref": null, "felt_temp": 36.343997955322266, "heat_grade": 1.0, "index_right": 7207.0, "uid": "ì©ì¸_118595", "sgg_cd": "41460", "sgg_nm": "ì©ì¸ì", "lclsf_cd": "I", "lclsf_nm": "ìê°íê±´ì¡°ì§", "mclsf_cd": "IA", "mclsf_nm": "ê³µëì£¼íì§", "sclsf_cd": "IA1", "sclsf_nm": "ê³ ì¸µ ê³µëì£¼íë¨ì§", "dclsf_cd": "IA1_2", "dclsf_nm": "ê³ ì¸µ ê³µëì£¼íìì¤", "ldc_lc_cd": "A", "ldc_lc_nm": "ìê°íê±´ì¡°ì§ì­", "ldc_mc_cd": "A1", "ldc_mc_nm": "ì£¼ê±°ì§ì­", "ldc_sc_cd": "A12", "ldc_sc_nm": "ê³µëì£¼ê±°ìì¤", "shade": 0.2, "heat_score": 20.21 }, "geometry": { "type": "Point", "coordinates": [ 127.11488030000001, 37.3310078 ] } },
{ "type": "Feature", "properties": { "osmid": 6541799368, "y": 37.3313381, "x": 127.1151166, "junction": null, "street_count": 4, "highway": null, "ref": null, "felt_temp": 35.713943481445312, "heat_grade": 1.0, "index_right": 7207.0, "uid": "ì©ì¸_118595", "sgg_cd": "41460", "sgg_nm": "ì©ì¸ì", "lclsf_cd": "I", "lclsf_nm": "ìê°íê±´ì¡°ì§", "mclsf_cd": "IA", "mclsf_nm": "ê³µëì£¼íì§", "sclsf_cd": "IA1", "sclsf_nm": "ê³ ì¸µ ê³µëì£¼íë¨ì§", "dclsf_cd": "IA1_2", "dclsf_nm": "ê³ ì¸µ ê³µëì£¼íìì¤", "ldc_lc_cd": "A", "ldc_lc_nm": "ìê°íê±´ì¡°ì§ì­", "ldc_mc_cd": "A1", "ldc_mc_nm": "ì£¼ê±°ì§ì­", "ldc_sc_cd": "A12", "ldc_sc_nm": "ê³µëì£¼ê±°ìì¤", "shade": 0.2, "heat_score": 19.83 }, "geometry": { "type": "Point", "coordinates": [ 127.1151166, 37.3313381 ] } },
{ "type": "Feature", "properties": { "osmid": 6541799337, "y": 37.3315224, "x": 127.1151204, "junction": null, "street_count": 3, "highway": null, "ref": null, "felt_temp": 35.883197784423828, "heat_grade": 1.0, "index_right": 7152.0, "uid": "ì©ì¸_119228", "sgg_cd": "41460", "sgg_nm": "ì©ì¸ì", "lclsf_cd": "I", "lclsf_nm": "ìê°íê±´ì¡°ì§", "mclsf_cd": "ID", "mclsf_nm": "êµíµìì¤ì§", "sclsf_cd": "ID2", "sclsf_nm": "ì¼ë°ëë¡", "dclsf_cd": "ID2_1", "dclsf_nm": "ê°ë¡ì ìë ì¼ë°ëë¡", "ldc_lc_cd": "A", "ldc_lc_nm": "ìê°íê±´ì¡°ì§ì­", "ldc_mc_cd": "A5", "ldc_mc_nm": "êµíµì§ì­", "ldc_sc_cd": "A54", "ldc_sc_nm": "ëë¡", "shade": 0.2, "heat_score": 19.93 }, "geometry": { "type": "Point", "coordinates": [ 127.1151204, 37.3315224 ] } },
{ "type": "Feature", "properties": { "osmid": 2405708156, "y": 37.3315271, "x": 127.1160435, "junction": null, "street_count": 4, "highway": null, "ref": null, "felt_temp": 36.6551513671875, "heat_grade": 3.0, "index_right": 7152.0, "uid": "ì©ì¸_119228", "sgg_cd": "41460", "sgg_nm": "ì©ì¸ì", "lclsf_cd": "I", "lclsf_nm": "ìê°íê±´ì¡°ì§", "mclsf_cd": "ID", "mclsf_nm": "êµíµìì¤ì§", "sclsf_cd": "ID2", "sclsf_nm": "ì¼ë°ëë¡", "dclsf_cd": "ID2_1", "dclsf_nm": "ê°ë¡ì ìë ì¼ë°ëë¡", "ldc_lc_cd": "A", "ldc_lc_nm": "ìê°íê±´ì¡°ì§ì­", "ldc_mc_cd": "A5", "ldc_mc_nm": "êµíµì§ì­", "ldc_sc_cd": "A54", "ldc_sc_nm": "ëë¡", "shade": 0.2, "heat_score": 21.19 }, "geometry": { "type": "Point", "coordinates": [ 127.1160435, 37.33152710000001 ] } },
{ "type": "Feature", "properties": { "osmid": 2405708158, "y": 37.3315153, "x": 127.1179227, "junction": null, "street_count": 4, "highway": "traffic_signals", "ref": null, "felt_temp": 36.822851419289591, "heat_grade": 6.4863059452237808, "index_right": null, "uid": null, "sgg_cd": null, "sgg_nm": null, "lclsf_cd": null, "lclsf_nm": null, "mclsf_cd": null, "mclsf_nm": null, "sclsf_cd": null, "sclsf_nm": null, "dclsf_cd": null, "dclsf_nm": null, "ldc_lc_cd": null, "ldc_lc_nm": null, "ldc_mc_cd": null, "ldc_mc_nm": null, "ldc_sc_cd": null, "ldc_sc_nm": null, "shade": 0.2, "heat_score": 22.69 }, "geometry": { "type": "Point", "coordinates": [ 127.1179227, 37.3315153 ] } },
{ "type": "Feature", "properties": { "osmid": 4230119850, "y": 37.3315248, "x": 127.1192806, "junction": null, "street_count": 3, "highway": null, "ref": null, "felt_temp": 36.822851419289591, "heat_grade": 6.4863059452237808, "index_right": null, "uid": null, "sgg_cd": null, "sgg_nm": null, "lclsf_cd": null, "lclsf_nm": null, "mclsf_cd": null, "mclsf_nm": null, "sclsf_cd": null, "sclsf_nm": null, "dclsf_cd": null, "dclsf_nm": null, "ldc_lc_cd": null, "ldc_lc_nm": null, "ldc_mc_cd": null, "ldc_mc_nm": null, "ldc_sc_cd": null, "ldc_sc_nm": null, "shade": 0.2, "heat_score": 22.69 }, "geometry": { "type": "Point", "coordinates": [ 127.1192806, 37.3315248 ] } },
{ "type": "Feature", "properties": { "osmid": 4230119849, "y": 37.3318878, "x": 127.1190319, "junction": null, "street_count": 3, "highway": null, "ref": null, "felt_temp": 36.822851419289591, "heat_grade": 6.4863059452237808, "index_right": null, "uid": null, "sgg_cd": null, "sgg_nm": null, "lclsf_cd": null, "lclsf_nm": null, "mclsf_cd": null, "mclsf_nm": null, "sclsf_cd": null, "sclsf_nm": null, "dclsf_cd": null, "dclsf_nm": null, "ldc_lc_cd": null, "ldc_lc_nm": null, "ldc_mc_cd": null, "ldc_mc_nm": null, "ldc_sc_cd": null, "ldc_sc_nm": null, "shade": 0.2, "heat_score": 22.69 }, "geometry": { "type": "Point", "coordinates": [ 127.1190319, 37.3318878 ] } },
{ "type": "Feature", "properties": { "osmid": 4230119848, "y": 37.3322903, "x": 127.1190213, "junction": null, "street_count": 3, "highway": null, "ref": null, "felt_temp": 36.822851419289591, "heat_grade": 6.4863059452237808, "index_right": null, "uid": null, "sgg_cd": null, "sgg_nm": null, "lclsf_cd": null, "lclsf_nm": null, "mclsf_cd": null, "mclsf_nm": null, "sclsf_cd": null, "sclsf_nm": null, "dclsf_cd": null, "dclsf_nm": null, "ldc_lc_cd": null, "ldc_lc_nm": null, "ldc_mc_cd": null, "ldc_mc_nm": null, "ldc_sc_cd": null, "ldc_sc_nm": null, "shade": 0.2, "heat_score": 22.69 }, "geometry": { "type": "Point", "coordinates": [ 127.1190213, 37.3322903 ] } },
{ "type": "Feature", "properties": { "osmid": 4230119847, "y": 37.3322905, "x": 127.1196711, "junction": null, "street_count": 3, "highway": null, "ref": null, "felt_temp": 36.822851419289591, "heat_grade": 6.4863059452237808, "index_right": null, "uid": null, "sgg_cd": null, "sgg_nm": null, "lclsf_cd": null, "lclsf_nm": null, "mclsf_cd": null, "mclsf_nm": null, "sclsf_cd": null, "sclsf_nm": null, "dclsf_cd": null, "dclsf_nm": null, "ldc_lc_cd": null, "ldc_lc_nm": null, "ldc_mc_cd": null, "ldc_mc_nm": null, "ldc_sc_cd": null, "ldc_sc_nm": null, "shade": 0.2, "heat_score": 22.69 }, "geometry": { "type": "Point", "coordinates": [ 127.1196711, 37.3322905 ] } },
{ "type": "Feature", "properties": { "osmid": 11178439026, "y": 37.3321158, "x": 127.1202535, "junction": null, "street_count": 3, "highway": null, "ref": null, "felt_temp": 36.822851419289591, "heat_grade": 6.4863059452237808, "index_right": null, "uid": null, "sgg_cd": null, "sgg_nm": null, "lclsf_cd": null, "lclsf_nm": null, "mclsf_cd": null, "mclsf_nm": null, "sclsf_cd": null, "sclsf_nm": null, "dclsf_cd": null, "dclsf_nm": null, "ldc_lc_cd": null, "ldc_lc_nm": null, "ldc_mc_cd": null, "ldc_mc_nm": null, "ldc_sc_cd": null, "ldc_sc_nm": null, "shade": 0.2, "heat_score": 22.69 }, "geometry": { "type": "Point", "coordinates": [ 127.1202535, 37.3321158 ] } },
{ "type": "Feature", "properties": { "osmid": 4631099094, "y": 37.3321342, "x": 127.1214936, "junction": null, "street_count": 3, "highway": null, "ref": null, "felt_temp": 36.822851419289591, "heat_grade": 6.4863059452237808, "index_right": null, "uid": null, "sgg_cd": null, "sgg_nm": null, "lclsf_cd": null, "lclsf_nm": null, "mclsf_cd": null, "mclsf_nm": null, "sclsf_cd": null, "sclsf_nm": null, "dclsf_cd": null, "dclsf_nm": null, "ldc_lc_cd": null, "ldc_lc_nm": null, "ldc_mc_cd": null, "ldc_mc_nm": null, "ldc_sc_cd": null, "ldc_sc_nm": null, "shade": 0.2, "heat_score": 22.69 }, "geometry": { "type": "Point", "coordinates": [ 127.1214936, 37.3321342 ] } },
{ "type": "Feature", "properties": { "osmid": 4631099093, "y": 37.331741, "x": 127.1214936, "junction": null, "street_count": 4, "highway": null, "ref": null, "felt_temp": 36.822851419289591, "heat_grade": 6.4863059452237808, "index_right": null, "uid": null, "sgg_cd": null, "sgg_nm": null, "lclsf_cd": null, "lclsf_nm": null, "mclsf_cd": null, "mclsf_nm": null, "sclsf_cd": null, "sclsf_nm": null, "dclsf_cd": null, "dclsf_nm": null, "ldc_lc_cd": null, "ldc_lc_nm": null, "ldc_mc_cd": null, "ldc_mc_nm": null, "ldc_sc_cd": null, "ldc_sc_nm": null, "shade": 0.2, "heat_score": 22.69 }, "geometry": { "type": "Point", "coordinates": [ 127.1214936, 37.331741 ] } },
{ "type": "Feature", "properties": { "osmid": 4269462806, "y": 37.3317728, "x": 127.1232695, "junction": "yes", "street_count": 4, "highway": null, "ref": null, "felt_temp": 36.680835723876953, "heat_grade": 4.0, "index_right": 7152.0, "uid": "ì©ì¸_119228", "sgg_cd": "41460", "sgg_nm": "ì©ì¸ì", "lclsf_cd": "I", "lclsf_nm": "ìê°íê±´ì¡°ì§", "mclsf_cd": "ID", "mclsf_nm": "êµíµìì¤ì§", "sclsf_cd": "ID2", "sclsf_nm": "ì¼ë°ëë¡", "dclsf_cd": "ID2_1", "dclsf_nm": "ê°ë¡ì ìë ì¼ë°ëë¡", "ldc_lc_cd": "A", "ldc_lc_nm": "ìê°íê±´ì¡°ì§ì­", "ldc_mc_cd": "A5", "ldc_mc_nm": "êµíµì§ì­", "ldc_sc_cd": "A54", "ldc_sc_nm": "ëë¡", "shade": 0.2, "heat_score": 21.61 }, "geometry": { "type": "Point", "coordinates": [ 127.123269500000021, 37.3317728 ] } },
{ "type": "Feature", "properties": { "osmid": 4169632612, "y": 37.3312254, "x": 127.1232652, "junction": null, "street_count": 3, "highway": null, "ref": null, "felt_temp": 37.016376495361328, "heat_grade": 9.0, "index_right": 7152.0, "uid": "ì©ì¸_119228", "sgg_cd": "41460", "sgg_nm": "ì©ì¸ì", "lclsf_cd": "I", "lclsf_nm": "ìê°íê±´ì¡°ì§", "mclsf_cd": "ID", "mclsf_nm": "êµíµìì¤ì§", "sclsf_cd": "ID2", "sclsf_nm": "ì¼ë°ëë¡", "dclsf_cd": "ID2_1", "dclsf_nm": "ê°ë¡ì ìë ì¼ë°ëë¡", "ldc_lc_cd": "A", "ldc_lc_nm": "ìê°íê±´ì¡°ì§ì­", "ldc_mc_cd": "A5", "ldc_mc_nm": "êµíµì§ì­", "ldc_sc_cd": "A54", "ldc_sc_nm": "ëë¡", "shade": 0.2, "heat_score": 23.81 }, "geometry": { "type": "Point", "coordinates": [ 127.1232652, 37.3312254 ] } },
{ "type": "Feature", "properties": { "osmid": 2405708085, "y": 37.330369, "x": 127.1231793, "junction": null, "street_count": 3, "highway": null, "ref": null, "felt_temp": 36.689701080322266, "heat_grade": 4.0, "index_right": 7152.0, "uid": "ì©ì¸_119228", "sgg_cd": "41460", "sgg_nm": "ì©ì¸ì", "lclsf_cd": "I", "lclsf_nm": "ìê°íê±´ì¡°ì§", "mclsf_cd": "ID", "mclsf_nm": "êµíµìì¤ì§", "sclsf_cd": "ID2", "sclsf_nm": "ì¼ë°ëë¡", "dclsf_cd": "ID2_1", "dclsf_nm": "ê°ë¡ì ìë ì¼ë°ëë¡", "ldc_lc_cd": "A", "ldc_lc_nm": "ìê°íê±´ì¡°ì§ì­", "ldc_mc_cd": "A5", "ldc_mc_nm": "êµíµì§ì­", "ldc_sc_cd": "A54", "ldc_sc_nm": "ëë¡", "shade": 0.2, "heat_score": 21.61 }, "geometry": { "type": "Point", "coordinates": [ 127.1231793, 37.330369 ] } },
{ "type": "Feature", "properties": { "osmid": 2405708072, "y": 37.3299279, "x": 127.1230801, "junction": "yes", "street_count": 4, "highway": null, "ref": null, "felt_temp": 37.073402404785156, "heat_grade": 9.0, "index_right": 7152.0, "uid": "ì©ì¸_119228", "sgg_cd": "41460", "sgg_nm": "ì©ì¸ì", "lclsf_cd": "I", "lclsf_nm": "ìê°íê±´ì¡°ì§", "mclsf_cd": "ID", "mclsf_nm": "êµíµìì¤ì§", "sclsf_cd": "ID2", "sclsf_nm": "ì¼ë°ëë¡", "dclsf_cd": "ID2_1", "dclsf_nm": "ê°ë¡ì ìë ì¼ë°ëë¡", "ldc_lc_cd": "A", "ldc_lc_nm": "ìê°íê±´ì¡°ì§ì­", "ldc_mc_cd": "A5", "ldc_mc_nm": "êµíµì§ì­", "ldc_sc_cd": "A54", "ldc_sc_nm": "ëë¡", "shade": 0.2, "heat_score": 23.84 }, "geometry": { "type": "Point", "coordinates": [ 127.1230801, 37.3299279 ] } },
{ "type": "Feature", "properties": { "osmid": 3453581595, "y": 37.328253, "x": 127.1231704, "junction": null, "street_count": 3, "highway": null, "ref": null, "felt_temp": 36.011417388916016, "heat_grade": 1.0, "index_right": 7152.0, "uid": "ì©ì¸_119228", "sgg_cd": "41460", "sgg_nm": "ì©ì¸ì", "lclsf_cd": "I", "lclsf_nm": "ìê°íê±´ì¡°ì§", "mclsf_cd": "ID", "mclsf_nm": "êµíµìì¤ì§", "sclsf_cd": "ID2", "sclsf_nm": "ì¼ë°ëë¡", "dclsf_cd": "ID2_1", "dclsf_nm": "ê°ë¡ì ìë ì¼ë°ëë¡", "ldc_lc_cd": "A", "ldc_lc_nm": "ìê°íê±´ì¡°ì§ì­", "ldc_mc_cd": "A5", "ldc_mc_nm": "êµíµì§ì­", "ldc_sc_cd": "A54", "ldc_sc_nm": "ëë¡", "shade": 0.2, "heat_score": 20.01 }, "geometry": { "type": "Point", "coordinates": [ 127.1231704, 37.328253 ] } },
{ "type": "Feature", "properties": { "osmid": 2405707976, "y": 37.3264335, "x": 127.1184717, "junction": "yes", "street_count": 4, "highway": null, "ref": null, "felt_temp": 36.64166259765625, "heat_grade": 3.0, "index_right": 7152.0, "uid": "ì©ì¸_119228", "sgg_cd": "41460", "sgg_nm": "ì©ì¸ì", "lclsf_cd": "I", "lclsf_nm": "ìê°íê±´ì¡°ì§", "mclsf_cd": "ID", "mclsf_nm": "êµíµìì¤ì§", "sclsf_cd": "ID2", "sclsf_nm": "ì¼ë°ëë¡", "dclsf_cd": "ID2_1", "dclsf_nm": "ê°ë¡ì ìë ì¼ë°ëë¡", "ldc_lc_cd": "A", "ldc_lc_nm": "ìê°íê±´ì¡°ì§ì­", "ldc_mc_cd": "A5", "ldc_mc_nm": "êµíµì§ì­", "ldc_sc_cd": "A54", "ldc_sc_nm": "ëë¡", "shade": 0.2, "heat_score": 21.18 }, "geometry": { "type": "Point", "coordinates": [ 127.1184717, 37.3264335 ] } },
{ "type": "Feature", "properties": { "osmid": 2405707971, "y": 37.3262504, "x": 127.1180087, "junction": null, "street_count": 3, "highway": null, "ref": null, "felt_temp": 36.686046600341797, "heat_grade": 4.0, "index_right": 6966.0, "uid": "ì©ì¸_119378", "sgg_cd": "41460", "sgg_nm": "ì©ì¸ì", "lclsf_cd": "I", "lclsf_nm": "ìê°íê±´ì¡°ì§", "mclsf_cd": "ID", "mclsf_nm": "êµíµìì¤ì§", "sclsf_cd": "ID3", "sclsf_nm": "ìëë¡", "dclsf_cd": null, "dclsf_nm": null, "ldc_lc_cd": "A", "ldc_lc_nm": "ìê°íê±´ì¡°ì§ì­", "ldc_mc_cd": "A5", "ldc_mc_nm": "êµíµì§ì­", "ldc_sc_cd": "A54", "ldc_sc_nm": "ëë¡", "shade": 0.2, "heat_score": 21.61 }, "geometry": { "type": "Point", "coordinates": [ 127.1180087, 37.3262504 ] } },
{ "type": "Feature", "properties": { "osmid": 2405707955, "y": 37.3256524, "x": 127.1185093, "junction": null, "street_count": 3, "highway": null, "ref": null, "felt_temp": 36.499160766601562, "heat_grade": 2.0, "index_right": 7152.0, "uid": "ì©ì¸_119228", "sgg_cd": "41460", "sgg_nm": "ì©ì¸ì", "lclsf_cd": "I", "lclsf_nm": "ìê°íê±´ì¡°ì§", "mclsf_cd": "ID", "mclsf_nm": "êµíµìì¤ì§", "sclsf_cd": "ID2", "sclsf_nm": "ì¼ë°ëë¡", "dclsf_cd": "ID2_1", "dclsf_nm": "ê°ë¡ì ìë ì¼ë°ëë¡", "ldc_lc_cd": "A", "ldc_lc_nm": "ìê°íê±´ì¡°ì§ì­", "ldc_mc_cd": "A5", "ldc_mc_nm": "êµíµì§ì­", "ldc_sc_cd": "A54", "ldc_sc_nm": "ëë¡", "shade": 0.2, "heat_score": 20.7 }, "geometry": { "type": "Point", "coordinates": [ 127.118509300000014, 37.3256524 ] } },
{ "type": "Feature", "properties": { "osmid": 12453022171, "y": 37.3248574, "x": 127.117419, "junction": null, "street_count": 3, "highway": null, "ref": null, "felt_temp": 36.909671783447266, "heat_grade": 8.0, "index_right": 7152.0, "uid": "ì©ì¸_119228", "sgg_cd": "41460", "sgg_nm": "ì©ì¸ì", "lclsf_cd": "I", "lclsf_nm": "ìê°íê±´ì¡°ì§", "mclsf_cd": "ID", "mclsf_nm": "êµíµìì¤ì§", "sclsf_cd": "ID2", "sclsf_nm": "ì¼ë°ëë¡", "dclsf_cd": "ID2_1", "dclsf_nm": "ê°ë¡ì ìë ì¼ë°ëë¡", "ldc_lc_cd": "A", "ldc_lc_nm": "ìê°íê±´ì¡°ì§ì­", "ldc_mc_cd": "A5", "ldc_mc_nm": "êµíµì§ì­", "ldc_sc_cd": "A54", "ldc_sc_nm": "ëë¡", "shade": 0.2, "heat_score": 23.35 }, "geometry": { "type": "Point", "coordinates": [ 127.117419, 37.3248574 ] } },
{ "type": "Feature", "properties": { "osmid": 2405707949, "y": 37.3250371, "x": 127.1160309, "junction": null, "street_count": 3, "highway": null, "ref": null, "felt_temp": 36.323020935058594, "heat_grade": 1.0, "index_right": 7152.0, "uid": "ì©ì¸_119228", "sgg_cd": "41460", "sgg_nm": "ì©ì¸ì", "lclsf_cd": "I", "lclsf_nm": "ìê°íê±´ì¡°ì§", "mclsf_cd": "ID", "mclsf_nm": "êµíµìì¤ì§", "sclsf_cd": "ID2", "sclsf_nm": "ì¼ë°ëë¡", "dclsf_cd": "ID2_1", "dclsf_nm": "ê°ë¡ì ìë ì¼ë°ëë¡", "ldc_lc_cd": "A", "ldc_lc_nm": "ìê°íê±´ì¡°ì§ì­", "ldc_mc_cd": "A5", "ldc_mc_nm": "êµíµì§ì­", "ldc_sc_cd": "A54", "ldc_sc_nm": "ëë¡", "shade": 0.2, "heat_score": 20.19 }, "geometry": { "type": "Point", "coordinates": [ 127.116030899999984, 37.3250371 ] } },
{ "type": "Feature", "properties": { "osmid": 11621785394, "y": 37.3247337, "x": 127.1155591, "junction": null, "street_count": 3, "highway": null, "ref": null, "felt_temp": 36.688430786132812, "heat_grade": 4.0, "index_right": 7152.0, "uid": "ì©ì¸_119228", "sgg_cd": "41460", "sgg_nm": "ì©ì¸ì", "lclsf_cd": "I", "lclsf_nm": "ìê°íê±´ì¡°ì§", "mclsf_cd": "ID", "mclsf_nm": "êµíµìì¤ì§", "sclsf_cd": "ID2", "sclsf_nm": "ì¼ë°ëë¡", "dclsf_cd": "ID2_1", "dclsf_nm": "ê°ë¡ì ìë ì¼ë°ëë¡", "ldc_lc_cd": "A", "ldc_lc_nm": "ìê°íê±´ì¡°ì§ì­", "ldc_mc_cd": "A5", "ldc_mc_nm": "êµíµì§ì­", "ldc_sc_cd": "A54", "ldc_sc_nm": "ëë¡", "shade": 0.2, "heat_score": 21.61 }, "geometry": { "type": "Point", "coordinates": [ 127.1155591, 37.3247337 ] } },
{ "type": "Feature", "properties": { "osmid": 2405707950, "y": 37.3249534, "x": 127.1155636, "junction": null, "street_count": 3, "highway": null, "ref": null, "felt_temp": 36.362163543701172, "heat_grade": 1.0, "index_right": 7152.0, "uid": "ì©ì¸_119228", "sgg_cd": "41460", "sgg_nm": "ì©ì¸ì", "lclsf_cd": "I", "lclsf_nm": "ìê°íê±´ì¡°ì§", "mclsf_cd": "ID", "mclsf_nm": "êµíµìì¤ì§", "sclsf_cd": "ID2", "sclsf_nm": "ì¼ë°ëë¡", "dclsf_cd": "ID2_1", "dclsf_nm": "ê°ë¡ì ìë ì¼ë°ëë¡", "ldc_lc_cd": "A", "ldc_lc_nm": "ìê°íê±´ì¡°ì§ì­", "ldc_mc_cd": "A5", "ldc_mc_nm": "êµíµì§ì­", "ldc_sc_cd": "A54", "ldc_sc_nm": "ëë¡", "shade": 0.2, "heat_score": 20.22 }, "geometry": { "type": "Point", "coordinates": [ 127.1155636, 37.3249534 ] } },
{ "type": "Feature", "properties": { "osmid": 2405707952, "y": 37.325134, "x": 127.1156014, "junction": null, "street_count": 3, "highway": null, "ref": null, "felt_temp": 36.674556732177734, "heat_grade": 4.0, "index_right": 7152.0, "uid": "ì©ì¸_119228", "sgg_cd": "41460", "sgg_nm": "ì©ì¸ì", "lclsf_cd": "I", "lclsf_nm": "ìê°íê±´ì¡°ì§", "mclsf_cd": "ID", "mclsf_nm": "êµíµìì¤ì§", "sclsf_cd": "ID2", "sclsf_nm": "ì¼ë°ëë¡", "dclsf_cd": "ID2_1", "dclsf_nm": "ê°ë¡ì ìë ì¼ë°ëë¡", "ldc_lc_cd": "A", "ldc_lc_nm": "ìê°íê±´ì¡°ì§ì­", "ldc_mc_cd": "A5", "ldc_mc_nm": "êµíµì§ì­", "ldc_sc_cd": "A54", "ldc_sc_nm": "ëë¡", "shade": 0.2, "heat_score": 21.6 }, "geometry": { "type": "Point", "coordinates": [ 127.1156014, 37.325134 ] } },
{ "type": "Feature", "properties": { "osmid": 2405707961, "y": 37.3258345, "x": 127.1145303, "junction": null, "street_count": 3, "highway": null, "ref": null, "felt_temp": 36.756179809570312, "heat_grade": 6.0, "index_right": 9507.0, "uid": "ì©ì¸_130739", "sgg_cd": "41460", "sgg_nm": "ì©ì¸ì", "lclsf_cd": "I", "lclsf_nm": "ìê°íê±´ì¡°ì§", "mclsf_cd": "ID", "mclsf_nm": "êµíµìì¤ì§", "sclsf_cd": "ID2", "sclsf_nm": "ì¼ë°ëë¡", "dclsf_cd": "ID2_2", "dclsf_nm": "ê°ë¡ì ìë ì¼ë°ëë¡", "ldc_lc_cd": "A", "ldc_lc_nm": "ìê°íê±´ì¡°ì§ì­", "ldc_mc_cd": "A5", "ldc_mc_nm": "êµíµì§ì­", "ldc_sc_cd": "A54", "ldc_sc_nm": "ëë¡", "shade": 0.2, "heat_score": 22.45 }, "geometry": { "type": "Point", "coordinates": [ 127.1145303, 37.3258345 ] } },
{ "type": "Feature", "properties": { "osmid": 2405707964, "y": 37.3260926, "x": 127.1129092, "junction": null, "street_count": 3, "highway": null, "ref": null, "felt_temp": 36.974620819091797, "heat_grade": 8.0, "index_right": 9507.0, "uid": "ì©ì¸_130739", "sgg_cd": "41460", "sgg_nm": "ì©ì¸ì", "lclsf_cd": "I", "lclsf_nm": "ìê°íê±´ì¡°ì§", "mclsf_cd": "ID", "mclsf_nm": "êµíµìì¤ì§", "sclsf_cd": "ID2", "sclsf_nm": "ì¼ë°ëë¡", "dclsf_cd": "ID2_2", "dclsf_nm": "ê°ë¡ì ìë ì¼ë°ëë¡", "ldc_lc_cd": "A", "ldc_lc_nm": "ìê°íê±´ì¡°ì§ì­", "ldc_mc_cd": "A5", "ldc_mc_nm": "êµíµì§ì­", "ldc_sc_cd": "A54", "ldc_sc_nm": "ëë¡", "shade": 0.2, "heat_score": 23.38 }, "geometry": { "type": "Point", "coordinates": [ 127.1129092, 37.32609260000001 ] } },
{ "type": "Feature", "properties": { "osmid": 10870091119, "y": 37.3264829, "x": 127.1130635, "junction": null, "street_count": 3, "highway": null, "ref": null, "felt_temp": 36.636520385742188, "heat_grade": 3.0, "index_right": 6957.0, "uid": "ì©ì¸_119240", "sgg_cd": "41460", "sgg_nm": "ì©ì¸ì", "lclsf_cd": "I", "lclsf_nm": "ìê°íê±´ì¡°ì§", "mclsf_cd": "ID", "mclsf_nm": "êµíµìì¤ì§", "sclsf_cd": "ID2", "sclsf_nm": "ì¼ë°ëë¡", "dclsf_cd": "ID2_1", "dclsf_nm": "ê°ë¡ì ìë ì¼ë°ëë¡", "ldc_lc_cd": "A", "ldc_lc_nm": "ìê°íê±´ì¡°ì§ì­", "ldc_mc_cd": "A5", "ldc_mc_nm": "êµíµì§ì­", "ldc_sc_cd": "A54", "ldc_sc_nm": "ëë¡", "shade": 0.2, "heat_score": 21.18 }, "geometry": { "type": "Point", "coordinates": [ 127.1130635, 37.3264829 ] } },
{ "type": "Feature", "properties": { "osmid": 2405707974, "y": 37.3263266, "x": 127.1135916, "junction": null, "street_count": 3, "highway": null, "ref": null, "felt_temp": 36.947734832763672, "heat_grade": 8.0, "index_right": 6749.0, "uid": "ì©ì¸_118933", "sgg_cd": "41460", "sgg_nm": "ì©ì¸ì", "lclsf_cd": "I", "lclsf_nm": "ìê°íê±´ì¡°ì§", "mclsf_cd": "IA", "mclsf_nm": "ê³µëì£¼íì§", "sclsf_cd": "IA4", "sclsf_nm": "ê¸°í ê³µëì£¼íì§", "dclsf_cd": null, "dclsf_nm": null, "ldc_lc_cd": "A", "ldc_lc_nm": "ìê°íê±´ì¡°ì§ì­", "ldc_mc_cd": "A1", "ldc_mc_nm": "ì£¼ê±°ì§ì­", "ldc_sc_cd": "A12", "ldc_sc_nm": "ê³µëì£¼ê±°ìì¤", "shade": 0.2, "heat_score": 23.37 }, "geometry": { "type": "Point", "coordinates": [ 127.113591600000021, 37.3263266 ] } },
{ "type": "Feature", "properties": { "osmid": 2405707994, "y": 37.3269924, "x": 127.1142021, "junction": null, "street_count": 3, "highway": null, "ref": null, "felt_temp": 36.799880981445312, "heat_grade": 7.0, "index_right": 6966.0, "uid": "ì©ì¸_119378", "sgg_cd": "41460", "sgg_nm": "ì©ì¸ì", "lclsf_cd": "I", "lclsf_nm": "ìê°íê±´ì¡°ì§", "mclsf_cd": "ID", "mclsf_nm": "êµíµìì¤ì§", "sclsf_cd": "ID3", "sclsf_nm": "ìëë¡", "dclsf_cd": null, "dclsf_nm": null, "ldc_lc_cd": "A", "ldc_lc_nm": "ìê°íê±´ì¡°ì§ì­", "ldc_mc_cd": "A5", "ldc_mc_nm": "êµíµì§ì­", "ldc_sc_cd": "A54", "ldc_sc_nm": "ëë¡", "shade": 0.2, "heat_score": 22.88 }, "geometry": { "type": "Point", "coordinates": [ 127.1142021, 37.3269924 ] } },
{ "type": "Feature", "properties": { "osmid": 2405708001, "y": 37.3273626, "x": 127.1142721, "junction": null, "street_count": 3, "highway": null, "ref": null, "felt_temp": 36.170967102050781, "heat_grade": 1.0, "index_right": 6966.0, "uid": "ì©ì¸_119378", "sgg_cd": "41460", "sgg_nm": "ì©ì¸ì", "lclsf_cd": "I", "lclsf_nm": "ìê°íê±´ì¡°ì§", "mclsf_cd": "ID", "mclsf_nm": "êµíµìì¤ì§", "sclsf_cd": "ID3", "sclsf_nm": "ìëë¡", "dclsf_cd": null, "dclsf_nm": null, "ldc_lc_cd": "A", "ldc_lc_nm": "ìê°íê±´ì¡°ì§ì­", "ldc_mc_cd": "A5", "ldc_mc_nm": "êµíµì§ì­", "ldc_sc_cd": "A54", "ldc_sc_nm": "ëë¡", "shade": 0.2, "heat_score": 20.1 }, "geometry": { "type": "Point", "coordinates": [ 127.1142721, 37.3273626 ] } },
{ "type": "Feature", "properties": { "osmid": 2405707998, "y": 37.3272909, "x": 127.113383, "junction": null, "street_count": 3, "highway": null, "ref": null, "felt_temp": 36.257194519042969, "heat_grade": 1.0, "index_right": 6966.0, "uid": "ì©ì¸_119378", "sgg_cd": "41460", "sgg_nm": "ì©ì¸ì", "lclsf_cd": "I", "lclsf_nm": "ìê°íê±´ì¡°ì§", "mclsf_cd": "ID", "mclsf_nm": "êµíµìì¤ì§", "sclsf_cd": "ID3", "sclsf_nm": "ìëë¡", "dclsf_cd": null, "dclsf_nm": null, "ldc_lc_cd": "A", "ldc_lc_nm": "ìê°íê±´ì¡°ì§ì­", "ldc_mc_cd": "A5", "ldc_mc_nm": "êµíµì§ì­", "ldc_sc_cd": "A54", "ldc_sc_nm": "ëë¡", "shade": 0.2, "heat_score": 20.15 }, "geometry": { "type": "Point", "coordinates": [ 127.113383, 37.3272909 ] } },
{ "type": "Feature", "properties": { "osmid": 2405708005, "y": 37.3275184, "x": 127.1127745, "junction": null, "street_count": 3, "highway": null, "ref": null, "felt_temp": 36.907630920410156, "heat_grade": 8.0, "index_right": 7152.0, "uid": "ì©ì¸_119228", "sgg_cd": "41460", "sgg_nm": "ì©ì¸ì", "lclsf_cd": "I", "lclsf_nm": "ìê°íê±´ì¡°ì§", "mclsf_cd": "ID", "mclsf_nm": "êµíµìì¤ì§", "sclsf_cd": "ID2", "sclsf_nm": "ì¼ë°ëë¡", "dclsf_cd": "ID2_1", "dclsf_nm": "ê°ë¡ì ìë ì¼ë°ëë¡", "ldc_lc_cd": "A", "ldc_lc_nm": "ìê°íê±´ì¡°ì§ì­", "ldc_mc_cd": "A5", "ldc_mc_nm": "êµíµì§ì­", "ldc_sc_cd": "A54", "ldc_sc_nm": "ëë¡", "shade": 0.2, "heat_score": 23.34 }, "geometry": { "type": "Point", "coordinates": [ 127.1127745, 37.3275184 ] } },
{ "type": "Feature", "properties": { "osmid": 2405708015, "y": 37.3280911, "x": 127.1137346, "junction": null, "street_count": 3, "highway": null, "ref": null, "felt_temp": 36.176925659179688, "heat_grade": 1.0, "index_right": 7152.0, "uid": "ì©ì¸_119228", "sgg_cd": "41460", "sgg_nm": "ì©ì¸ì", "lclsf_cd": "I", "lclsf_nm": "ìê°íê±´ì¡°ì§", "mclsf_cd": "ID", "mclsf_nm": "êµíµìì¤ì§", "sclsf_cd": "ID2", "sclsf_nm": "ì¼ë°ëë¡", "dclsf_cd": "ID2_1", "dclsf_nm": "ê°ë¡ì ìë ì¼ë°ëë¡", "ldc_lc_cd": "A", "ldc_lc_nm": "ìê°íê±´ì¡°ì§ì­", "ldc_mc_cd": "A5", "ldc_mc_nm": "êµíµì§ì­", "ldc_sc_cd": "A54", "ldc_sc_nm": "ëë¡", "shade": 0.2, "heat_score": 20.11 }, "geometry": { "type": "Point", "coordinates": [ 127.1137346, 37.3280911 ] } },
{ "type": "Feature", "properties": { "osmid": 2405708031, "y": 37.3284208, "x": 127.1136213, "junction": null, "street_count": 3, "highway": null, "ref": null, "felt_temp": 36.000068664550781, "heat_grade": 1.0, "index_right": 7162.0, "uid": "ì©ì¸_119299", "sgg_cd": "41460", "sgg_nm": "ì©ì¸ì", "lclsf_cd": "I", "lclsf_nm": "ìê°íê±´ì¡°ì§", "mclsf_cd": "ID", "mclsf_nm": "êµíµìì¤ì§", "sclsf_cd": "ID3", "sclsf_nm": "ìëë¡", "dclsf_cd": null, "dclsf_nm": null, "ldc_lc_cd": "A", "ldc_lc_nm": "ìê°íê±´ì¡°ì§ì­", "ldc_mc_cd": "A5", "ldc_mc_nm": "êµíµì§ì­", "ldc_sc_cd": "A54", "ldc_sc_nm": "ëë¡", "shade": 0.2, "heat_score": 20.0 }, "geometry": { "type": "Point", "coordinates": [ 127.11362130000002, 37.328420800000011 ] } }
]
}
