{
"type": "FeatureCollection",
"name": "cool_cycle_7km_route2_edges",
"crs": { "type": "name", "properties": { "name": "urn:ogc:def:crs:OGC:1.3:CRS84" } },
"features": [
{ "type": "Feature", "properties": { "u": 2405708031, "v": 2405708042, "length": 50.992403167753551, "heat_score": 20.07 }, "geometry": { "type": "LineString", "coordinates": [ [ 127.114015599999988, 37.3287535 ], [ 127.113952800000021, 37.3286797 ], [ 127.11362130000002, 37.328420800000011 ] ] } },
{ "type": "Feature", "properties": { "u": 2405708042, "v": 2405708044, "length": 13.896412788302156, "heat_score": 21.755 }, "geometry": { "type": "LineString", "coordinates": [ [ 127.114103500000013, 37.3288571 ], [ 127.114015599999988, 37.3287535 ] ] } },
{ "type": "Feature", "properties": { "u": 2405708044, "v": 2405708039, "length": 62.450877426956879, "heat_score": 21.77 }, "geometry": { "type": "LineString", "coordinates": [ [ 127.114103500000013, 37.3288571 ], [ 127.1145677, 37.3287804 ], [ 127.114617100000018, 37.32873750000001 ], [ 127.1147246, 37.3286443 ] ] } },
{ "type": "Feature", "properties": { "u": 2405708039, "v": 2405708010, "length": 121.7220612906128, "heat_score": 20.195 }, "geometry": { "type": "LineString", "coordinates": [ [ 127.1147246, 37.3286443 ], [ 127.1147027, 37.32838240000001 ], [ 127.114704799999984, 37.3282536 ], [ 127.1147624, 37.32814 ], [ 127.1148817, 37.3279401 ], [ 127.114628899999985, 37.3276419 ] ] } },
{ "type": "Feature", "properties": { "u": 2405708010, "v": 2405707995, "length": 71.724054913354934, "heat_score": 20.48 }, "geometry": { "type": "LineString", "coordinates": [ [ 127.114628899999985, 37.3276419 ], [ 127.11490120000002, 37.3270343 ] ] } },
{ "type": "Feature", "properties": { "u": 2405707995, "v": 2405707963, "length": 113.2523425188292, "heat_score": 21.385 }, "geometry": { "type": "LineString", "coordinates": [ [ 127.11490120000002, 37.3270343 ], [ 127.114982200000014, 37.3268987 ], [ 127.1151697, 37.3264953 ], [ 127.115331500000011, 37.3260763 ] ] } },
{ "type": "Feature", "properties": { "u": 2405707963, "v": 2405707966, "length": 226.38978485898855, "heat_score": 22.03 }, "geometry": { "type": "LineString", "coordinates": [ [ 127.117807, 37.3262043 ], [ 127.1175527, 37.3262843 ], [ 127.1169842, 37.3263779 ], [ 127.116686, 37.32637660000001 ], [ 127.1160217, 37.32625980000001 ], [ 127.115331500000011, 37.3260763 ] ] } },
{ "type": "Feature", "properties": { "u": 2405707966, "v": 2405707993, "length": 105.50793196024628, "heat_score": 22.69 }, "geometry": { "type": "LineString", "coordinates": [ [ 127.11814080000002, 37.3269902 ], [ 127.1178109, 37.3268568 ], [ 127.1177862, 37.32674440000001 ], [ 127.1178088, 37.3262466 ], [ 127.117807, 37.3262043 ] ] } },
{ "type": "Feature", "properties": { "u": 2405707993, "v": 2405708056, "length": 297.38821523142957, "heat_score": 22.685 }, "geometry": { "type": "LineString", "coordinates": [ [ 127.116666600000016, 37.3293836 ], [ 127.1170825, 37.3285141 ], [ 127.1173894, 37.3281684 ], [ 127.11814080000002, 37.3269902 ] ] } },
{ "type": "Feature", "properties": { "u": 2405708056, "v": 2405708045, "length": 140.42382488338941, "heat_score": 21.05 }, "geometry": { "type": "LineString", "coordinates": [ [ 127.116666600000016, 37.3293836 ], [ 127.115903300000014, 37.3291754 ], [ 127.115627300000014, 37.3290977 ], [ 127.115373700000021, 37.32900020000001 ], [ 127.115188900000021, 37.3289265 ] ] } },
{ "type": "Feature", "properties": { "u": 2405708045, "v": 6541799339, "length": 254.92787913553769, "heat_score": 20.41 }, "geometry": { "type": "LineString", "coordinates": [ [ 127.1158635, 37.3310912 ], [ 127.11522, 37.3295263 ], [ 127.115056399999986, 37.3291365 ], [ 127.115135599999988, 37.3290243 ], [ 127.115188900000021, 37.3289265 ] ] } },
{ "type": "Feature", "properties": { "u": 6541799339, "v": 6541799343, "length": 37.135570807126868, "heat_score": 21.175 }, "geometry": { "type": "LineString", "coordinates": [ [ 127.1154435, 37.3310891 ], [ 127.1157808, 37.331091 ], [ 127.1158635, 37.3310912 ] ] } },
{ "type": "Feature", "properties": { "u": 6541799343, "v": 6541799340, "length": 14.25289837405229, "heat_score": 21.385 }, "geometry": { "type": "LineString", "coordinates": [ [ 127.1154435, 37.3310891 ], [ 127.1152823, 37.3310884 ] ] } },
{ "type": "Feature", "properties": { "u": 6541799340, "v": 6541799338, "length": 15.162382822638634, "heat_score": 21.38 }, "geometry": { "type": "LineString", "coordinates": [ [ 127.1152823, 37.3310884 ], [ 127.115117899999987, 37.3311272 ] ] } },
{ "type": "Feature", "properties": { "u": 6541799338, "v": 6541799349, "length": 24.855421315344653, "heat_score": 20.905 }, "geometry": { "type": "LineString", "coordinates": [ [ 127.11488030000001, 37.3310078 ], [ 127.1150328, 37.3310867 ], [ 127.115117899999987, 37.3311272 ] ] } },
{ "type": "Feature", "properties": { "u": 6541799349, "v": 6541799368, "length": 157.5053332498868, "heat_score": 20.02 }, "geometry": { "type": "LineString", "coordinates": [ [ 127.1151166, 37.3313381 ], [ 127.1143107, 37.3313345 ], [ 127.114303300000017, 37.3310178 ], [ 127.11488030000001, 37.3310078 ] ] } },
{ "type": "Feature", "properties": { "u": 6541799368, "v": 6541799337, "length": 20.496007882738983, "heat_score": 19.88 }, "geometry": { "type": "LineString", "coordinates": [ [ 127.1151166, 37.3313381 ], [ 127.1151204, 37.3315224 ] ] } },
{ "type": "Feature", "properties": { "u": 6541799337, "v": 2405708156, "length": 81.618161687753073, "heat_score": 20.56 }, "geometry": { "type": "LineString", "coordinates": [ [ 127.1151204, 37.3315224 ], [ 127.1160435, 37.33152710000001 ] ] } },
{ "type": "Feature", "properties": { "u": 2405708156, "v": 2405708158, "length": 166.16401727805038, "heat_score": 21.94 }, "geometry": { "type": "LineString", "coordinates": [ [ 127.1179227, 37.3315153 ], [ 127.117676800000012, 37.3315186 ], [ 127.1166757, 37.3315234 ], [ 127.1164424, 37.3315209 ], [ 127.1163465, 37.3315224 ], [ 127.1160435, 37.33152710000001 ] ] } },
{ "type": "Feature", "properties": { "u": 2405708158, "v": 1670087054, "length": 37.025423060242957, "heat_score": 23.035 }, "geometry": { "type": "LineString", "coordinates": [ [ 127.1179227, 37.3315153 ], [ 127.117919500000013, 37.33133260000001 ], [ 127.1179306, 37.3311826 ] ] } },
{ "type": "Feature", "properties": { "u": 1670087054, "v": 3684152561, "length": 301.77118400622066, "heat_score": 22.705 }, "geometry": { "type": "LineString", "coordinates": [ [ 127.1192877, 37.3286997 ], [ 127.118890300000018, 37.3294093 ], [ 127.1187794, 37.3295818 ], [ 127.1183039, 37.330321499999989 ], [ 127.1182151, 37.3304795 ], [ 127.118152900000013, 37.3306031 ], [ 127.11807730000001, 37.330769 ], [ 127.1180209, 37.3309018 ], [ 127.1179306, 37.3311826 ] ] } },
{ "type": "Feature", "properties": { "u": 3684152561, "v": 7857963377, "length": 410.0623892734576, "heat_score": 22.94 }, "geometry": { "type": "LineString", "coordinates": [ [ 127.1192877, 37.3286997 ], [ 127.119406700000013, 37.3282843 ], [ 127.1194971, 37.3280895 ], [ 127.119664, 37.3277632 ], [ 127.119805700000015, 37.3275314 ], [ 127.1202403, 37.3268207 ], [ 127.12045470000001, 37.3264701 ], [ 127.120841499999983, 37.3258374 ], [ 127.121155200000018, 37.3253355 ] ] } },
{ "type": "Feature", "properties": { "u": 7857963377, "v": 1670086978, "length": 20.217611553456592, "heat_score": 23.625 }, "geometry": { "type": "LineString", "coordinates": [ [ 127.12134930000002, 37.3254316 ], [ 127.121155200000018, 37.3253355 ] ] } },
{ "type": "Feature", "properties": { "u": 1670086978, "v": 436678274, "length": 670.95325412828743, "heat_score": 23.63 }, "geometry": { "type": "LineString", "coordinates": [ [ 127.1285746, 37.3268661 ], [ 127.1278496, 37.3268873 ], [ 127.1271399, 37.3268803 ], [ 127.1266822, 37.326865 ], [ 127.126078099999987, 37.3268176 ], [ 127.125658300000012, 37.3267699 ], [ 127.1252066, 37.3266838 ], [ 127.1245517, 37.3265691 ], [ 127.1241475, 37.3265028 ], [ 127.123439300000015, 37.3262882 ], [ 127.122659899999988, 37.3260269 ], [ 127.122012, 37.3257739 ], [ 127.121528200000014, 37.3255183 ], [ 127.12134930000002, 37.3254316 ] ] } },
{ "type": "Feature", "properties": { "u": 436678274, "v": 13427081977, "length": 205.79976571932329, "heat_score": 22.735 }, "geometry": { "type": "LineString", "coordinates": [ [ 127.1308996, 37.3269518 ], [ 127.1285746, 37.3268661 ] ] } },
{ "type": "Feature", "properties": { "u": 13427081977, "v": 13427081976, "length": 17.118044318319278, "heat_score": 22.73 }, "geometry": { "type": "LineString", "coordinates": [ [ 127.1309463, 37.3271012 ], [ 127.1308996, 37.3269518 ] ] } },
{ "type": "Feature", "properties": { "u": 13427081976, "v": 2381060763, "length": 48.757841571847138, "heat_score": 23.615 }, "geometry": { "type": "LineString", "coordinates": [ [ 127.1309463, 37.3271012 ], [ 127.131064, 37.3270696 ], [ 127.131126599999988, 37.3270528 ], [ 127.1312531, 37.3270505 ], [ 127.131486699999982, 37.3270677 ] ] } },
{ "type": "Feature", "properties": { "u": 2381060763, "v": 2405707997, "length": 111.05373199970023, "heat_score": 23.34 }, "geometry": { "type": "LineString", "coordinates": [ [ 127.1327115, 37.3272887 ], [ 127.131819300000018, 37.327131 ], [ 127.131486699999982, 37.3270677 ] ] } },
{ "type": "Feature", "properties": { "u": 2405707997, "v": 11178814564, "length": 188.24940563195298, "heat_score": 22.87 }, "geometry": { "type": "LineString", "coordinates": [ [ 127.1328264, 37.3289368 ], [ 127.1328296, 37.3288878 ], [ 127.132819600000019, 37.3284277 ], [ 127.132767, 37.328273 ], [ 127.1325812, 37.327847500000011 ], [ 127.1325696, 37.3277613 ], [ 127.132592800000012, 37.3276441 ], [ 127.1327115, 37.3272887 ] ] } },
{ "type": "Feature", "properties": { "u": 11178814564, "v": 2405708053, "length": 45.102317322898529, "heat_score": 22.45 }, "geometry": { "type": "LineString", "coordinates": [ [ 127.132573, 37.3292746 ], [ 127.13267350000001, 37.3292076 ], [ 127.1327274, 37.3291577 ], [ 127.1327638, 37.3291025 ], [ 127.1327954, 37.3290334 ], [ 127.1328264, 37.3289368 ] ] } },
{ "type": "Feature", "properties": { "u": 2405708053, "v": 2405708049, "length": 30.128039337812979, "heat_score": 22.245 }, "geometry": { "type": "LineString", "coordinates": [ [ 127.132573, 37.3292746 ], [ 127.1328935, 37.3291826 ] ] } },
{ "type": "Feature", "properties": { "u": 2405708049, "v": 11178814573, "length": 33.228976432810498, "heat_score": 21.82 }, "geometry": { "type": "LineString", "coordinates": [ [ 127.1331673, 37.3293872 ], [ 127.132997500000016, 37.3292646 ], [ 127.1328935, 37.3291826 ] ] } },
{ "type": "Feature", "properties": { "u": 11178814573, "v": 7810907180, "length": 163.41399999142578, "heat_score": 22.74 }, "geometry": { "type": "LineString", "coordinates": [ [ 127.1331673, 37.3293872 ], [ 127.13331980000001, 37.3294972 ], [ 127.133471300000011, 37.3296255 ], [ 127.133559700000021, 37.3297512 ], [ 127.1336233, 37.3298877 ], [ 127.133648800000017, 37.3300664 ], [ 127.1336503, 37.3301994 ], [ 127.1335369, 37.3307191 ] ] } },
{ "type": "Feature", "properties": { "u": 7810907180, "v": 4719685665, "length": 191.17329585762343, "heat_score": 23.375 }, "geometry": { "type": "LineString", "coordinates": [ [ 127.1335369, 37.3307191 ], [ 127.1334744, 37.3307108 ], [ 127.133371, 37.3306969 ], [ 127.1327729, 37.3307047 ], [ 127.132185400000012, 37.3306703 ], [ 127.131950700000019, 37.3306908 ], [ 127.1313818, 37.3307255 ] ] } },
{ "type": "Feature", "properties": { "u": 4719685665, "v": 4719685660, "length": 209.55900391041885, "heat_score": 23.365 }, "geometry": { "type": "LineString", "coordinates": [ [ 127.1313818, 37.3307255 ], [ 127.13132330000002, 37.3305325 ], [ 127.131158900000017, 37.3304831 ], [ 127.1309805, 37.3304875 ], [ 127.1305339, 37.330514 ], [ 127.130109899999979, 37.3304373 ], [ 127.12954120000002, 37.3302958 ], [ 127.129344, 37.330234 ], [ 127.1292794, 37.3302137 ], [ 127.129273600000019, 37.3302119 ] ] } },
{ "type": "Feature", "properties": { "u": 4719685660, "v": 2405708106, "length": 147.97492800873135, "heat_score": 22.505 }, "geometry": { "type": "LineString", "coordinates": [ [ 127.129273600000019, 37.3302119 ], [ 127.129168, 37.3303058 ], [ 127.12882519999998, 37.3305982 ], [ 127.1286209, 37.3307403 ], [ 127.1283568, 37.3308559 ], [ 127.1282069, 37.3309042 ], [ 127.1279291, 37.3309017 ] ] } },
{ "type": "Feature", "properties": { "u": 2405708106, "v": 11178407633, "length": 89.27354093890844, "heat_score": 21.165 }, "geometry": { "type": "LineString", "coordinates": [ [ 127.126979300000016, 37.3311675 ], [ 127.1271784, 37.3310906 ], [ 127.12745649999998, 37.3310132 ], [ 127.1277196, 37.33094 ], [ 127.1279291, 37.3309017 ] ] } },
{ "type": "Feature", "properties": { "u": 11178407633, "v": 2405708142, "length": 248.82482166719115, "heat_score": 20.94 }, "geometry": { "type": "LineString", "coordinates": [ [ 127.126979300000016, 37.3311675 ], [ 127.1269549, 37.33117450000001 ], [ 127.126908299999982, 37.331192 ], [ 127.1265273, 37.3313351 ], [ 127.1259403, 37.331345 ], [ 127.1256408, 37.3313501 ], [ 127.1242121, 37.3313549 ] ] } },
{ "type": "Feature", "properties": { "u": 2405708142, "v": 4169632612, "length": 86.774685165662859, "heat_score": 22.26 }, "geometry": { "type": "LineString", "coordinates": [ [ 127.1232652, 37.3312254 ], [ 127.123561, 37.3312303 ], [ 127.1239287, 37.3313597 ], [ 127.124113200000011, 37.3313559 ], [ 127.1242121, 37.3313549 ] ] } },
{ "type": "Feature", "properties": { "u": 4169632612, "v": 4269462806, "length": 60.869376159629773, "heat_score": 22.71 }, "geometry": { "type": "LineString", "coordinates": [ [ 127.123269500000021, 37.3317728 ], [ 127.1232652, 37.3312254 ] ] } },
{ "type": "Feature", "properties": { "u": 4269462806, "v": 2405708171, "length": 83.880502302054055, "heat_score": 22.505 }, "geometry": { "type": "LineString", "coordinates": [ [ 127.123269500000021, 37.3317728 ], [ 127.124218200000016, 37.3317762 ] ] } },
{ "type": "Feature", "properties": { "u": 2405708171, "v": 2405708161, "length": 327.60990111701977, "heat_score": 21.795 }, "geometry": { "type": "LineString", "coordinates": [ [ 127.124218200000016, 37.3317762 ], [ 127.1253659, 37.3317979 ], [ 127.126585, 37.3317437 ], [ 127.1274631, 37.331581 ], [ 127.1278977, 37.3315882 ] ] } },
{ "type": "Feature", "properties": { "u": 2405708161, "v": 2405708106, "length": 76.38589356760987, "heat_score": 20.675 }, "geometry": { "type": "LineString", "coordinates": [ [ 127.1278977, 37.3315882 ], [ 127.1279291, 37.3309017 ] ] } },
{ "type": "Feature", "properties": { "u": 2405708106, "v": 2405708087, "length": 48.875503721288069, "heat_score": 20.94 }, "geometry": { "type": "LineString", "coordinates": [ [ 127.1279291, 37.3309017 ], [ 127.127928900000015, 37.3308703 ], [ 127.1279272, 37.330800600000011 ], [ 127.1279083, 37.3304625 ] ] } },
{ "type": "Feature", "properties": { "u": 2405708087, "v": 7748319116, "length": 145.31236880841317, "heat_score": 22.025 }, "geometry": { "type": "LineString", "coordinates": [ [ 127.1275482, 37.3291984 ], [ 127.127874300000016, 37.32997910000001 ], [ 127.127881500000015, 37.3300467 ], [ 127.1279083, 37.3304625 ] ] } },
{ "type": "Feature", "properties": { "u": 7748319116, "v": 2405708013, "length": 253.84369903936658, "heat_score": 23.36 }, "geometry": { "type": "LineString", "coordinates": [ [ 127.1275482, 37.3291984 ], [ 127.1274034, 37.3290666 ], [ 127.127176100000014, 37.3288582 ], [ 127.1269244, 37.3286753 ], [ 127.12671880000002, 37.3285732 ], [ 127.1262542, 37.3283747 ], [ 127.125671800000021, 37.3281613 ], [ 127.1255332, 37.328087 ], [ 127.125216099999989, 37.3279138 ] ] } },
{ "type": "Feature", "properties": { "u": 2405708013, "v": 3453581595, "length": 200.86712426080794, "heat_score": 21.7 }, "geometry": { "type": "LineString", "coordinates": [ [ 127.1231704, 37.328253 ], [ 127.1239653, 37.32835750000001 ], [ 127.124310399999985, 37.32838550000001 ], [ 127.124555, 37.3283562 ], [ 127.124789799999988, 37.3282546 ], [ 127.125216099999989, 37.3279138 ] ] } },
{ "type": "Feature", "properties": { "u": 3453581595, "v": 2405707976, "length": 462.21261007021968, "heat_score": 20.595 }, "geometry": { "type": "LineString", "coordinates": [ [ 127.1231704, 37.328253 ], [ 127.1216504, 37.3276935 ], [ 127.1201578, 37.3270698 ], [ 127.119096200000016, 37.3266692 ], [ 127.1184717, 37.3264335 ] ] } },
{ "type": "Feature", "properties": { "u": 2405707976, "v": 2405707971, "length": 45.72249080286565, "heat_score": 21.395 }, "geometry": { "type": "LineString", "coordinates": [ [ 127.1184717, 37.3264335 ], [ 127.1180087, 37.3262504 ] ] } },
{ "type": "Feature", "properties": { "u": 2405707971, "v": 2405707955, "length": 81.005683478955888, "heat_score": 21.155 }, "geometry": { "type": "LineString", "coordinates": [ [ 127.1180087, 37.3262504 ], [ 127.118353900000017, 37.3257489 ], [ 127.118509300000014, 37.3256524 ] ] } },
{ "type": "Feature", "properties": { "u": 2405707955, "v": 12453022171, "length": 142.27267643117676, "heat_score": 22.025 }, "geometry": { "type": "LineString", "coordinates": [ [ 127.117419, 37.3248574 ], [ 127.1175639, 37.3248514 ], [ 127.1178207, 37.3248826 ], [ 127.117912600000011, 37.3249134 ], [ 127.118152600000016, 37.3252107 ], [ 127.118509300000014, 37.3256524 ] ] } },
{ "type": "Feature", "properties": { "u": 12453022171, "v": 2405707949, "length": 124.85916112533722, "heat_score": 21.77 }, "geometry": { "type": "LineString", "coordinates": [ [ 127.117419, 37.3248574 ], [ 127.1166365, 37.3249179 ], [ 127.116408, 37.324982799999987 ], [ 127.116030899999984, 37.3250371 ] ] } },
{ "type": "Feature", "properties": { "u": 2405707949, "v": 11621785394, "length": 54.764018667221087, "heat_score": 20.9 }, "geometry": { "type": "LineString", "coordinates": [ [ 127.1155591, 37.3247337 ], [ 127.1156298, 37.3248244 ], [ 127.1157807, 37.32492520000001 ], [ 127.115956400000016, 37.3249935 ], [ 127.116030899999984, 37.3250371 ] ] } },
{ "type": "Feature", "properties": { "u": 11621785394, "v": 2405707950, "length": 24.432800200149988, "heat_score": 20.915 }, "geometry": { "type": "LineString", "coordinates": [ [ 127.1155591, 37.3247337 ], [ 127.1155636, 37.3249534 ] ] } },
{ "type": "Feature", "properties": { "u": 2405707950, "v": 2405707952, "length": 25.884538082447207, "heat_score": 20.91 }, "geometry": { "type": "LineString", "coordinates": [ [ 127.1156014, 37.325134 ], [ 127.1155616, 37.3251208 ], [ 127.1155248, 37.325092 ], [ 127.1155059, 37.3250538 ], [ 127.115506300000021, 37.3250195 ], [ 127.1155261, 37.3249816 ], [ 127.1155636, 37.3249534 ] ] } },
{ "type": "Feature", "properties": { "u": 2405707952, "v": 2405707961, "length": 133.6292396113239, "heat_score": 22.025 }, "geometry": { "type": "LineString", "coordinates": [ [ 127.1145303, 37.3258345 ], [ 127.1149443, 37.3256475 ], [ 127.1151839, 37.3253237 ], [ 127.1155777, 37.3252606 ], [ 127.1156014, 37.325134 ] ] } },
{ "type": "Feature", "properties": { "u": 2405707961, "v": 2405707964, "length": 148.55844944072103, "heat_score": 22.915 }, "geometry": { "type": "LineString", "coordinates": [ [ 127.1129092, 37.32609260000001 ], [ 127.113781500000016, 37.325856 ], [ 127.1140154, 37.3258096 ], [ 127.114045500000017, 37.325803600000015 ], [ 127.1145303, 37.3258345 ] ] } },
{ "type": "Feature", "properties": { "u": 2405707964, "v": 2405707970, "length": 73.182869088438451, "heat_score": 23.625 }, "geometry": { "type": "LineString", "coordinates": [ [ 127.112107, 37.3262489 ], [ 127.1124754, 37.3261553 ], [ 127.1129092, 37.32609260000001 ] ] } },
{ "type": "Feature", "properties": { "u": 2405707970, "v": 8858871407, "length": 91.322859226537417, "heat_score": 23.61 }, "geometry": { "type": "LineString", "coordinates": [ [ 127.1116797, 37.3269716 ], [ 127.1117207, 37.3268334 ], [ 127.1118513, 37.3264658 ], [ 127.112107, 37.3262489 ] ] } },
{ "type": "Feature", "properties": { "u": 8858871407, "v": 2405708005, "length": 114.36302680913275, "heat_score": 23.345 }, "geometry": { "type": "LineString", "coordinates": [ [ 127.1116797, 37.3269716 ], [ 127.112083499999983, 37.3271655 ], [ 127.1121386, 37.3271908 ], [ 127.112204300000016, 37.3272204 ], [ 127.1123107, 37.3272697 ], [ 127.1127745, 37.3275184 ] ] } },
{ "type": "Feature", "properties": { "u": 2405708005, "v": 2405708015, "length": 106.12251224440242, "heat_score": 21.725 }, "geometry": { "type": "LineString", "coordinates": [ [ 127.1137346, 37.3280911 ], [ 127.1128338, 37.3275538 ], [ 127.1127745, 37.3275184 ] ] } },
{ "type": "Feature", "properties": { "u": 2405708015, "v": 2405708031, "length": 39.30952060602938, "heat_score": 20.055 }, "geometry": { "type": "LineString", "coordinates": [ [ 127.11362130000002, 37.328420800000011 ], [ 127.1136514, 37.3281764 ], [ 127.1137346, 37.3280911 ] ] } }
]
}
