{
"type": "FeatureCollection",
"name": "cool_cycle_3km_route2_nodes",
"crs": { "type": "name", "properties": { "name": "urn:ogc:def:crs:OGC:1.3:CRS84" } },
"features": [
{ "type": "Feature", "properties": { "osmid": 4227745183, "y": 37.3332205, "x": 127.1279347, "junction": null, "street_count": 3, "highway": null, "ref": null, "felt_temp": 36.288341522216797, "heat_grade": 1.0, "index_right": 7587.0, "uid": "ì©ì¸_121407", "sgg_cd": "41460", "sgg_nm": "ì©ì¸ì", "lclsf_cd": "I", "lclsf_nm": "ìê°íê±´ì¡°ì§", "mclsf_cd": "ID", "mclsf_nm": "êµíµìì¤ì§", "sclsf_cd": "ID2", "sclsf_nm": "ì¼ë°ëë¡", "dclsf_cd": "ID2_1", "dclsf_nm": "ê°ë¡ì ìë ì¼ë°ëë¡", "ldc_lc_cd": "A", "ldc_lc_nm": "ìê°íê±´ì¡°ì§ì­", "ldc_mc_cd": "A5", "ldc_mc_nm": "êµíµì§ì­", "ldc_sc_cd": "A54", "ldc_sc_nm": "ëë¡", "shade": 0.2, "heat_score": 20.17 }, "geometry": { "type": "Point", "coordinates": [ 127.127934699999983, 37.3332205 ] } },
{ "type": "Feature", "properties": { "osmid": 4169632610, "y": 37.3349074, "x": 127.1279097, "junction": null, "street_count": 3, "highway": null, "ref": null, "felt_temp": 36.822851419289591, "heat_grade": 6.4863059452237808, "index_right": null, "uid": null, "sgg_cd": null, "sgg_nm": null, "lclsf_cd": null, "lclsf_nm": null, "mclsf_cd": null, "mclsf_nm": null, "sclsf_cd": null, "sclsf_nm": null, "dclsf_cd": null, "dclsf_nm": null, "ldc_lc_cd": null, "ldc_lc_nm": null, "ldc_mc_cd": null, "ldc_mc_nm": null, "ldc_sc_cd": null, "ldc_sc_nm": null, "shade": 0.2, "heat_score": 22.69 }, "geometry": { "type": "Point", "coordinates": [ 127.127909700000018, 37.3349074 ] } },
{ "type": "Feature", "properties": { "osmid": 4269462811, "y": 37.335311, "x": 127.1250554, "junction": null, "street_count": 3, "highway": null, "ref": null, "felt_temp": 36.822851419289591, "heat_grade": 6.4863059452237808, "index_right": null, "uid": null, "sgg_cd": null, "sgg_nm": null, "lclsf_cd": null, "lclsf_nm": null, "mclsf_cd": null, "mclsf_nm": null, "sclsf_cd": null, "sclsf_nm": null, "dclsf_cd": null, "dclsf_nm": null, "ldc_lc_cd": null, "ldc_lc_nm": null, "ldc_mc_cd": null, "ldc_mc_nm": null, "ldc_sc_cd": null, "ldc_sc_nm": null, "shade": 0.2, "heat_score": 22.69 }, "geometry": { "type": "Point", "coordinates": [ 127.125055399999979, 37.335311 ] } },
{ "type": "Feature", "properties": { "osmid": 2405708212, "y": 37.3342643, "x": 127.123433, "junction": null, "street_count": 3, "highway": null, "ref": null, "felt_temp": 36.822851419289591, "heat_grade": 6.4863059452237808, "index_right": null, "uid": null, "sgg_cd": null, "sgg_nm": null, "lclsf_cd": null, "lclsf_nm": null, "mclsf_cd": null, "mclsf_nm": null, "sclsf_cd": null, "sclsf_nm": null, "dclsf_cd": null, "dclsf_nm": null, "ldc_lc_cd": null, "ldc_lc_nm": null, "ldc_mc_cd": null, "ldc_mc_nm": null, "ldc_sc_cd": null, "ldc_sc_nm": null, "shade": 0.2, "heat_score": 22.69 }, "geometry": { "type": "Point", "coordinates": [ 127.123433, 37.3342643 ] } },
{ "type": "Feature", "properties": { "osmid": 2405708219, "y": 37.3344488, "x": 127.1232457, "junction": null, "street_count": 3, "highway": null, "ref": null, "felt_temp": 36.822851419289591, "heat_grade": 6.4863059452237808, "index_right": null, "uid": null, "sgg_cd": null, "sgg_nm": null, "lclsf_cd": null, "lclsf_nm": null, "mclsf_cd": null, "mclsf_nm": null, "sclsf_cd": null, "sclsf_nm": null, "dclsf_cd": null, "dclsf_nm": null, "ldc_lc_cd": null, "ldc_lc_nm": null, "ldc_mc_cd": null, "ldc_mc_nm": null, "ldc_sc_cd": null, "ldc_sc_nm": null, "shade": 0.2, "heat_score": 22.69 }, "geometry": { "type": "Point", "coordinates": [ 127.1232457, 37.3344488 ] } },
{ "type": "Feature", "properties": { "osmid": 2405708241, "y": 37.3350051, "x": 127.1240146, "junction": null, "street_count": 3, "highway": null, "ref": null, "felt_temp": 36.822851419289591, "heat_grade": 6.4863059452237808, "index_right": null, "uid": null, "sgg_cd": null, "sgg_nm": null, "lclsf_cd": null, "lclsf_nm": null, "mclsf_cd": null, "mclsf_nm": null, "sclsf_cd": null, "sclsf_nm": null, "dclsf_cd": null, "dclsf_nm": null, "ldc_lc_cd": null, "ldc_lc_nm": null, "ldc_mc_cd": null, "ldc_mc_nm": null, "ldc_sc_cd": null, "ldc_sc_nm": null, "shade": 0.2, "heat_score": 22.69 }, "geometry": { "type": "Point", "coordinates": [ 127.124014599999981, 37.335005099999989 ] } },
{ "type": "Feature", "properties": { "osmid": 2405708246, "y": 37.335107, "x": 127.1219963, "junction": null, "street_count": 3, "highway": null, "ref": null, "felt_temp": 36.822851419289591, "heat_grade": 6.4863059452237808, "index_right": null, "uid": null, "sgg_cd": null, "sgg_nm": null, "lclsf_cd": null, "lclsf_nm": null, "mclsf_cd": null, "mclsf_nm": null, "sclsf_cd": null, "sclsf_nm": null, "dclsf_cd": null, "dclsf_nm": null, "ldc_lc_cd": null, "ldc_lc_nm": null, "ldc_mc_cd": null, "ldc_mc_nm": null, "ldc_sc_cd": null, "ldc_sc_nm": null, "shade": 0.2, "heat_score": 22.69 }, "geometry": { "type": "Point", "coordinates": [ 127.1219963, 37.335107 ] } },
{ "type": "Feature", "properties": { "osmid": 2405708216, "y": 37.3344059, "x": 127.1220708, "junction": null, "street_count": 3, "highway": null, "ref": null, "felt_temp": 36.822851419289591, "heat_grade": 6.4863059452237808, "index_right": null, "uid": null, "sgg_cd": null, "sgg_nm": null, "lclsf_cd": null, "lclsf_nm": null, "mclsf_cd": null, "mclsf_nm": null, "sclsf_cd": null, "sclsf_nm": null, "dclsf_cd": null, "dclsf_nm": null, "ldc_lc_cd": null, "ldc_lc_nm": null, "ldc_mc_cd": null, "ldc_mc_nm": null, "ldc_sc_cd": null, "ldc_sc_nm": null, "shade": 0.2, "heat_score": 22.69 }, "geometry": { "type": "Point", "coordinates": [ 127.1220708, 37.3344059 ] } },
{ "type": "Feature", "properties": { "osmid": 2405708204, "y": 37.333449, "x": 127.1215132, "junction": null, "street_count": 4, "highway": null, "ref": null, "felt_temp": 36.822851419289591, "heat_grade": 6.4863059452237808, "index_right": null, "uid": null, "sgg_cd": null, "sgg_nm": null, "lclsf_cd": null, "lclsf_nm": null, "mclsf_cd": null, "mclsf_nm": null, "sclsf_cd": null, "sclsf_nm": null, "dclsf_cd": null, "dclsf_nm": null, "ldc_lc_cd": null, "ldc_lc_nm": null, "ldc_mc_cd": null, "ldc_mc_nm": null, "ldc_sc_cd": null, "ldc_sc_nm": null, "shade": 0.2, "heat_score": 22.69 }, "geometry": { "type": "Point", "coordinates": [ 127.12151320000001, 37.333449 ] } },
{ "type": "Feature", "properties": { "osmid": 2405708191, "y": 37.3329111, "x": 127.121714, "junction": null, "street_count": 3, "highway": null, "ref": null, "felt_temp": 36.822851419289591, "heat_grade": 6.4863059452237808, "index_right": null, "uid": null, "sgg_cd": null, "sgg_nm": null, "lclsf_cd": null, "lclsf_nm": null, "mclsf_cd": null, "mclsf_nm": null, "sclsf_cd": null, "sclsf_nm": null, "dclsf_cd": null, "dclsf_nm": null, "ldc_lc_cd": null, "ldc_lc_nm": null, "ldc_mc_cd": null, "ldc_mc_nm": null, "ldc_sc_cd": null, "ldc_sc_nm": null, "shade": 0.2, "heat_score": 22.69 }, "geometry": { "type": "Point", "coordinates": [ 127.121714, 37.3329111 ] } },
{ "type": "Feature", "properties": { "osmid": 2405708190, "y": 37.3328898, "x": 127.1232906, "junction": null, "street_count": 3, "highway": null, "ref": null, "felt_temp": 36.822851419289591, "heat_grade": 6.4863059452237808, "index_right": null, "uid": null, "sgg_cd": null, "sgg_nm": null, "lclsf_cd": null, "lclsf_nm": null, "mclsf_cd": null, "mclsf_nm": null, "sclsf_cd": null, "sclsf_nm": null, "dclsf_cd": null, "dclsf_nm": null, "ldc_lc_cd": null, "ldc_lc_nm": null, "ldc_mc_cd": null, "ldc_mc_nm": null, "ldc_sc_cd": null, "ldc_sc_nm": null, "shade": 0.2, "heat_score": 22.69 }, "geometry": { "type": "Point", "coordinates": [ 127.1232906, 37.3328898 ] } },
{ "type": "Feature", "properties": { "osmid": 4230119838, "y": 37.3321005, "x": 127.1232671, "junction": null, "street_count": 3, "highway": null, "ref": null, "felt_temp": 36.822851419289591, "heat_grade": 6.4863059452237808, "index_right": null, "uid": null, "sgg_cd": null, "sgg_nm": null, "lclsf_cd": null, "lclsf_nm": null, "mclsf_cd": null, "mclsf_nm": null, "sclsf_cd": null, "sclsf_nm": null, "dclsf_cd": null, "dclsf_nm": null, "ldc_lc_cd": null, "ldc_lc_nm": null, "ldc_mc_cd": null, "ldc_mc_nm": null, "ldc_sc_cd": null, "ldc_sc_nm": null, "shade": 0.2, "heat_score": 22.69 }, "geometry": { "type": "Point", "coordinates": [ 127.123267100000021, 37.3321005 ] } },
{ "type": "Feature", "properties": { "osmid": 4631099094, "y": 37.3321342, "x": 127.1214936, "junction": null, "street_count": 3, "highway": null, "ref": null, "felt_temp": 36.822851419289591, "heat_grade": 6.4863059452237808, "index_right": null, "uid": null, "sgg_cd": null, "sgg_nm": null, "lclsf_cd": null, "lclsf_nm": null, "mclsf_cd": null, "mclsf_nm": null, "sclsf_cd": null, "sclsf_nm": null, "dclsf_cd": null, "dclsf_nm": null, "ldc_lc_cd": null, "ldc_lc_nm": null, "ldc_mc_cd": null, "ldc_mc_nm": null, "ldc_sc_cd": null, "ldc_sc_nm": null, "shade": 0.2, "heat_score": 22.69 }, "geometry": { "type": "Point", "coordinates": [ 127.1214936, 37.3321342 ] } },
{ "type": "Feature", "properties": { "osmid": 11178439026, "y": 37.3321158, "x": 127.1202535, "junction": null, "street_count": 3, "highway": null, "ref": null, "felt_temp": 36.822851419289591, "heat_grade": 6.4863059452237808, "index_right": null, "uid": null, "sgg_cd": null, "sgg_nm": null, "lclsf_cd": null, "lclsf_nm": null, "mclsf_cd": null, "mclsf_nm": null, "sclsf_cd": null, "sclsf_nm": null, "dclsf_cd": null, "dclsf_nm": null, "ldc_lc_cd": null, "ldc_lc_nm": null, "ldc_mc_cd": null, "ldc_mc_nm": null, "ldc_sc_cd": null, "ldc_sc_nm": null, "shade": 0.2, "heat_score": 22.69 }, "geometry": { "type": "Point", "coordinates": [ 127.1202535, 37.3321158 ] } },
{ "type": "Feature", "properties": { "osmid": 4230119847, "y": 37.3322905, "x": 127.1196711, "junction": null, "street_count": 3, "highway": null, "ref": null, "felt_temp": 36.822851419289591, "heat_grade": 6.4863059452237808, "index_right": null, "uid": null, "sgg_cd": null, "sgg_nm": null, "lclsf_cd": null, "lclsf_nm": null, "mclsf_cd": null, "mclsf_nm": null, "sclsf_cd": null, "sclsf_nm": null, "dclsf_cd": null, "dclsf_nm": null, "ldc_lc_cd": null, "ldc_lc_nm": null, "ldc_mc_cd": null, "ldc_mc_nm": null, "ldc_sc_cd": null, "ldc_sc_nm": null, "shade": 0.2, "heat_score": 22.69 }, "geometry": { "type": "Point", "coordinates": [ 127.1196711, 37.3322905 ] } },
{ "type": "Feature", "properties": { "osmid": 4230119848, "y": 37.3322903, "x": 127.1190213, "junction": null, "street_count": 3, "highway": null, "ref": null, "felt_temp": 36.822851419289591, "heat_grade": 6.4863059452237808, "index_right": null, "uid": null, "sgg_cd": null, "sgg_nm": null, "lclsf_cd": null, "lclsf_nm": null, "mclsf_cd": null, "mclsf_nm": null, "sclsf_cd": null, "sclsf_nm": null, "dclsf_cd": null, "dclsf_nm": null, "ldc_lc_cd": null, "ldc_lc_nm": null, "ldc_mc_cd": null, "ldc_mc_nm": null, "ldc_sc_cd": null, "ldc_sc_nm": null, "shade": 0.2, "heat_score": 22.69 }, "geometry": { "type": "Point", "coordinates": [ 127.1190213, 37.3322903 ] } },
{ "type": "Feature", "properties": { "osmid": 4230119849, "y": 37.3318878, "x": 127.1190319, "junction": null, "street_count": 3, "highway": null, "ref": null, "felt_temp": 36.822851419289591, "heat_grade": 6.4863059452237808, "index_right": null, "uid": null, "sgg_cd": null, "sgg_nm": null, "lclsf_cd": null, "lclsf_nm": null, "mclsf_cd": null, "mclsf_nm": null, "sclsf_cd": null, "sclsf_nm": null, "dclsf_cd": null, "dclsf_nm": null, "ldc_lc_cd": null, "ldc_lc_nm": null, "ldc_mc_cd": null, "ldc_mc_nm": null, "ldc_sc_cd": null, "ldc_sc_nm": null, "shade": 0.2, "heat_score": 22.69 }, "geometry": { "type": "Point", "coordinates": [ 127.1190319, 37.3318878 ] } },
{ "type": "Feature", "properties": { "osmid": 4230119850, "y": 37.3315248, "x": 127.1192806, "junction": null, "street_count": 3, "highway": null, "ref": null, "felt_temp": 36.822851419289591, "heat_grade": 6.4863059452237808, "index_right": null, "uid": null, "sgg_cd": null, "sgg_nm": null, "lclsf_cd": null, "lclsf_nm": null, "mclsf_cd": null, "mclsf_nm": null, "sclsf_cd": null, "sclsf_nm": null, "dclsf_cd": null, "dclsf_nm": null, "ldc_lc_cd": null, "ldc_lc_nm": null, "ldc_mc_cd": null, "ldc_mc_nm": null, "ldc_sc_cd": null, "ldc_sc_nm": null, "shade": 0.2, "heat_score": 22.69 }, "geometry": { "type": "Point", "coordinates": [ 127.1192806, 37.3315248 ] } },
{ "type": "Feature", "properties": { "osmid": 2405708165, "y": 37.3317204, "x": 127.1202729, "junction": null, "street_count": 4, "highway": null, "ref": null, "felt_temp": 36.822851419289591, "heat_grade": 6.4863059452237808, "index_right": null, "uid": null, "sgg_cd": null, "sgg_nm": null, "lclsf_cd": null, "lclsf_nm": null, "mclsf_cd": null, "mclsf_nm": null, "sclsf_cd": null, "sclsf_nm": null, "dclsf_cd": null, "dclsf_nm": null, "ldc_lc_cd": null, "ldc_lc_nm": null, "ldc_mc_cd": null, "ldc_mc_nm": null, "ldc_sc_cd": null, "ldc_sc_nm": null, "shade": 0.2, "heat_score": 22.69 }, "geometry": { "type": "Point", "coordinates": [ 127.120272899999989, 37.3317204 ] } },
{ "type": "Feature", "properties": { "osmid": 4631099093, "y": 37.331741, "x": 127.1214936, "junction": null, "street_count": 4, "highway": null, "ref": null, "felt_temp": 36.822851419289591, "heat_grade": 6.4863059452237808, "index_right": null, "uid": null, "sgg_cd": null, "sgg_nm": null, "lclsf_cd": null, "lclsf_nm": null, "mclsf_cd": null, "mclsf_nm": null, "sclsf_cd": null, "sclsf_nm": null, "dclsf_cd": null, "dclsf_nm": null, "ldc_lc_cd": null, "ldc_lc_nm": null, "ldc_mc_cd": null, "ldc_mc_nm": null, "ldc_sc_cd": null, "ldc_sc_nm": null, "shade": 0.2, "heat_score": 22.69 }, "geometry": { "type": "Point", "coordinates": [ 127.1214936, 37.331741 ] } },
{ "type": "Feature", "properties": { "osmid": 4269462806, "y": 37.3317728, "x": 127.1232695, "junction": "yes", "street_count": 4, "highway": null, "ref": null, "felt_temp": 36.680835723876953, "heat_grade": 4.0, "index_right": 7152.0, "uid": "ì©ì¸_119228", "sgg_cd": "41460", "sgg_nm": "ì©ì¸ì", "lclsf_cd": "I", "lclsf_nm": "ìê°íê±´ì¡°ì§", "mclsf_cd": "ID", "mclsf_nm": "êµíµìì¤ì§", "sclsf_cd": "ID2", "sclsf_nm": "ì¼ë°ëë¡", "dclsf_cd": "ID2_1", "dclsf_nm": "ê°ë¡ì ìë ì¼ë°ëë¡", "ldc_lc_cd": "A", "ldc_lc_nm": "ìê°íê±´ì¡°ì§ì­", "ldc_mc_cd": "A5", "ldc_mc_nm": "êµíµì§ì­", "ldc_sc_cd": "A54", "ldc_sc_nm": "ëë¡", "shade": 0.2, "heat_score": 21.61 }, "geometry": { "type": "Point", "coordinates": [ 127.123269500000021, 37.3317728 ] } },
{ "type": "Feature", "properties": { "osmid": 2405708171, "y": 37.3317762, "x": 127.1242182, "junction": null, "street_count": 3, "highway": null, "ref": null, "felt_temp": 36.994617462158203, "heat_grade": 8.0, "index_right": 7152.0, "uid": "ì©ì¸_119228", "sgg_cd": "41460", "sgg_nm": "ì©ì¸ì", "lclsf_cd": "I", "lclsf_nm": "ìê°íê±´ì¡°ì§", "mclsf_cd": "ID", "mclsf_nm": "êµíµìì¤ì§", "sclsf_cd": "ID2", "sclsf_nm": "ì¼ë°ëë¡", "dclsf_cd": "ID2_1", "dclsf_nm": "ê°ë¡ì ìë ì¼ë°ëë¡", "ldc_lc_cd": "A", "ldc_lc_nm": "ìê°íê±´ì¡°ì§ì­", "ldc_mc_cd": "A5", "ldc_mc_nm": "êµíµì§ì­", "ldc_sc_cd": "A54", "ldc_sc_nm": "ëë¡", "shade": 0.2, "heat_score": 23.4 }, "geometry": { "type": "Point", "coordinates": [ 127.124218200000016, 37.3317762 ] } },
{ "type": "Feature", "properties": { "osmid": 2405708142, "y": 37.3313549, "x": 127.1242121, "junction": null, "street_count": 3, "highway": null, "ref": null, "felt_temp": 36.516361236572266, "heat_grade": 2.0, "index_right": 7348.0, "uid": "ì©ì¸_119245", "sgg_cd": "41460", "sgg_nm": "ì©ì¸ì", "lclsf_cd": "I", "lclsf_nm": "ìê°íê±´ì¡°ì§", "mclsf_cd": "ID", "mclsf_nm": "êµíµìì¤ì§", "sclsf_cd": "ID2", "sclsf_nm": "ì¼ë°ëë¡", "dclsf_cd": "ID2_2", "dclsf_nm": "ê°ë¡ì ìë ì¼ë°ëë¡", "ldc_lc_cd": "A", "ldc_lc_nm": "ìê°íê±´ì¡°ì§ì­", "ldc_mc_cd": "A5", "ldc_mc_nm": "êµíµì§ì­", "ldc_sc_cd": "A54", "ldc_sc_nm": "ëë¡", "shade": 0.2, "heat_score": 20.71 }, "geometry": { "type": "Point", "coordinates": [ 127.1242121, 37.3313549 ] } },
{ "type": "Feature", "properties": { "osmid": 11178407633, "y": 37.3311675, "x": 127.1269793, "junction": null, "street_count": 3, "highway": null, "ref": null, "felt_temp": 36.612613677978516, "heat_grade": 3.0, "index_right": 7348.0, "uid": "ì©ì¸_119245", "sgg_cd": "41460", "sgg_nm": "ì©ì¸ì", "lclsf_cd": "I", "lclsf_nm": "ìê°íê±´ì¡°ì§", "mclsf_cd": "ID", "mclsf_nm": "êµíµìì¤ì§", "sclsf_cd": "ID2", "sclsf_nm": "ì¼ë°ëë¡", "dclsf_cd": "ID2_2", "dclsf_nm": "ê°ë¡ì ìë ì¼ë°ëë¡", "ldc_lc_cd": "A", "ldc_lc_nm": "ìê°íê±´ì¡°ì§ì­", "ldc_mc_cd": "A5", "ldc_mc_nm": "êµíµì§ì­", "ldc_sc_cd": "A54", "ldc_sc_nm": "ëë¡", "shade": 0.2, "heat_score": 21.17 }, "geometry": { "type": "Point", "coordinates": [ 127.126979300000016, 37.3311675 ] } },
{ "type": "Feature", "properties": { "osmid": 2405708106, "y": 37.3309017, "x": 127.1279291, "junction": "yes", "street_count": 4, "highway": null, "ref": null, "felt_temp": 36.597759246826172, "heat_grade": 3.0, "index_right": 7348.0, "uid": "ì©ì¸_119245", "sgg_cd": "41460", "sgg_nm": "ì©ì¸ì", "lclsf_cd": "I", "lclsf_nm": "ìê°íê±´ì¡°ì§", "mclsf_cd": "ID", "mclsf_nm": "êµíµìì¤ì§", "sclsf_cd": "ID2", "sclsf_nm": "ì¼ë°ëë¡", "dclsf_cd": "ID2_2", "dclsf_nm": "ê°ë¡ì ìë ì¼ë°ëë¡", "ldc_lc_cd": "A", "ldc_lc_nm": "ìê°íê±´ì¡°ì§ì­", "ldc_mc_cd": "A5", "ldc_mc_nm": "êµíµì§ì­", "ldc_sc_cd": "A54", "ldc_sc_nm": "ëë¡", "shade": 0.2, "heat_score": 21.16 }, "geometry": { "type": "Point", "coordinates": [ 127.1279291, 37.3309017 ] } },
{ "type": "Feature", "properties": { "osmid": 2405708161, "y": 37.3315882, "x": 127.1278977, "junction": "yes", "street_count": 4, "highway": null, "ref": null, "felt_temp": 36.323749542236328, "heat_grade": 1.0, "index_right": 7587.0, "uid": "ì©ì¸_121407", "sgg_cd": "41460", "sgg_nm": "ì©ì¸ì", "lclsf_cd": "I", "lclsf_nm": "ìê°íê±´ì¡°ì§", "mclsf_cd": "ID", "mclsf_nm": "êµíµìì¤ì§", "sclsf_cd": "ID2", "sclsf_nm": "ì¼ë°ëë¡", "dclsf_cd": "ID2_1", "dclsf_nm": "ê°ë¡ì ìë ì¼ë°ëë¡", "ldc_lc_cd": "A", "ldc_lc_nm": "ìê°íê±´ì¡°ì§ì­", "ldc_mc_cd": "A5", "ldc_mc_nm": "êµíµì§ì­", "ldc_sc_cd": "A54", "ldc_sc_nm": "ëë¡", "shade": 0.2, "heat_score": 20.19 }, "geometry": { "type": "Point", "coordinates": [ 127.1278977, 37.3315882 ] } },
{ "type": "Feature", "properties": { "osmid": 4227745168, "y": 37.332356, "x": 127.1279358, "junction": null, "street_count": 3, "highway": null, "ref": null, "felt_temp": 36.455245971679688, "heat_grade": 1.0, "index_right": 7587.0, "uid": "ì©ì¸_121407", "sgg_cd": "41460", "sgg_nm": "ì©ì¸ì", "lclsf_cd": "I", "lclsf_nm": "ìê°íê±´ì¡°ì§", "mclsf_cd": "ID", "mclsf_nm": "êµíµìì¤ì§", "sclsf_cd": "ID2", "sclsf_nm": "ì¼ë°ëë¡", "dclsf_cd": "ID2_1", "dclsf_nm": "ê°ë¡ì ìë ì¼ë°ëë¡", "ldc_lc_cd": "A", "ldc_lc_nm": "ìê°íê±´ì¡°ì§ì­", "ldc_mc_cd": "A5", "ldc_mc_nm": "êµíµì§ì­", "ldc_sc_cd": "A54", "ldc_sc_nm": "ëë¡", "shade": 0.2, "heat_score": 20.27 }, "geometry": { "type": "Point", "coordinates": [ 127.127935800000017, 37.332356 ] } },
{ "type": "Feature", "properties": { "osmid": 4227745183, "y": 37.3332205, "x": 127.1279347, "junction": null, "street_count": 3, "highway": null, "ref": null, "felt_temp": 36.288341522216797, "heat_grade": 1.0, "index_right": 7587.0, "uid": "ì©ì¸_121407", "sgg_cd": "41460", "sgg_nm": "ì©ì¸ì", "lclsf_cd": "I", "lclsf_nm": "ìê°íê±´ì¡°ì§", "mclsf_cd": "ID", "mclsf_nm": "êµíµìì¤ì§", "sclsf_cd": "ID2", "sclsf_nm": "ì¼ë°ëë¡", "dclsf_cd": "ID2_1", "dclsf_nm": "ê°ë¡ì ìë ì¼ë°ëë¡", "ldc_lc_cd": "A", "ldc_lc_nm": "ìê°íê±´ì¡°ì§ì­", "ldc_mc_cd": "A5", "ldc_mc_nm": "êµíµì§ì­", "ldc_sc_cd": "A54", "ldc_sc_nm": "ëë¡", "shade": 0.2, "heat_score": 20.17 }, "geometry": { "type": "Point", "coordinates": [ 127.127934699999983, 37.3332205 ] } }
]
}
