{
"type": "FeatureCollection",
"name": "cool_cycle_5km_route2_edges",
"crs": { "type": "name", "properties": { "name": "urn:ogc:def:crs:OGC:1.3:CRS84" } },
"features": [
{ "type": "Feature", "properties": { "u": 2405708031, "v": 2405708042, "length": 50.992403167753551, "heat_score": 20.07 }, "geometry": { "type": "LineString", "coordinates": [ [ 127.114015599999988, 37.3287535 ], [ 127.113952800000021, 37.3286797 ], [ 127.11362130000002, 37.328420800000011 ] ] } },
{ "type": "Feature", "properties": { "u": 2405708042, "v": 2405708044, "length": 13.896412788302156, "heat_score": 21.755 }, "geometry": { "type": "LineString", "coordinates": [ [ 127.114103500000013, 37.3288571 ], [ 127.114015599999988, 37.3287535 ] ] } },
{ "type": "Feature", "properties": { "u": 2405708044, "v": 2405708039, "length": 62.450877426956879, "heat_score": 21.77 }, "geometry": { "type": "LineString", "coordinates": [ [ 127.114103500000013, 37.3288571 ], [ 127.1145677, 37.3287804 ], [ 127.114617100000018, 37.32873750000001 ], [ 127.1147246, 37.3286443 ] ] } },
{ "type": "Feature", "properties": { "u": 2405708039, "v": 2405708010, "length": 121.7220612906128, "heat_score": 20.195 }, "geometry": { "type": "LineString", "coordinates": [ [ 127.1147246, 37.3286443 ], [ 127.1147027, 37.32838240000001 ], [ 127.114704799999984, 37.3282536 ], [ 127.1147624, 37.32814 ], [ 127.1148817, 37.3279401 ], [ 127.114628899999985, 37.3276419 ] ] } },
{ "type": "Feature", "properties": { "u": 2405708010, "v": 2405707995, "length": 71.724054913354934, "heat_score": 20.48 }, "geometry": { "type": "LineString", "coordinates": [ [ 127.114628899999985, 37.3276419 ], [ 127.11490120000002, 37.3270343 ] ] } },
{ "type": "Feature", "properties": { "u": 2405707995, "v": 2405707963, "length": 113.2523425188292, "heat_score": 21.385 }, "geometry": { "type": "LineString", "coordinates": [ [ 127.11490120000002, 37.3270343 ], [ 127.114982200000014, 37.3268987 ], [ 127.1151697, 37.3264953 ], [ 127.115331500000011, 37.3260763 ] ] } },
{ "type": "Feature", "properties": { "u": 2405707963, "v": 2405707966, "length": 226.38978485898855, "heat_score": 22.03 }, "geometry": { "type": "LineString", "coordinates": [ [ 127.117807, 37.3262043 ], [ 127.1175527, 37.3262843 ], [ 127.1169842, 37.3263779 ], [ 127.116686, 37.32637660000001 ], [ 127.1160217, 37.32625980000001 ], [ 127.115331500000011, 37.3260763 ] ] } },
{ "type": "Feature", "properties": { "u": 2405707966, "v": 2405707993, "length": 105.50793196024628, "heat_score": 22.69 }, "geometry": { "type": "LineString", "coordinates": [ [ 127.11814080000002, 37.3269902 ], [ 127.1178109, 37.3268568 ], [ 127.1177862, 37.32674440000001 ], [ 127.1178088, 37.3262466 ], [ 127.117807, 37.3262043 ] ] } },
{ "type": "Feature", "properties": { "u": 2405707993, "v": 2405708056, "length": 297.38821523142957, "heat_score": 22.685 }, "geometry": { "type": "LineString", "coordinates": [ [ 127.116666600000016, 37.3293836 ], [ 127.1170825, 37.3285141 ], [ 127.1173894, 37.3281684 ], [ 127.11814080000002, 37.3269902 ] ] } },
{ "type": "Feature", "properties": { "u": 2405708056, "v": 2405708045, "length": 140.42382488338941, "heat_score": 21.05 }, "geometry": { "type": "LineString", "coordinates": [ [ 127.116666600000016, 37.3293836 ], [ 127.115903300000014, 37.3291754 ], [ 127.115627300000014, 37.3290977 ], [ 127.115373700000021, 37.32900020000001 ], [ 127.115188900000021, 37.3289265 ] ] } },
{ "type": "Feature", "properties": { "u": 2405708045, "v": 6541799339, "length": 254.92787913553769, "heat_score": 20.41 }, "geometry": { "type": "LineString", "coordinates": [ [ 127.1158635, 37.3310912 ], [ 127.11522, 37.3295263 ], [ 127.115056399999986, 37.3291365 ], [ 127.115135599999988, 37.3290243 ], [ 127.115188900000021, 37.3289265 ] ] } },
{ "type": "Feature", "properties": { "u": 6541799339, "v": 6541799343, "length": 37.135570807126868, "heat_score": 21.175 }, "geometry": { "type": "LineString", "coordinates": [ [ 127.1154435, 37.3310891 ], [ 127.1157808, 37.331091 ], [ 127.1158635, 37.3310912 ] ] } },
{ "type": "Feature", "properties": { "u": 6541799343, "v": 6541799340, "length": 14.25289837405229, "heat_score": 21.385 }, "geometry": { "type": "LineString", "coordinates": [ [ 127.1154435, 37.3310891 ], [ 127.1152823, 37.3310884 ] ] } },
{ "type": "Feature", "properties": { "u": 6541799340, "v": 6541799338, "length": 15.162382822638634, "heat_score": 21.38 }, "geometry": { "type": "LineString", "coordinates": [ [ 127.1152823, 37.3310884 ], [ 127.115117899999987, 37.3311272 ] ] } },
{ "type": "Feature", "properties": { "u": 6541799338, "v": 6541799349, "length": 24.855421315344653, "heat_score": 20.905 }, "geometry": { "type": "LineString", "coordinates": [ [ 127.11488030000001, 37.3310078 ], [ 127.1150328, 37.3310867 ], [ 127.115117899999987, 37.3311272 ] ] } },
{ "type": "Feature", "properties": { "u": 6541799349, "v": 6541799368, "length": 157.5053332498868, "heat_score": 20.02 }, "geometry": { "type": "LineString", "coordinates": [ [ 127.1151166, 37.3313381 ], [ 127.1143107, 37.3313345 ], [ 127.114303300000017, 37.3310178 ], [ 127.11488030000001, 37.3310078 ] ] } },
{ "type": "Feature", "properties": { "u": 6541799368, "v": 6541799337, "length": 20.496007882738983, "heat_score": 19.88 }, "geometry": { "type": "LineString", "coordinates": [ [ 127.1151166, 37.3313381 ], [ 127.1151204, 37.3315224 ] ] } },
{ "type": "Feature", "properties": { "u": 6541799337, "v": 2405708156, "length": 81.618161687753073, "heat_score": 20.56 }, "geometry": { "type": "LineString", "coordinates": [ [ 127.1151204, 37.3315224 ], [ 127.1160435, 37.33152710000001 ] ] } },
{ "type": "Feature", "properties": { "u": 2405708156, "v": 2405708158, "length": 166.16401727805038, "heat_score": 21.94 }, "geometry": { "type": "LineString", "coordinates": [ [ 127.1179227, 37.3315153 ], [ 127.117676800000012, 37.3315186 ], [ 127.1166757, 37.3315234 ], [ 127.1164424, 37.3315209 ], [ 127.1163465, 37.3315224 ], [ 127.1160435, 37.33152710000001 ] ] } },
{ "type": "Feature", "properties": { "u": 2405708158, "v": 4230119850, "length": 120.32350627094509, "heat_score": 22.69 }, "geometry": { "type": "LineString", "coordinates": [ [ 127.1192806, 37.3315248 ], [ 127.119207599999982, 37.3315085 ], [ 127.1181779, 37.3315081 ], [ 127.1179227, 37.3315153 ] ] } },
{ "type": "Feature", "properties": { "u": 4230119850, "v": 4230119849, "length": 45.964662247354504, "heat_score": 22.69 }, "geometry": { "type": "LineString", "coordinates": [ [ 127.1192806, 37.3315248 ], [ 127.1190319, 37.3318878 ] ] } },
{ "type": "Feature", "properties": { "u": 4230119849, "v": 4230119848, "length": 44.765832677424193, "heat_score": 22.69 }, "geometry": { "type": "LineString", "coordinates": [ [ 127.1190319, 37.3318878 ], [ 127.1190213, 37.3322903 ] ] } },
{ "type": "Feature", "properties": { "u": 4230119848, "v": 4230119847, "length": 57.451909507485915, "heat_score": 22.69 }, "geometry": { "type": "LineString", "coordinates": [ [ 127.1190213, 37.3322903 ], [ 127.1196711, 37.3322905 ] ] } },
{ "type": "Feature", "properties": { "u": 4230119847, "v": 11178439026, "length": 71.443933006441426, "heat_score": 22.69 }, "geometry": { "type": "LineString", "coordinates": [ [ 127.1202535, 37.3321158 ], [ 127.119676, 37.3321073 ], [ 127.1196711, 37.3322905 ] ] } },
{ "type": "Feature", "properties": { "u": 11178439026, "v": 4631099094, "length": 109.66246195395419, "heat_score": 22.69 }, "geometry": { "type": "LineString", "coordinates": [ [ 127.1202535, 37.3321158 ], [ 127.1214936, 37.3321342 ] ] } },
{ "type": "Feature", "properties": { "u": 4631099094, "v": 4631099093, "length": 43.721906920075696, "heat_score": 22.69 }, "geometry": { "type": "LineString", "coordinates": [ [ 127.1214936, 37.3321342 ], [ 127.1214936, 37.331741 ] ] } },
{ "type": "Feature", "properties": { "u": 4631099093, "v": 4269462806, "length": 157.05668154185003, "heat_score": 22.15 }, "geometry": { "type": "LineString", "coordinates": [ [ 127.1214936, 37.331741 ], [ 127.123269500000021, 37.3317728 ] ] } },
{ "type": "Feature", "properties": { "u": 4269462806, "v": 4169632612, "length": 60.869376159629773, "heat_score": 22.71 }, "geometry": { "type": "LineString", "coordinates": [ [ 127.123269500000021, 37.3317728 ], [ 127.1232652, 37.3312254 ] ] } },
{ "type": "Feature", "properties": { "u": 4169632612, "v": 2405708085, "length": 96.397785040379958, "heat_score": 22.71 }, "geometry": { "type": "LineString", "coordinates": [ [ 127.1232652, 37.3312254 ], [ 127.1232704, 37.3310731 ], [ 127.1232682, 37.3306025 ], [ 127.1231793, 37.330369 ] ] } },
{ "type": "Feature", "properties": { "u": 2405708085, "v": 2405708072, "length": 49.826212813718193, "heat_score": 22.725 }, "geometry": { "type": "LineString", "coordinates": [ [ 127.1231793, 37.330369 ], [ 127.1230801, 37.3299279 ] ] } },
{ "type": "Feature", "properties": { "u": 2405708072, "v": 3453581595, "length": 194.73314516895712, "heat_score": 21.925 }, "geometry": { "type": "LineString", "coordinates": [ [ 127.1231704, 37.328253 ], [ 127.12281560000001, 37.3291482 ], [ 127.1228359, 37.3293615 ], [ 127.1230801, 37.3299279 ] ] } },
{ "type": "Feature", "properties": { "u": 3453581595, "v": 2405707976, "length": 462.21261007021968, "heat_score": 20.595 }, "geometry": { "type": "LineString", "coordinates": [ [ 127.1231704, 37.328253 ], [ 127.1216504, 37.3276935 ], [ 127.1201578, 37.3270698 ], [ 127.119096200000016, 37.3266692 ], [ 127.1184717, 37.3264335 ] ] } },
{ "type": "Feature", "properties": { "u": 2405707976, "v": 2405707971, "length": 45.72249080286565, "heat_score": 21.395 }, "geometry": { "type": "LineString", "coordinates": [ [ 127.1184717, 37.3264335 ], [ 127.1180087, 37.3262504 ] ] } },
{ "type": "Feature", "properties": { "u": 2405707971, "v": 2405707955, "length": 81.005683478955888, "heat_score": 21.155 }, "geometry": { "type": "LineString", "coordinates": [ [ 127.1180087, 37.3262504 ], [ 127.118353900000017, 37.3257489 ], [ 127.118509300000014, 37.3256524 ] ] } },
{ "type": "Feature", "properties": { "u": 2405707955, "v": 12453022171, "length": 142.27267643117676, "heat_score": 22.025 }, "geometry": { "type": "LineString", "coordinates": [ [ 127.117419, 37.3248574 ], [ 127.1175639, 37.3248514 ], [ 127.1178207, 37.3248826 ], [ 127.117912600000011, 37.3249134 ], [ 127.118152600000016, 37.3252107 ], [ 127.118509300000014, 37.3256524 ] ] } },
{ "type": "Feature", "properties": { "u": 12453022171, "v": 2405707949, "length": 124.85916112533722, "heat_score": 21.77 }, "geometry": { "type": "LineString", "coordinates": [ [ 127.117419, 37.3248574 ], [ 127.1166365, 37.3249179 ], [ 127.116408, 37.324982799999987 ], [ 127.116030899999984, 37.3250371 ] ] } },
{ "type": "Feature", "properties": { "u": 2405707949, "v": 11621785394, "length": 54.764018667221087, "heat_score": 20.9 }, "geometry": { "type": "LineString", "coordinates": [ [ 127.1155591, 37.3247337 ], [ 127.1156298, 37.3248244 ], [ 127.1157807, 37.32492520000001 ], [ 127.115956400000016, 37.3249935 ], [ 127.116030899999984, 37.3250371 ] ] } },
{ "type": "Feature", "properties": { "u": 11621785394, "v": 2405707950, "length": 24.432800200149988, "heat_score": 20.915 }, "geometry": { "type": "LineString", "coordinates": [ [ 127.1155591, 37.3247337 ], [ 127.1155636, 37.3249534 ] ] } },
{ "type": "Feature", "properties": { "u": 2405707950, "v": 2405707952, "length": 25.884538082447207, "heat_score": 20.91 }, "geometry": { "type": "LineString", "coordinates": [ [ 127.1156014, 37.325134 ], [ 127.1155616, 37.3251208 ], [ 127.1155248, 37.325092 ], [ 127.1155059, 37.3250538 ], [ 127.115506300000021, 37.3250195 ], [ 127.1155261, 37.3249816 ], [ 127.1155636, 37.3249534 ] ] } },
{ "type": "Feature", "properties": { "u": 2405707952, "v": 2405707961, "length": 133.6292396113239, "heat_score": 22.025 }, "geometry": { "type": "LineString", "coordinates": [ [ 127.1145303, 37.3258345 ], [ 127.1149443, 37.3256475 ], [ 127.1151839, 37.3253237 ], [ 127.1155777, 37.3252606 ], [ 127.1156014, 37.325134 ] ] } },
{ "type": "Feature", "properties": { "u": 2405707961, "v": 2405707964, "length": 148.55844944072103, "heat_score": 22.915 }, "geometry": { "type": "LineString", "coordinates": [ [ 127.1129092, 37.32609260000001 ], [ 127.113781500000016, 37.325856 ], [ 127.1140154, 37.3258096 ], [ 127.114045500000017, 37.325803600000015 ], [ 127.1145303, 37.3258345 ] ] } },
{ "type": "Feature", "properties": { "u": 2405707964, "v": 10870091119, "length": 45.493474333684468, "heat_score": 22.28 }, "geometry": { "type": "LineString", "coordinates": [ [ 127.1130635, 37.3264829 ], [ 127.1129092, 37.32609260000001 ] ] } },
{ "type": "Feature", "properties": { "u": 10870091119, "v": 2405707974, "length": 49.824951027134411, "heat_score": 22.275 }, "geometry": { "type": "LineString", "coordinates": [ [ 127.1130635, 37.3264829 ], [ 127.113591600000021, 37.3263266 ] ] } },
{ "type": "Feature", "properties": { "u": 2405707974, "v": 2405707994, "length": 101.77720569339932, "heat_score": 23.125 }, "geometry": { "type": "LineString", "coordinates": [ [ 127.1142021, 37.3269924 ], [ 127.1141147, 37.3268342 ], [ 127.113756, 37.3267312 ], [ 127.113575199999985, 37.3264435 ], [ 127.113591600000021, 37.3263266 ] ] } },
{ "type": "Feature", "properties": { "u": 2405707994, "v": 2405708001, "length": 41.627140322514322, "heat_score": 21.49 }, "geometry": { "type": "LineString", "coordinates": [ [ 127.1142721, 37.3273626 ], [ 127.1142021, 37.3269924 ] ] } },
{ "type": "Feature", "properties": { "u": 2405708001, "v": 2405707998, "length": 79.712229005006662, "heat_score": 20.125 }, "geometry": { "type": "LineString", "coordinates": [ [ 127.1142721, 37.3273626 ], [ 127.114103400000019, 37.3273112 ], [ 127.113383, 37.3272909 ] ] } },
{ "type": "Feature", "properties": { "u": 2405707998, "v": 2405708005, "length": 61.605548574661952, "heat_score": 21.745 }, "geometry": { "type": "LineString", "coordinates": [ [ 127.1127745, 37.3275184 ], [ 127.112836500000014, 37.3274482 ], [ 127.112903, 37.3274007 ], [ 127.113383, 37.3272909 ] ] } },
{ "type": "Feature", "properties": { "u": 2405708005, "v": 2405708015, "length": 106.12251224440242, "heat_score": 21.725 }, "geometry": { "type": "LineString", "coordinates": [ [ 127.1137346, 37.3280911 ], [ 127.1128338, 37.3275538 ], [ 127.1127745, 37.3275184 ] ] } },
{ "type": "Feature", "properties": { "u": 2405708015, "v": 2405708031, "length": 39.30952060602938, "heat_score": 20.055 }, "geometry": { "type": "LineString", "coordinates": [ [ 127.11362130000002, 37.328420800000011 ], [ 127.1136514, 37.3281764 ], [ 127.1137346, 37.3280911 ] ] } }
]
}
