{
"type": "FeatureCollection",
"name": "cool_cycle_7km_route3_edges",
"crs": { "type": "name", "properties": { "name": "urn:ogc:def:crs:OGC:1.3:CRS84" } },
"features": [
{ "type": "Feature", "properties": { "u": 2405708161, "v": 2405708171, "length": 327.60990111701977, "heat_score": 21.795 }, "geometry": { "type": "LineString", "coordinates": [ [ 127.124218200000016, 37.3317762 ], [ 127.1253659, 37.3317979 ], [ 127.126585, 37.3317437 ], [ 127.1274631, 37.331581 ], [ 127.1278977, 37.3315882 ] ] } },
{ "type": "Feature", "properties": { "u": 2405708171, "v": 4269462806, "length": 83.880502302054055, "heat_score": 22.505 }, "geometry": { "type": "LineString", "coordinates": [ [ 127.123269500000021, 37.3317728 ], [ 127.124218200000016, 37.3317762 ] ] } },
{ "type": "Feature", "properties": { "u": 4269462806, "v": 4169632612, "length": 60.869376159629773, "heat_score": 22.71 }, "geometry": { "type": "LineString", "coordinates": [ [ 127.123269500000021, 37.3317728 ], [ 127.1232652, 37.3312254 ] ] } },
{ "type": "Feature", "properties": { "u": 4169632612, "v": 2405708085, "length": 96.397785040379958, "heat_score": 22.71 }, "geometry": { "type": "LineString", "coordinates": [ [ 127.1232652, 37.3312254 ], [ 127.1232704, 37.3310731 ], [ 127.1232682, 37.3306025 ], [ 127.1231793, 37.330369 ] ] } },
{ "type": "Feature", "properties": { "u": 2405708085, "v": 2405708072, "length": 49.826212813718193, "heat_score": 22.725 }, "geometry": { "type": "LineString", "coordinates": [ [ 127.1231793, 37.330369 ], [ 127.1230801, 37.3299279 ] ] } },
{ "type": "Feature", "properties": { "u": 2405708072, "v": 3453581595, "length": 194.73314516895712, "heat_score": 21.925 }, "geometry": { "type": "LineString", "coordinates": [ [ 127.1231704, 37.328253 ], [ 127.12281560000001, 37.3291482 ], [ 127.1228359, 37.3293615 ], [ 127.1230801, 37.3299279 ] ] } },
{ "type": "Feature", "properties": { "u": 3453581595, "v": 2405707976, "length": 462.21261007021968, "heat_score": 20.595 }, "geometry": { "type": "LineString", "coordinates": [ [ 127.1231704, 37.328253 ], [ 127.1216504, 37.3276935 ], [ 127.1201578, 37.3270698 ], [ 127.119096200000016, 37.3266692 ], [ 127.1184717, 37.3264335 ] ] } },
{ "type": "Feature", "properties": { "u": 2405707976, "v": 2405707993, "length": 68.468690612241843, "heat_score": 22.265 }, "geometry": { "type": "LineString", "coordinates": [ [ 127.11814080000002, 37.3269902 ], [ 127.1184717, 37.3264335 ] ] } },
{ "type": "Feature", "properties": { "u": 2405707993, "v": 2405707966, "length": 105.50793196024628, "heat_score": 22.69 }, "geometry": { "type": "LineString", "coordinates": [ [ 127.11814080000002, 37.3269902 ], [ 127.1178109, 37.3268568 ], [ 127.1177862, 37.32674440000001 ], [ 127.1178088, 37.3262466 ], [ 127.117807, 37.3262043 ] ] } },
{ "type": "Feature", "properties": { "u": 2405707966, "v": 2405707963, "length": 226.38978485898855, "heat_score": 22.03 }, "geometry": { "type": "LineString", "coordinates": [ [ 127.117807, 37.3262043 ], [ 127.1175527, 37.3262843 ], [ 127.1169842, 37.3263779 ], [ 127.116686, 37.32637660000001 ], [ 127.1160217, 37.32625980000001 ], [ 127.115331500000011, 37.3260763 ] ] } },
{ "type": "Feature", "properties": { "u": 2405707963, "v": 10870091118, "length": 67.762974065055246, "heat_score": 21.815 }, "geometry": { "type": "LineString", "coordinates": [ [ 127.114617, 37.3258569 ], [ 127.1148205, 37.3259095 ], [ 127.115331500000011, 37.3260763 ] ] } },
{ "type": "Feature", "properties": { "u": 10870091118, "v": 2405707961, "length": 8.0606953562963053, "heat_score": 22.025 }, "geometry": { "type": "LineString", "coordinates": [ [ 127.114617, 37.3258569 ], [ 127.1145303, 37.3258345 ] ] } },
{ "type": "Feature", "properties": { "u": 2405707961, "v": 2405707964, "length": 148.55844944072103, "heat_score": 22.915 }, "geometry": { "type": "LineString", "coordinates": [ [ 127.1129092, 37.32609260000001 ], [ 127.113781500000016, 37.325856 ], [ 127.1140154, 37.3258096 ], [ 127.114045500000017, 37.325803600000015 ], [ 127.1145303, 37.3258345 ] ] } },
{ "type": "Feature", "properties": { "u": 2405707964, "v": 10870091119, "length": 45.493474333684468, "heat_score": 22.28 }, "geometry": { "type": "LineString", "coordinates": [ [ 127.1130635, 37.3264829 ], [ 127.1129092, 37.32609260000001 ] ] } },
{ "type": "Feature", "properties": { "u": 10870091119, "v": 2405707974, "length": 49.824951027134411, "heat_score": 22.275 }, "geometry": { "type": "LineString", "coordinates": [ [ 127.1130635, 37.3264829 ], [ 127.113591600000021, 37.3263266 ] ] } },
{ "type": "Feature", "properties": { "u": 2405707974, "v": 2405707994, "length": 101.77720569339932, "heat_score": 23.125 }, "geometry": { "type": "LineString", "coordinates": [ [ 127.1142021, 37.3269924 ], [ 127.1141147, 37.3268342 ], [ 127.113756, 37.3267312 ], [ 127.113575199999985, 37.3264435 ], [ 127.113591600000021, 37.3263266 ] ] } },
{ "type": "Feature", "properties": { "u": 2405707994, "v": 2405708001, "length": 41.627140322514322, "heat_score": 21.49 }, "geometry": { "type": "LineString", "coordinates": [ [ 127.1142721, 37.3273626 ], [ 127.1142021, 37.3269924 ] ] } },
{ "type": "Feature", "properties": { "u": 2405708001, "v": 2405708002, "length": 8.249879945207752, "heat_score": 20.145 }, "geometry": { "type": "LineString", "coordinates": [ [ 127.114359199999981, 37.3273892 ], [ 127.1142721, 37.3273626 ] ] } },
{ "type": "Feature", "properties": { "u": 2405708002, "v": 2405707995, "length": 66.057308682123207, "heat_score": 20.465 }, "geometry": { "type": "LineString", "coordinates": [ [ 127.114359199999981, 37.3273892 ], [ 127.1146934, 37.3273016 ], [ 127.11490120000002, 37.3270343 ] ] } },
{ "type": "Feature", "properties": { "u": 2405707995, "v": 2405708010, "length": 71.724054913354934, "heat_score": 20.48 }, "geometry": { "type": "LineString", "coordinates": [ [ 127.114628899999985, 37.3276419 ], [ 127.11490120000002, 37.3270343 ] ] } },
{ "type": "Feature", "properties": { "u": 2405708010, "v": 2405708039, "length": 121.7220612906128, "heat_score": 20.195 }, "geometry": { "type": "LineString", "coordinates": [ [ 127.1147246, 37.3286443 ], [ 127.1147027, 37.32838240000001 ], [ 127.114704799999984, 37.3282536 ], [ 127.1147624, 37.32814 ], [ 127.1148817, 37.3279401 ], [ 127.114628899999985, 37.3276419 ] ] } },
{ "type": "Feature", "properties": { "u": 2405708039, "v": 2405708044, "length": 62.450877426956879, "heat_score": 21.77 }, "geometry": { "type": "LineString", "coordinates": [ [ 127.114103500000013, 37.3288571 ], [ 127.1145677, 37.3287804 ], [ 127.114617100000018, 37.32873750000001 ], [ 127.1147246, 37.3286443 ] ] } },
{ "type": "Feature", "properties": { "u": 2405708044, "v": 2405708042, "length": 13.896412788302156, "heat_score": 21.755 }, "geometry": { "type": "LineString", "coordinates": [ [ 127.114103500000013, 37.3288571 ], [ 127.114015599999988, 37.3287535 ] ] } },
{ "type": "Feature", "properties": { "u": 2405708042, "v": 2405708029, "length": 52.14104111801629, "heat_score": 20.155 }, "geometry": { "type": "LineString", "coordinates": [ [ 127.114015599999988, 37.3287535 ], [ 127.113995, 37.3285742 ], [ 127.114205200000015, 37.3283386 ] ] } },
{ "type": "Feature", "properties": { "u": 2405708029, "v": 2405708039, "length": 57.136498390452402, "heat_score": 20.17 }, "geometry": { "type": "LineString", "coordinates": [ [ 127.1147246, 37.3286443 ], [ 127.114205200000015, 37.3283386 ] ] } },
{ "type": "Feature", "properties": { "u": 2405708039, "v": 2381060686, "length": 34.147714328568945, "heat_score": 20.165 }, "geometry": { "type": "LineString", "coordinates": [ [ 127.1147246, 37.3286443 ], [ 127.114838800000015, 37.3287115 ], [ 127.1150287, 37.3288335 ] ] } },
{ "type": "Feature", "properties": { "u": 2381060686, "v": 2405708045, "length": 17.537889448690049, "heat_score": 20.12 }, "geometry": { "type": "LineString", "coordinates": [ [ 127.115188900000021, 37.3289265 ], [ 127.1150287, 37.3288335 ] ] } },
{ "type": "Feature", "properties": { "u": 2405708045, "v": 6541799339, "length": 254.92787913553769, "heat_score": 20.41 }, "geometry": { "type": "LineString", "coordinates": [ [ 127.1158635, 37.3310912 ], [ 127.11522, 37.3295263 ], [ 127.115056399999986, 37.3291365 ], [ 127.115135599999988, 37.3290243 ], [ 127.115188900000021, 37.3289265 ] ] } },
{ "type": "Feature", "properties": { "u": 6541799339, "v": 6541799343, "length": 37.135570807126868, "heat_score": 21.175 }, "geometry": { "type": "LineString", "coordinates": [ [ 127.1154435, 37.3310891 ], [ 127.1157808, 37.331091 ], [ 127.1158635, 37.3310912 ] ] } },
{ "type": "Feature", "properties": { "u": 6541799343, "v": 6541799340, "length": 14.25289837405229, "heat_score": 21.385 }, "geometry": { "type": "LineString", "coordinates": [ [ 127.1154435, 37.3310891 ], [ 127.1152823, 37.3310884 ] ] } },
{ "type": "Feature", "properties": { "u": 6541799340, "v": 6541799338, "length": 15.162382822638634, "heat_score": 21.38 }, "geometry": { "type": "LineString", "coordinates": [ [ 127.1152823, 37.3310884 ], [ 127.115117899999987, 37.3311272 ] ] } },
{ "type": "Feature", "properties": { "u": 6541799338, "v": 6541799349, "length": 24.855421315344653, "heat_score": 20.905 }, "geometry": { "type": "LineString", "coordinates": [ [ 127.11488030000001, 37.3310078 ], [ 127.1150328, 37.3310867 ], [ 127.115117899999987, 37.3311272 ] ] } },
{ "type": "Feature", "properties": { "u": 6541799349, "v": 6541799368, "length": 157.5053332498868, "heat_score": 20.02 }, "geometry": { "type": "LineString", "coordinates": [ [ 127.1151166, 37.3313381 ], [ 127.1143107, 37.3313345 ], [ 127.114303300000017, 37.3310178 ], [ 127.11488030000001, 37.3310078 ] ] } },
{ "type": "Feature", "properties": { "u": 6541799368, "v": 6541799337, "length": 20.496007882738983, "heat_score": 19.88 }, "geometry": { "type": "LineString", "coordinates": [ [ 127.1151166, 37.3313381 ], [ 127.1151204, 37.3315224 ] ] } },
{ "type": "Feature", "properties": { "u": 6541799337, "v": 2405708156, "length": 81.618161687753073, "heat_score": 20.56 }, "geometry": { "type": "LineString", "coordinates": [ [ 127.1151204, 37.3315224 ], [ 127.1160435, 37.33152710000001 ] ] } },
{ "type": "Feature", "properties": { "u": 2405708156, "v": 2405708158, "length": 166.16401727805038, "heat_score": 21.94 }, "geometry": { "type": "LineString", "coordinates": [ [ 127.1179227, 37.3315153 ], [ 127.117676800000012, 37.3315186 ], [ 127.1166757, 37.3315234 ], [ 127.1164424, 37.3315209 ], [ 127.1163465, 37.3315224 ], [ 127.1160435, 37.33152710000001 ] ] } },
{ "type": "Feature", "properties": { "u": 2405708158, "v": 4230119850, "length": 120.32350627094509, "heat_score": 22.69 }, "geometry": { "type": "LineString", "coordinates": [ [ 127.1192806, 37.3315248 ], [ 127.119207599999982, 37.3315085 ], [ 127.1181779, 37.3315081 ], [ 127.1179227, 37.3315153 ] ] } },
{ "type": "Feature", "properties": { "u": 4230119850, "v": 4230119849, "length": 45.964662247354504, "heat_score": 22.69 }, "geometry": { "type": "LineString", "coordinates": [ [ 127.1192806, 37.3315248 ], [ 127.1190319, 37.3318878 ] ] } },
{ "type": "Feature", "properties": { "u": 4230119849, "v": 4230119848, "length": 44.765832677424193, "heat_score": 22.69 }, "geometry": { "type": "LineString", "coordinates": [ [ 127.1190319, 37.3318878 ], [ 127.1190213, 37.3322903 ] ] } },
{ "type": "Feature", "properties": { "u": 4230119848, "v": 4230119847, "length": 57.451909507485915, "heat_score": 22.69 }, "geometry": { "type": "LineString", "coordinates": [ [ 127.1190213, 37.3322903 ], [ 127.1196711, 37.3322905 ] ] } },
{ "type": "Feature", "properties": { "u": 4230119847, "v": 11178439026, "length": 71.443933006441426, "heat_score": 22.69 }, "geometry": { "type": "LineString", "coordinates": [ [ 127.1202535, 37.3321158 ], [ 127.119676, 37.3321073 ], [ 127.1196711, 37.3322905 ] ] } },
{ "type": "Feature", "properties": { "u": 11178439026, "v": 4631099094, "length": 109.66246195395419, "heat_score": 22.69 }, "geometry": { "type": "LineString", "coordinates": [ [ 127.1202535, 37.3321158 ], [ 127.1214936, 37.3321342 ] ] } },
{ "type": "Feature", "properties": { "u": 4631099094, "v": 4631099093, "length": 43.721906920075696, "heat_score": 22.69 }, "geometry": { "type": "LineString", "coordinates": [ [ 127.1214936, 37.3321342 ], [ 127.1214936, 37.331741 ] ] } },
{ "type": "Feature", "properties": { "u": 4631099093, "v": 4269462806, "length": 157.05668154185003, "heat_score": 22.15 }, "geometry": { "type": "LineString", "coordinates": [ [ 127.1214936, 37.331741 ], [ 127.123269500000021, 37.3317728 ] ] } },
{ "type": "Feature", "properties": { "u": 4269462806, "v": 4230119838, "length": 36.439246782464522, "heat_score": 22.15 }, "geometry": { "type": "LineString", "coordinates": [ [ 127.123269500000021, 37.3317728 ], [ 127.123267100000021, 37.3321005 ] ] } },
{ "type": "Feature", "properties": { "u": 4230119838, "v": 2405708190, "length": 87.790869909424245, "heat_score": 22.69 }, "geometry": { "type": "LineString", "coordinates": [ [ 127.123267100000021, 37.3321005 ], [ 127.1232906, 37.3328898 ] ] } },
{ "type": "Feature", "properties": { "u": 2405708190, "v": 2405708212, "length": 156.98669410131237, "heat_score": 22.69 }, "geometry": { "type": "LineString", "coordinates": [ [ 127.123433, 37.3342643 ], [ 127.1233162, 37.3341668 ], [ 127.1232906, 37.3328898 ] ] } },
{ "type": "Feature", "properties": { "u": 2405708212, "v": 4269462811, "length": 192.00109791507126, "heat_score": 22.69 }, "geometry": { "type": "LineString", "coordinates": [ [ 127.125055399999979, 37.335311 ], [ 127.1247359, 37.335311 ], [ 127.123433, 37.3342643 ] ] } },
{ "type": "Feature", "properties": { "u": 4269462811, "v": 4269462812, "length": 28.823883677532475, "heat_score": 22.69 }, "geometry": { "type": "LineString", "coordinates": [ [ 127.125042, 37.33557 ], [ 127.125055399999979, 37.335311 ] ] } },
{ "type": "Feature", "properties": { "u": 4269462812, "v": 4269462813, "length": 357.42956747193887, "heat_score": 22.69 }, "geometry": { "type": "LineString", "coordinates": [ [ 127.1279695, 37.3355548 ], [ 127.1279729, 37.3359735 ], [ 127.125020799999987, 37.3360178 ], [ 127.125042, 37.33557 ] ] } },
{ "type": "Feature", "properties": { "u": 4269462813, "v": 4169632610, "length": 72.181582596524933, "heat_score": 22.69 }, "geometry": { "type": "LineString", "coordinates": [ [ 127.1279695, 37.3355548 ], [ 127.127909700000018, 37.3349074 ] ] } },
{ "type": "Feature", "properties": { "u": 4169632610, "v": 4227745183, "length": 187.82040793877459, "heat_score": 21.43 }, "geometry": { "type": "LineString", "coordinates": [ [ 127.127934699999983, 37.3332205 ], [ 127.127933400000018, 37.3332672 ], [ 127.1279415, 37.3335908 ], [ 127.127961, 37.3344921 ], [ 127.127909700000018, 37.3349074 ] ] } },
{ "type": "Feature", "properties": { "u": 4227745183, "v": 4227745168, "length": 96.128199078636769, "heat_score": 20.22 }, "geometry": { "type": "LineString", "coordinates": [ [ 127.127934699999983, 37.3332205 ], [ 127.127935800000017, 37.332356 ] ] } },
{ "type": "Feature", "properties": { "u": 4227745168, "v": 2405708161, "length": 85.442016233640715, "heat_score": 20.23 }, "geometry": { "type": "LineString", "coordinates": [ [ 127.127935800000017, 37.332356 ], [ 127.1278977, 37.3315882 ] ] } }
]
}
