{
"type": "FeatureCollection",
"name": "cool_cycle_shelter2_route1_edges",
"crs": { "type": "name", "properties": { "name": "urn:ogc:def:crs:OGC:1.3:CRS84" } },
"features": [
{ "type": "Feature", "properties": { "u": 2405708194, "v": 2405708211, "length": 159.21424395893951, "heat_score": 20.7 }, "geometry": { "type": "LineString", "coordinates": [ [ 127.110521899999981, 37.3342413 ], [ 127.11066270000002, 37.3340837 ], [ 127.1109332, 37.3339212 ], [ 127.1112589, 37.3335226 ], [ 127.111367300000012, 37.3332885 ], [ 127.111425100000019, 37.3330487 ] ] } },
{ "type": "Feature", "properties": { "u": 2405708211, "v": 4638029520, "length": 199.40423465439574, "heat_score": 22.245 }, "geometry": { "type": "LineString", "coordinates": [ [ 127.1094686, 37.3330526 ], [ 127.109438499999982, 37.3336353 ], [ 127.1094405, 37.3336942 ], [ 127.1094712, 37.33374460000001 ], [ 127.1095303, 37.3338093 ], [ 127.1095611, 37.3338553 ], [ 127.109606, 37.333911 ], [ 127.1096453, 37.3340053 ], [ 127.1102076, 37.3340528 ], [ 127.1102832, 37.3341924 ], [ 127.110521899999981, 37.3342413 ] ] } },
{ "type": "Feature", "properties": { "u": 4638029520, "v": 11092677117, "length": 41.510842588789281, "heat_score": 23.325 }, "geometry": { "type": "LineString", "coordinates": [ [ 127.10899910000002, 37.3330507 ], [ 127.1094686, 37.3330526 ] ] } },
{ "type": "Feature", "properties": { "u": 11092677117, "v": 11092677125, "length": 171.19065119390493, "heat_score": 23.33 }, "geometry": { "type": "LineString", "coordinates": [ [ 127.1090352, 37.3315115 ], [ 127.1090268, 37.3316346 ], [ 127.10899910000002, 37.3330507 ] ] } },
{ "type": "Feature", "properties": { "u": 11092677125, "v": 2405708157, "length": 15.850733057546584, "heat_score": 23.305 }, "geometry": { "type": "LineString", "coordinates": [ [ 127.1090352, 37.3315115 ], [ 127.108856100000011, 37.3315178 ] ] } },
{ "type": "Feature", "properties": { "u": 2405708157, "v": 6222933977, "length": 161.25189942558507, "heat_score": 22.88 }, "geometry": { "type": "LineString", "coordinates": [ [ 127.108856100000011, 37.3315178 ], [ 127.108858199999986, 37.3305124 ], [ 127.108854900000011, 37.3303706 ], [ 127.108861499999989, 37.3300677 ] ] } },
{ "type": "Feature", "properties": { "u": 6222933977, "v": 11092677096, "length": 17.379940119155574, "heat_score": 22.455 }, "geometry": { "type": "LineString", "coordinates": [ [ 127.108861499999989, 37.3300677 ], [ 127.108873700000018, 37.3299117 ] ] } },
{ "type": "Feature", "properties": { "u": 11092677096, "v": 11092677112, "length": 727.02807349260956, "heat_score": 21.35 }, "geometry": { "type": "LineString", "coordinates": [ [ 127.108873700000018, 37.3299117 ], [ 127.1088935, 37.32934 ], [ 127.108896200000018, 37.3290665 ], [ 127.108894, 37.328837600000014 ], [ 127.1088992, 37.3282855 ], [ 127.1089, 37.3267944 ], [ 127.1088908, 37.3257676 ], [ 127.108892600000019, 37.3250209 ], [ 127.108884299999986, 37.3245155 ], [ 127.108712600000018, 37.3233819 ] ] } },
{ "type": "Feature", "properties": { "u": 11092677112, "v": 4081276092, "length": 231.35790851451003, "heat_score": 20.705 }, "geometry": { "type": "LineString", "coordinates": [ [ 127.1088092, 37.3254605 ], [ 127.1088078, 37.3248732 ], [ 127.1087997, 37.3246781 ], [ 127.1087917, 37.3244573 ], [ 127.108764800000017, 37.3240499 ], [ 127.108712600000018, 37.3233819 ] ] } },
{ "type": "Feature", "properties": { "u": 4081276092, "v": 8312646686, "length": 272.30365423210486, "heat_score": 20.94 }, "geometry": { "type": "LineString", "coordinates": [ [ 127.1088092, 37.3254605 ], [ 127.1086874, 37.3252564 ], [ 127.108657, 37.3250708 ], [ 127.108642799999984, 37.3249262 ], [ 127.1086267, 37.3247816 ], [ 127.108618, 37.3246788 ], [ 127.10861460000001, 37.3245882 ], [ 127.1085972, 37.3245186 ], [ 127.1085167, 37.3244376 ], [ 127.10845070000002, 37.32439930000001 ], [ 127.1082784, 37.3243274 ], [ 127.10778670000002, 37.32418710000001 ], [ 127.1075067, 37.3241237 ], [ 127.1073292, 37.3241147 ], [ 127.1070218, 37.3241092 ], [ 127.106894, 37.3240362 ] ] } },
{ "type": "Feature", "properties": { "u": 8312646686, "v": 4081273966, "length": 253.25398569673348, "heat_score": 22.295 }, "geometry": { "type": "LineString", "coordinates": [ [ 127.106894, 37.3240362 ], [ 127.107051, 37.3240111 ], [ 127.1071695, 37.3240034 ], [ 127.1072856, 37.323989 ], [ 127.1073929, 37.3239813 ], [ 127.1076075, 37.323993 ], [ 127.10766940000002, 37.3240073 ], [ 127.1077684, 37.3240303 ], [ 127.1087003, 37.3243219 ], [ 127.1089206, 37.3243628 ], [ 127.10913650000002, 37.3244029 ], [ 127.109373300000016, 37.3244355 ], [ 127.109656500000014, 37.3244744 ] ] } },
{ "type": "Feature", "properties": { "u": 4081273966, "v": 4081273924, "length": 131.41821433130261, "heat_score": 22.31 }, "geometry": { "type": "LineString", "coordinates": [ [ 127.109656500000014, 37.3244744 ], [ 127.10945550000001, 37.3245378 ], [ 127.1093777, 37.324572 ], [ 127.109313300000011, 37.3246231 ], [ 127.109259699999981, 37.3246935 ], [ 127.1092356, 37.3247554 ], [ 127.1092141, 37.324813 ], [ 127.1092114, 37.324877 ], [ 127.1092168, 37.3249665 ], [ 127.10921949999998, 37.3250604 ], [ 127.1092222, 37.3251521 ], [ 127.10921949999998, 37.3252438 ], [ 127.1092141, 37.3253206 ], [ 127.109126900000021, 37.3254556 ] ] } },
{ "type": "Feature", "properties": { "u": 4081273924, "v": 4081273921, "length": 228.46228723050774, "heat_score": 20.495 }, "geometry": { "type": "LineString", "coordinates": [ [ 127.1088602, 37.3234178 ], [ 127.109084, 37.3244552 ], [ 127.1091135, 37.3246983 ], [ 127.1091323, 37.3249585 ], [ 127.109135, 37.3252124 ], [ 127.109126900000021, 37.3254556 ] ] } },
{ "type": "Feature", "properties": { "u": 4081273921, "v": 11092677047, "length": 721.27273584792044, "heat_score": 21.765 }, "geometry": { "type": "LineString", "coordinates": [ [ 127.1088602, 37.3234178 ], [ 127.1089547, 37.3242358 ], [ 127.1089777, 37.3245068 ], [ 127.1089861, 37.3288353 ], [ 127.1090011, 37.3293422 ], [ 127.1090258, 37.3298998 ] ] } },
{ "type": "Feature", "properties": { "u": 11092677047, "v": 6222359704, "length": 171.97773340389193, "heat_score": 23.34 }, "geometry": { "type": "LineString", "coordinates": [ [ 127.109060600000021, 37.328354 ], [ 127.109068100000016, 37.3288332 ], [ 127.10906319999998, 37.3293321 ], [ 127.1090258, 37.3298998 ] ] } },
{ "type": "Feature", "properties": { "u": 6222359704, "v": 6222359703, "length": 161.40008582218266, "heat_score": 21.825 }, "geometry": { "type": "LineString", "coordinates": [ [ 127.109060600000021, 37.328354 ], [ 127.109482, 37.3283354 ], [ 127.110011700000015, 37.328336299999989 ], [ 127.1106045, 37.3283374 ], [ 127.1108853, 37.3283336 ] ] } },
{ "type": "Feature", "properties": { "u": 6222359703, "v": 9699300638, "length": 245.67532764006529, "heat_score": 21.79 }, "geometry": { "type": "LineString", "coordinates": [ [ 127.112008, 37.3303528 ], [ 127.1119859, 37.330321 ], [ 127.1116333, 37.3297709 ], [ 127.1113683, 37.3292876 ], [ 127.1108853, 37.3283336 ] ] } },
{ "type": "Feature", "properties": { "u": 9699300638, "v": 9699300635, "length": 146.53850663030474, "heat_score": 22.03 }, "geometry": { "type": "LineString", "coordinates": [ [ 127.112008, 37.3303528 ], [ 127.1118075, 37.3305491 ], [ 127.111656200000013, 37.330578 ], [ 127.111489, 37.3315098 ] ] } },
{ "type": "Feature", "properties": { "u": 9699300635, "v": 2933795642, "length": 28.646937898824369, "heat_score": 22.035 }, "geometry": { "type": "LineString", "coordinates": [ [ 127.111489, 37.3315098 ], [ 127.111813, 37.3315109 ] ] } },
{ "type": "Feature", "properties": { "u": 2933795642, "v": 2405708154, "length": 83.711198560269537, "heat_score": 23.335 }, "geometry": { "type": "LineString", "coordinates": [ [ 127.111813, 37.3315109 ], [ 127.1120547, 37.3315131 ], [ 127.112759399999987, 37.3315314 ] ] } },
{ "type": "Feature", "properties": { "u": 2405708154, "v": 6218931588, "length": 166.76374709261594, "heat_score": 23.105 }, "geometry": { "type": "LineString", "coordinates": [ [ 127.112766900000011, 37.3330262 ], [ 127.1127977, 37.3327138 ], [ 127.11281510000002, 37.3324642 ], [ 127.1128232, 37.3323096 ], [ 127.112827200000012, 37.3321539 ], [ 127.1128218, 37.3319545 ], [ 127.112803, 37.3317396 ], [ 127.112759399999987, 37.3315314 ] ] } },
{ "type": "Feature", "properties": { "u": 6218931588, "v": 4730531215, "length": 85.981887992371767, "heat_score": 21.52 }, "geometry": { "type": "LineString", "coordinates": [ [ 127.112766900000011, 37.3330262 ], [ 127.111794500000016, 37.33303690000001 ] ] } },
{ "type": "Feature", "properties": { "u": 4730531215, "v": 2405708194, "length": 32.686427793128381, "heat_score": 20.19 }, "geometry": { "type": "LineString", "coordinates": [ [ 127.111794500000016, 37.33303690000001 ], [ 127.111425100000019, 37.3330487 ] ] } }
]
}
