{
"type": "FeatureCollection",
"name": "cool_cycle_shelter1_route1_edges",
"crs": { "type": "name", "properties": { "name": "urn:ogc:def:crs:OGC:1.3:CRS84" } },
"features": [
{ "type": "Feature", "properties": { "u": 4638029511, "v": 4638029501, "length": 59.214713545903749, "heat_score": 20.235 }, "geometry": { "type": "LineString", "coordinates": [ [ 127.1099187, 37.3346266 ], [ 127.109249199999979, 37.3346118 ] ] } },
{ "type": "Feature", "properties": { "u": 4638029501, "v": 4747818867, "length": 102.4706659047057, "heat_score": 21.355 }, "geometry": { "type": "LineString", "coordinates": [ [ 127.109156700000014, 37.3355304 ], [ 127.109249199999979, 37.3346118 ] ] } },
{ "type": "Feature", "properties": { "u": 4747818867, "v": 11092677046, "length": 17.166778079765312, "heat_score": 22.23 }, "geometry": { "type": "LineString", "coordinates": [ [ 127.109021, 37.3356287 ], [ 127.1091299, 37.3355824 ], [ 127.109156700000014, 37.3355304 ] ] } },
{ "type": "Feature", "properties": { "u": 11092677046, "v": 11092677117, "length": 286.66898552380525, "heat_score": 22.685 }, "geometry": { "type": "LineString", "coordinates": [ [ 127.10899910000002, 37.3330507 ], [ 127.10900070000001, 37.3331565 ], [ 127.10901, 37.3338879 ], [ 127.109012099999987, 37.33465180000001 ], [ 127.109021, 37.3356287 ] ] } },
{ "type": "Feature", "properties": { "u": 11092677117, "v": 2405708192, "length": 13.722114874944035, "heat_score": 23.32 }, "geometry": { "type": "LineString", "coordinates": [ [ 127.10899910000002, 37.3330507 ], [ 127.108844, 37.3330552 ] ] } },
{ "type": "Feature", "properties": { "u": 2405708192, "v": 2405708157, "length": 170.98150923746215, "heat_score": 23.295 }, "geometry": { "type": "LineString", "coordinates": [ [ 127.108844, 37.3330552 ], [ 127.1088643, 37.331636 ], [ 127.108856100000011, 37.3315178 ] ] } },
{ "type": "Feature", "properties": { "u": 2405708157, "v": 6222933977, "length": 161.25189942558507, "heat_score": 22.88 }, "geometry": { "type": "LineString", "coordinates": [ [ 127.108856100000011, 37.3315178 ], [ 127.108858199999986, 37.3305124 ], [ 127.108854900000011, 37.3303706 ], [ 127.108861499999989, 37.3300677 ] ] } },
{ "type": "Feature", "properties": { "u": 6222933977, "v": 11092677096, "length": 17.379940119155574, "heat_score": 22.455 }, "geometry": { "type": "LineString", "coordinates": [ [ 127.108861499999989, 37.3300677 ], [ 127.108873700000018, 37.3299117 ] ] } },
{ "type": "Feature", "properties": { "u": 11092677096, "v": 11092677112, "length": 727.02807349260956, "heat_score": 21.35 }, "geometry": { "type": "LineString", "coordinates": [ [ 127.108873700000018, 37.3299117 ], [ 127.1088935, 37.32934 ], [ 127.108896200000018, 37.3290665 ], [ 127.108894, 37.328837600000014 ], [ 127.1088992, 37.3282855 ], [ 127.1089, 37.3267944 ], [ 127.1088908, 37.3257676 ], [ 127.108892600000019, 37.3250209 ], [ 127.108884299999986, 37.3245155 ], [ 127.108712600000018, 37.3233819 ] ] } },
{ "type": "Feature", "properties": { "u": 11092677112, "v": 4081276092, "length": 231.35790851451003, "heat_score": 20.705 }, "geometry": { "type": "LineString", "coordinates": [ [ 127.1088092, 37.3254605 ], [ 127.1088078, 37.3248732 ], [ 127.1087997, 37.3246781 ], [ 127.1087917, 37.3244573 ], [ 127.108764800000017, 37.3240499 ], [ 127.108712600000018, 37.3233819 ] ] } },
{ "type": "Feature", "properties": { "u": 4081276092, "v": 4081273963, "length": 13.146696815537048, "heat_score": 21.16 }, "geometry": { "type": "LineString", "coordinates": [ [ 127.1088126, 37.3255787 ], [ 127.1088092, 37.3254605 ] ] } },
{ "type": "Feature", "properties": { "u": 4081273963, "v": 11178814584, "length": 10.619752754682569, "heat_score": 20.935 }, "geometry": { "type": "LineString", "coordinates": [ [ 127.1088113, 37.3256742 ], [ 127.1088118, 37.3256368 ], [ 127.1088126, 37.3255787 ] ] } },
{ "type": "Feature", "properties": { "u": 11178814584, "v": 11178814577, "length": 31.301967761921567, "heat_score": 20.94 }, "geometry": { "type": "LineString", "coordinates": [ [ 127.1091054, 37.325715 ], [ 127.109070200000019, 37.3257412 ], [ 127.1090153, 37.3257584 ], [ 127.1089468, 37.3257584 ], [ 127.1088898, 37.3257433 ], [ 127.108848800000018, 37.3257167 ], [ 127.1088113, 37.3256742 ] ] } },
{ "type": "Feature", "properties": { "u": 11178814577, "v": 4081273947, "length": 21.698191437619531, "heat_score": 20.96 }, "geometry": { "type": "LineString", "coordinates": [ [ 127.1091252, 37.32552050000001 ], [ 127.1091054, 37.325715 ] ] } },
{ "type": "Feature", "properties": { "u": 4081273947, "v": 4081273924, "length": 7.2181263098529591, "heat_score": 20.75 }, "geometry": { "type": "LineString", "coordinates": [ [ 127.109126900000021, 37.3254556 ], [ 127.1091252, 37.32552050000001 ] ] } },
{ "type": "Feature", "properties": { "u": 4081273924, "v": 4081273921, "length": 228.46228723050774, "heat_score": 20.495 }, "geometry": { "type": "LineString", "coordinates": [ [ 127.1088602, 37.3234178 ], [ 127.109084, 37.3244552 ], [ 127.1091135, 37.3246983 ], [ 127.1091323, 37.3249585 ], [ 127.109135, 37.3252124 ], [ 127.109126900000021, 37.3254556 ] ] } },
{ "type": "Feature", "properties": { "u": 4081273921, "v": 11092677047, "length": 721.27273584792044, "heat_score": 21.765 }, "geometry": { "type": "LineString", "coordinates": [ [ 127.1088602, 37.3234178 ], [ 127.1089547, 37.3242358 ], [ 127.1089777, 37.3245068 ], [ 127.1089861, 37.3288353 ], [ 127.1090011, 37.3293422 ], [ 127.1090258, 37.3298998 ] ] } },
{ "type": "Feature", "properties": { "u": 11092677047, "v": 6222359704, "length": 171.97773340389193, "heat_score": 23.34 }, "geometry": { "type": "LineString", "coordinates": [ [ 127.109060600000021, 37.328354 ], [ 127.109068100000016, 37.3288332 ], [ 127.10906319999998, 37.3293321 ], [ 127.1090258, 37.3298998 ] ] } },
{ "type": "Feature", "properties": { "u": 6222359704, "v": 6222359703, "length": 161.40008582218266, "heat_score": 21.825 }, "geometry": { "type": "LineString", "coordinates": [ [ 127.109060600000021, 37.328354 ], [ 127.109482, 37.3283354 ], [ 127.110011700000015, 37.328336299999989 ], [ 127.1106045, 37.3283374 ], [ 127.1108853, 37.3283336 ] ] } },
{ "type": "Feature", "properties": { "u": 6222359703, "v": 9699300638, "length": 245.67532764006529, "heat_score": 21.79 }, "geometry": { "type": "LineString", "coordinates": [ [ 127.112008, 37.3303528 ], [ 127.1119859, 37.330321 ], [ 127.1116333, 37.3297709 ], [ 127.1113683, 37.3292876 ], [ 127.1108853, 37.3283336 ] ] } },
{ "type": "Feature", "properties": { "u": 9699300638, "v": 9699300635, "length": 146.53850663030474, "heat_score": 22.03 }, "geometry": { "type": "LineString", "coordinates": [ [ 127.112008, 37.3303528 ], [ 127.1118075, 37.3305491 ], [ 127.111656200000013, 37.330578 ], [ 127.111489, 37.3315098 ] ] } },
{ "type": "Feature", "properties": { "u": 9699300635, "v": 2933795642, "length": 28.646937898824369, "heat_score": 22.035 }, "geometry": { "type": "LineString", "coordinates": [ [ 127.111489, 37.3315098 ], [ 127.111813, 37.3315109 ] ] } },
{ "type": "Feature", "properties": { "u": 2933795642, "v": 4730531215, "length": 169.69289711310805, "heat_score": 21.75 }, "geometry": { "type": "LineString", "coordinates": [ [ 127.111794500000016, 37.33303690000001 ], [ 127.11180779999998, 37.332215 ], [ 127.1118115, 37.331811 ], [ 127.111811300000014, 37.3317533 ], [ 127.111813, 37.3315109 ] ] } },
{ "type": "Feature", "properties": { "u": 4730531215, "v": 2405708194, "length": 32.686427793128381, "heat_score": 20.19 }, "geometry": { "type": "LineString", "coordinates": [ [ 127.111794500000016, 37.33303690000001 ], [ 127.111425100000019, 37.3330487 ] ] } },
{ "type": "Feature", "properties": { "u": 2405708194, "v": 4638029520, "length": 172.98225332064635, "heat_score": 21.755 }, "geometry": { "type": "LineString", "coordinates": [ [ 127.1094686, 37.3330526 ], [ 127.111425100000019, 37.3330487 ] ] } },
{ "type": "Feature", "properties": { "u": 4638029520, "v": 2405708211, "length": 199.40423465439574, "heat_score": 22.245 }, "geometry": { "type": "LineString", "coordinates": [ [ 127.1094686, 37.3330526 ], [ 127.109438499999982, 37.3336353 ], [ 127.1094405, 37.3336942 ], [ 127.1094712, 37.33374460000001 ], [ 127.1095303, 37.3338093 ], [ 127.1095611, 37.3338553 ], [ 127.109606, 37.333911 ], [ 127.1096453, 37.3340053 ], [ 127.1102076, 37.3340528 ], [ 127.1102832, 37.3341924 ], [ 127.110521899999981, 37.3342413 ] ] } },
{ "type": "Feature", "properties": { "u": 2405708211, "v": 2405708217, "length": 17.704819815195624, "heat_score": 20.715 }, "geometry": { "type": "LineString", "coordinates": [ [ 127.1104806, 37.3343971 ], [ 127.110521899999981, 37.3342413 ] ] } },
{ "type": "Feature", "properties": { "u": 2405708217, "v": 4638029522, "length": 35.237835800448458, "heat_score": 20.16 }, "geometry": { "type": "LineString", "coordinates": [ [ 127.1102039, 37.3346224 ], [ 127.1103066, 37.3345136 ], [ 127.1104806, 37.3343971 ] ] } },
{ "type": "Feature", "properties": { "u": 4638029522, "v": 4638029511, "length": 25.21942806333794, "heat_score": 20.14 }, "geometry": { "type": "LineString", "coordinates": [ [ 127.1102039, 37.3346224 ], [ 127.1099187, 37.3346266 ] ] } }
]
}
