{
"type": "FeatureCollection",
"name": "cool_cycle_shelter1_route2_edges",
"crs": { "type": "name", "properties": { "name": "urn:ogc:def:crs:OGC:1.3:CRS84" } },
"features": [
{ "type": "Feature", "properties": { "u": 4556829562, "v": 4556829551, "length": 418.91487096426835, "heat_score": 20.055 }, "geometry": { "type": "LineString", "coordinates": [ [ 127.0828868, 37.308404 ], [ 127.082851, 37.3083769 ], [ 127.08267530000002, 37.3082442 ], [ 127.0824017, 37.308047900000012 ], [ 127.0821978, 37.3079071 ], [ 127.0820154, 37.3077663 ], [ 127.0818492, 37.3076198 ], [ 127.081817, 37.3075914 ], [ 127.0816185, 37.3074079 ], [ 127.0814736, 37.3072927 ], [ 127.0813288, 37.307186 ], [ 127.0811679, 37.3070708 ], [ 127.080840600000016, 37.306840400000013 ], [ 127.079392199999987, 37.3058675 ] ] } },
{ "type": "Feature", "properties": { "u": 4556829551, "v": 3660798017, "length": 511.8373704664516, "heat_score": 21.12 }, "geometry": { "type": "LineString", "coordinates": [ [ 127.079392199999987, 37.3058675 ], [ 127.077212800000012, 37.3045309 ], [ 127.0766617, 37.3041949 ], [ 127.0766081, 37.3041522 ], [ 127.0765706, 37.30410950000001 ], [ 127.0765276, 37.3040583 ], [ 127.076506200000011, 37.3040157 ], [ 127.0764901, 37.3039517 ], [ 127.076463300000015, 37.30387060000001 ], [ 127.0764472, 37.3038194 ], [ 127.076415, 37.3037639 ], [ 127.076361300000016, 37.3037127 ], [ 127.076270100000016, 37.3036487 ], [ 127.0761038, 37.3035506 ], [ 127.0758195, 37.3033714 ], [ 127.0756801, 37.3032732 ], [ 127.075621100000021, 37.3032177 ], [ 127.0755674, 37.3031367 ], [ 127.0755352, 37.3030428 ], [ 127.07551380000001, 37.3029702 ], [ 127.075503, 37.3028764 ], [ 127.07549370000001, 37.3026928 ] ] } },
{ "type": "Feature", "properties": { "u": 3660798017, "v": 4708513142, "length": 78.607492483856589, "heat_score": 21.13 }, "geometry": { "type": "LineString", "coordinates": [ [ 127.0746297, 37.3028345 ], [ 127.0747135, 37.3027953 ], [ 127.0749946, 37.3027716 ], [ 127.07549370000001, 37.3026928 ] ] } },
{ "type": "Feature", "properties": { "u": 4708513142, "v": 4569903226, "length": 45.831104399956985, "heat_score": 20.25 }, "geometry": { "type": "LineString", "coordinates": [ [ 127.0746297, 37.3028345 ], [ 127.074616300000017, 37.3029465 ], [ 127.074631, 37.3030597 ], [ 127.0747104, 37.3032345 ] ] } },
{ "type": "Feature", "properties": { "u": 4569903226, "v": 7179444058, "length": 35.381265085056462, "heat_score": 21.83 }, "geometry": { "type": "LineString", "coordinates": [ [ 127.0743944, 37.3030394 ], [ 127.0744211, 37.3030559 ], [ 127.0745257, 37.3031204 ], [ 127.0745517, 37.3031365 ], [ 127.0747104, 37.3032345 ] ] } },
{ "type": "Feature", "properties": { "u": 7179444058, "v": 4708513142, "length": 30.980307906186432, "heat_score": 21.82 }, "geometry": { "type": "LineString", "coordinates": [ [ 127.0743944, 37.3030394 ], [ 127.074483700000016, 37.3029489 ], [ 127.0745208, 37.3029113 ], [ 127.0746297, 37.3028345 ] ] } },
{ "type": "Feature", "properties": { "u": 4708513142, "v": 7179444076, "length": 45.056049549349225, "heat_score": 21.795 }, "geometry": { "type": "LineString", "coordinates": [ [ 127.074137, 37.3028768 ], [ 127.074332, 37.302906 ], [ 127.0746297, 37.3028345 ] ] } },
{ "type": "Feature", "properties": { "u": 7179444076, "v": 6820615302, "length": 197.10807189886197, "heat_score": 22.26 }, "geometry": { "type": "LineString", "coordinates": [ [ 127.0723612, 37.301806400000011 ], [ 127.0729545, 37.3021458 ], [ 127.0737984, 37.302674 ], [ 127.074137, 37.3028768 ] ] } },
{ "type": "Feature", "properties": { "u": 6820615302, "v": 6820615290, "length": 31.796712210196659, "heat_score": 22.235 }, "geometry": { "type": "LineString", "coordinates": [ [ 127.0723612, 37.301806400000011 ], [ 127.07215, 37.3020378 ] ] } },
{ "type": "Feature", "properties": { "u": 6820615290, "v": 6820615301, "length": 276.46944008198705, "heat_score": 21.785 }, "geometry": { "type": "LineString", "coordinates": [ [ 127.070317, 37.3010524 ], [ 127.07022520000001, 37.3011338 ], [ 127.070163, 37.301189 ], [ 127.0700643, 37.30137890000001 ], [ 127.0700772, 37.3014451 ], [ 127.07015770000001, 37.30148350000001 ], [ 127.070334700000018, 37.3015603 ], [ 127.0706834, 37.3017224 ], [ 127.0709784, 37.3018633 ], [ 127.071246599999981, 37.3019529 ], [ 127.0716865, 37.302179 ], [ 127.0719494, 37.3023028 ], [ 127.07215, 37.3020378 ] ] } },
{ "type": "Feature", "properties": { "u": 6820615301, "v": 3790582564, "length": 39.990671471360933, "heat_score": 22.075 }, "geometry": { "type": "LineString", "coordinates": [ [ 127.070317, 37.3010524 ], [ 127.070085400000011, 37.3009262 ], [ 127.069938100000016, 37.3008565 ] ] } },
{ "type": "Feature", "properties": { "u": 3790582564, "v": 3790816771, "length": 32.193273890800143, "heat_score": 22.95 }, "geometry": { "type": "LineString", "coordinates": [ [ 127.070134600000017, 37.30061280000001 ], [ 127.070036400000021, 37.3007347 ], [ 127.069938100000016, 37.3008565 ] ] } },
{ "type": "Feature", "properties": { "u": 3790816771, "v": 3790816770, "length": 59.670073202983254, "heat_score": 22.455 }, "geometry": { "type": "LineString", "coordinates": [ [ 127.070134600000017, 37.30061280000001 ], [ 127.07010750000002, 37.3005148 ], [ 127.0699897, 37.3000887 ] ] } },
{ "type": "Feature", "properties": { "u": 3790816770, "v": 3187954871, "length": 156.65483559065359, "heat_score": 22.88 }, "geometry": { "type": "LineString", "coordinates": [ [ 127.0699897, 37.3000887 ], [ 127.069836, 37.2995196 ], [ 127.0697422, 37.29917240000001 ], [ 127.06968280000001, 37.2989524 ], [ 127.0696687, 37.2989 ], [ 127.0696177, 37.2987113 ] ] } },
{ "type": "Feature", "properties": { "u": 3187954871, "v": 3790849638, "length": 184.60535625059862, "heat_score": 22.03 }, "geometry": { "type": "LineString", "coordinates": [ [ 127.071643100000017, 37.2983176 ], [ 127.071367400000014, 37.2983966 ], [ 127.0710495, 37.2984532 ], [ 127.0703224, 37.2985772 ], [ 127.0696177, 37.2987113 ] ] } },
{ "type": "Feature", "properties": { "u": 3790849638, "v": 3187964067, "length": 179.76890652229235, "heat_score": 21.195 }, "geometry": { "type": "LineString", "coordinates": [ [ 127.071643100000017, 37.2983176 ], [ 127.0720546, 37.2981318 ], [ 127.0723303, 37.2979923 ], [ 127.072501800000012, 37.2979202 ], [ 127.07267090000002, 37.2978653 ], [ 127.0728502, 37.2978236 ], [ 127.0735029, 37.2977069 ] ] } },
{ "type": "Feature", "properties": { "u": 3187964067, "v": 3660798017, "length": 602.22791044255769, "heat_score": 21.61 }, "geometry": { "type": "LineString", "coordinates": [ [ 127.07549370000001, 37.3026928 ], [ 127.075429499999984, 37.30236750000001 ], [ 127.0753759, 37.3022053 ], [ 127.0752588, 37.3019619 ], [ 127.0752217, 37.3018848 ], [ 127.0752096, 37.3018597 ], [ 127.075185800000014, 37.3017849 ], [ 127.07509690000002, 37.3015055 ], [ 127.0750796, 37.3014675 ], [ 127.075005800000014, 37.3013049 ], [ 127.0749199, 37.301147 ], [ 127.0747719, 37.3009774 ], [ 127.074630500000012, 37.300851 ], [ 127.0745916, 37.3008163 ], [ 127.0744908, 37.3007203 ], [ 127.074225499999983, 37.3004862 ], [ 127.073949, 37.300242400000016 ], [ 127.0739222, 37.3002093 ], [ 127.0738685, 37.3001421 ], [ 127.073832300000021, 37.3000898 ], [ 127.073793400000014, 37.300029 ], [ 127.073762599999981, 37.2999746 ], [ 127.0737371, 37.29992020000001 ], [ 127.073713, 37.2998584 ], [ 127.0736942, 37.2997965 ], [ 127.0736754, 37.2997261 ], [ 127.073659299999989, 37.299662 ], [ 127.0736486, 37.2995959 ], [ 127.0736459, 37.2995212 ], [ 127.07365129999998, 37.2994572 ], [ 127.073659299999989, 37.2993932 ], [ 127.073685, 37.2992257 ], [ 127.073734300000012, 37.2987563 ], [ 127.073729500000013, 37.2986825 ], [ 127.0737193, 37.298588400000014 ], [ 127.0737029, 37.2984579 ], [ 127.0736518, 37.2982239 ], [ 127.0735781, 37.2979504 ], [ 127.0735529, 37.2978679 ], [ 127.0735029, 37.2977069 ] ] } },
{ "type": "Feature", "properties": { "u": 3660798017, "v": 842899448, "length": 293.21895369983247, "heat_score": 21.61 }, "geometry": { "type": "LineString", "coordinates": [ [ 127.07549370000001, 37.3026928 ], [ 127.075796, 37.3026122 ], [ 127.075951800000013, 37.3025657 ], [ 127.076252400000016, 37.3024657 ], [ 127.0770599, 37.302212 ], [ 127.0771643, 37.3021936 ], [ 127.0772588, 37.3021858 ], [ 127.077358600000011, 37.3021822 ], [ 127.0774242, 37.3021858 ], [ 127.077500400000019, 37.3022004 ], [ 127.0775766, 37.3022193 ], [ 127.077678100000014, 37.3022464 ], [ 127.0777742, 37.3022777 ], [ 127.0778748, 37.3023115 ], [ 127.078008199999985, 37.3023796 ], [ 127.0781631, 37.3024647 ], [ 127.0784727, 37.3026413 ], [ 127.0785225, 37.3026709 ] ] } },
{ "type": "Feature", "properties": { "u": 842899448, "v": 1824007722, "length": 261.27167925636337, "heat_score": 22.04 }, "geometry": { "type": "LineString", "coordinates": [ [ 127.0806231, 37.3024198 ], [ 127.079557799999989, 37.3017535 ], [ 127.079525100000012, 37.3017474 ], [ 127.0794828, 37.3017493 ], [ 127.079438, 37.3017592 ], [ 127.0793976, 37.301771 ], [ 127.0793513, 37.3017961 ], [ 127.078904, 37.3022586 ], [ 127.0788514, 37.3023129 ], [ 127.0785225, 37.3026709 ] ] } },
{ "type": "Feature", "properties": { "u": 1824007722, "v": 1824007718, "length": 253.53078467618872, "heat_score": 21.795 }, "geometry": { "type": "LineString", "coordinates": [ [ 127.0806231, 37.3024198 ], [ 127.081416100000013, 37.3029078 ], [ 127.0814751, 37.3029611 ], [ 127.0814992, 37.3030177 ], [ 127.081546900000021, 37.3032665 ], [ 127.0816038, 37.3035607 ], [ 127.0813415, 37.3038292 ], [ 127.0809848, 37.3041943 ] ] } },
{ "type": "Feature", "properties": { "u": 1824007718, "v": 842899450, "length": 200.58106745106704, "heat_score": 22.005 }, "geometry": { "type": "LineString", "coordinates": [ [ 127.0809848, 37.3041943 ], [ 127.082752400000018, 37.3053244 ] ] } },
{ "type": "Feature", "properties": { "u": 842899450, "v": 3692805734, "length": 184.91169404037097, "heat_score": 23.335 }, "geometry": { "type": "LineString", "coordinates": [ [ 127.084044099999986, 37.3065922 ], [ 127.0839502, 37.306351 ], [ 127.0838034, 37.3061325 ], [ 127.0827979, 37.3053594 ], [ 127.082752400000018, 37.3053244 ] ] } },
{ "type": "Feature", "properties": { "u": 3692805734, "v": 3691554532, "length": 200.8205320207494, "heat_score": 22.06 }, "geometry": { "type": "LineString", "coordinates": [ [ 127.084044099999986, 37.3065922 ], [ 127.0845517, 37.3053921 ], [ 127.0845919, 37.3053623 ], [ 127.08465630000002, 37.3053303 ], [ 127.084736800000016, 37.30530250000001 ], [ 127.084836, 37.3052833 ], [ 127.08492990000002, 37.3052663 ], [ 127.0850264, 37.3052513 ], [ 127.0851897, 37.305250900000011 ] ] } },
{ "type": "Feature", "properties": { "u": 3691554532, "v": 4558451097, "length": 263.04740863849952, "heat_score": 20.955 }, "geometry": { "type": "LineString", "coordinates": [ [ 127.0850703, 37.3076137 ], [ 127.085128, 37.30710770000001 ], [ 127.085136, 37.3069918 ], [ 127.0851621, 37.306237 ], [ 127.0851897, 37.30543870000001 ], [ 127.0851897, 37.305250900000011 ] ] } },
{ "type": "Feature", "properties": { "u": 4558451097, "v": 3692802266, "length": 85.250475158806722, "heat_score": 22.275 }, "geometry": { "type": "LineString", "coordinates": [ [ 127.0850703, 37.3076137 ], [ 127.0849136, 37.3075634 ], [ 127.084746, 37.3075096 ], [ 127.0846631, 37.3074993 ], [ 127.084585200000021, 37.3075141 ], [ 127.084496800000011, 37.3075415 ], [ 127.084189599999988, 37.3076835 ] ] } },
{ "type": "Feature", "properties": { "u": 3692802266, "v": 4556829562, "length": 141.36642154446307, "heat_score": 21.64 }, "geometry": { "type": "LineString", "coordinates": [ [ 127.0828868, 37.308404 ], [ 127.0830199, 37.3083416 ], [ 127.083464100000015, 37.3081269 ], [ 127.083717300000018, 37.3080045 ], [ 127.084039200000021, 37.3078317 ], [ 127.084189599999988, 37.3076835 ] ] } }
]
}
