{
"type": "FeatureCollection",
"name": "cool_cycle_shelter2_route1_nodes",
"crs": { "type": "name", "properties": { "name": "urn:ogc:def:crs:OGC:1.3:CRS84" } },
"features": [
{ "type": "Feature", "properties": { "osmid": 2405708194, "y": 37.3330487, "x": 127.1114251, "junction": null, "street_count": 3, "highway": null, "ref": null, "felt_temp": 36.345329284667969, "heat_grade": 1.0, "index_right": 8934.0, "uid": "ì©ì¸_119236", "sgg_cd": "41460", "sgg_nm": "ì©ì¸ì", "lclsf_cd": "I", "lclsf_nm": "ìê°íê±´ì¡°ì§", "mclsf_cd": "ID", "mclsf_nm": "êµíµìì¤ì§", "sclsf_cd": "ID2", "sclsf_nm": "ì¼ë°ëë¡", "dclsf_cd": "ID2_2", "dclsf_nm": "ê°ë¡ì ìë ì¼ë°ëë¡", "ldc_lc_cd": "A", "ldc_lc_nm": "ìê°íê±´ì¡°ì§ì­", "ldc_mc_cd": "A5", "ldc_mc_nm": "êµíµì§ì­", "ldc_sc_cd": "A54", "ldc_sc_nm": "ëë¡", "shade": 0.2, "heat_score": 20.21 }, "geometry": { "type": "Point", "coordinates": [ 127.111425100000019, 37.3330487 ] } },
{ "type": "Feature", "properties": { "osmid": 2405708211, "y": 37.3342413, "x": 127.1105219, "junction": null, "street_count": 3, "highway": null, "ref": null, "felt_temp": 36.652633666992188, "heat_grade": 3.0, "index_right": 9283.0, "uid": "ì©ì¸_121417", "sgg_cd": "41460", "sgg_nm": "ì©ì¸ì", "lclsf_cd": "I", "lclsf_nm": "ìê°íê±´ì¡°ì§", "mclsf_cd": "ID", "mclsf_nm": "êµíµìì¤ì§", "sclsf_cd": "ID3", "sclsf_nm": "ìëë¡", "dclsf_cd": null, "dclsf_nm": null, "ldc_lc_cd": "A", "ldc_lc_nm": "ìê°íê±´ì¡°ì§ì­", "ldc_mc_cd": "A5", "ldc_mc_nm": "êµíµì§ì­", "ldc_sc_cd": "A54", "ldc_sc_nm": "ëë¡", "shade": 0.2, "heat_score": 21.19 }, "geometry": { "type": "Point", "coordinates": [ 127.110521899999981, 37.3342413 ] } },
{ "type": "Feature", "properties": { "osmid": 4638029520, "y": 37.3330526, "x": 127.1094686, "junction": null, "street_count": 3, "highway": null, "ref": null, "felt_temp": 36.830459594726562, "heat_grade": 8.0, "index_right": 8934.0, "uid": "ì©ì¸_119236", "sgg_cd": "41460", "sgg_nm": "ì©ì¸ì", "lclsf_cd": "I", "lclsf_nm": "ìê°íê±´ì¡°ì§", "mclsf_cd": "ID", "mclsf_nm": "êµíµìì¤ì§", "sclsf_cd": "ID2", "sclsf_nm": "ì¼ë°ëë¡", "dclsf_cd": "ID2_2", "dclsf_nm": "ê°ë¡ì ìë ì¼ë°ëë¡", "ldc_lc_cd": "A", "ldc_lc_nm": "ìê°íê±´ì¡°ì§ì­", "ldc_mc_cd": "A5", "ldc_mc_nm": "êµíµì§ì­", "ldc_sc_cd": "A54", "ldc_sc_nm": "ëë¡", "shade": 0.2, "heat_score": 23.3 }, "geometry": { "type": "Point", "coordinates": [ 127.1094686, 37.3330526 ] } },
{ "type": "Feature", "properties": { "osmid": 11092677117, "y": 37.3330507, "x": 127.1089991, "junction": "yes", "street_count": 4, "highway": "traffic_signals", "ref": null, "felt_temp": 36.921966552734375, "heat_grade": 8.0, "index_right": 8881.0, "uid": "ì©ì¸_121408", "sgg_cd": "41460", "sgg_nm": "ì©ì¸ì", "lclsf_cd": "I", "lclsf_nm": "ìê°íê±´ì¡°ì§", "mclsf_cd": "ID", "mclsf_nm": "êµíµìì¤ì§", "sclsf_cd": "ID2", "sclsf_nm": "ì¼ë°ëë¡", "dclsf_cd": "ID2_1", "dclsf_nm": "ê°ë¡ì ìë ì¼ë°ëë¡", "ldc_lc_cd": "A", "ldc_lc_nm": "ìê°íê±´ì¡°ì§ì­", "ldc_mc_cd": "A5", "ldc_mc_nm": "êµíµì§ì­", "ldc_sc_cd": "A54", "ldc_sc_nm": "ëë¡", "shade": 0.2, "heat_score": 23.35 }, "geometry": { "type": "Point", "coordinates": [ 127.10899910000002, 37.3330507 ] } },
{ "type": "Feature", "properties": { "osmid": 11092677125, "y": 37.3315115, "x": 127.1090352, "junction": "yes", "street_count": 4, "highway": "traffic_signals", "ref": null, "felt_temp": 36.844966888427734, "heat_grade": 8.0, "index_right": 8881.0, "uid": "ì©ì¸_121408", "sgg_cd": "41460", "sgg_nm": "ì©ì¸ì", "lclsf_cd": "I", "lclsf_nm": "ìê°íê±´ì¡°ì§", "mclsf_cd": "ID", "mclsf_nm": "êµíµìì¤ì§", "sclsf_cd": "ID2", "sclsf_nm": "ì¼ë°ëë¡", "dclsf_cd": "ID2_1", "dclsf_nm": "ê°ë¡ì ìë ì¼ë°ëë¡", "ldc_lc_cd": "A", "ldc_lc_nm": "ìê°íê±´ì¡°ì§ì­", "ldc_mc_cd": "A5", "ldc_mc_nm": "êµíµì§ì­", "ldc_sc_cd": "A54", "ldc_sc_nm": "ëë¡", "shade": 0.2, "heat_score": 23.31 }, "geometry": { "type": "Point", "coordinates": [ 127.1090352, 37.3315115 ] } },
{ "type": "Feature", "properties": { "osmid": 2405708157, "y": 37.3315178, "x": 127.1088561, "junction": "yes", "street_count": 4, "highway": "traffic_signals", "ref": null, "felt_temp": 36.829742431640625, "heat_grade": 8.0, "index_right": 8881.0, "uid": "ì©ì¸_121408", "sgg_cd": "41460", "sgg_nm": "ì©ì¸ì", "lclsf_cd": "I", "lclsf_nm": "ìê°íê±´ì¡°ì§", "mclsf_cd": "ID", "mclsf_nm": "êµíµìì¤ì§", "sclsf_cd": "ID2", "sclsf_nm": "ì¼ë°ëë¡", "dclsf_cd": "ID2_1", "dclsf_nm": "ê°ë¡ì ìë ì¼ë°ëë¡", "ldc_lc_cd": "A", "ldc_lc_nm": "ìê°íê±´ì¡°ì§ì­", "ldc_mc_cd": "A5", "ldc_mc_nm": "êµíµì§ì­", "ldc_sc_cd": "A54", "ldc_sc_nm": "ëë¡", "shade": 0.2, "heat_score": 23.3 }, "geometry": { "type": "Point", "coordinates": [ 127.108856100000011, 37.3315178 ] } },
{ "type": "Feature", "properties": { "osmid": 6222933977, "y": 37.3300677, "x": 127.1088615, "junction": null, "street_count": 3, "highway": null, "ref": null, "felt_temp": 36.765575408935547, "heat_grade": 6.0, "index_right": 8881.0, "uid": "ì©ì¸_121408", "sgg_cd": "41460", "sgg_nm": "ì©ì¸ì", "lclsf_cd": "I", "lclsf_nm": "ìê°íê±´ì¡°ì§", "mclsf_cd": "ID", "mclsf_nm": "êµíµìì¤ì§", "sclsf_cd": "ID2", "sclsf_nm": "ì¼ë°ëë¡", "dclsf_cd": "ID2_1", "dclsf_nm": "ê°ë¡ì ìë ì¼ë°ëë¡", "ldc_lc_cd": "A", "ldc_lc_nm": "ìê°íê±´ì¡°ì§ì­", "ldc_mc_cd": "A5", "ldc_mc_nm": "êµíµì§ì­", "ldc_sc_cd": "A54", "ldc_sc_nm": "ëë¡", "shade": 0.2, "heat_score": 22.46 }, "geometry": { "type": "Point", "coordinates": [ 127.108861499999989, 37.3300677 ] } },
{ "type": "Feature", "properties": { "osmid": 11092677096, "y": 37.3299117, "x": 127.1088737, "junction": null, "street_count": 3, "highway": null, "ref": null, "felt_temp": 36.753559112548828, "heat_grade": 6.0, "index_right": 8881.0, "uid": "ì©ì¸_121408", "sgg_cd": "41460", "sgg_nm": "ì©ì¸ì", "lclsf_cd": "I", "lclsf_nm": "ìê°íê±´ì¡°ì§", "mclsf_cd": "ID", "mclsf_nm": "êµíµìì¤ì§", "sclsf_cd": "ID2", "sclsf_nm": "ì¼ë°ëë¡", "dclsf_cd": "ID2_1", "dclsf_nm": "ê°ë¡ì ìë ì¼ë°ëë¡", "ldc_lc_cd": "A", "ldc_lc_nm": "ìê°íê±´ì¡°ì§ì­", "ldc_mc_cd": "A5", "ldc_mc_nm": "êµíµì§ì­", "ldc_sc_cd": "A54", "ldc_sc_nm": "ëë¡", "shade": 0.2, "heat_score": 22.45 }, "geometry": { "type": "Point", "coordinates": [ 127.108873700000018, 37.3299117 ] } },
{ "type": "Feature", "properties": { "osmid": 11092677112, "y": 37.3233819, "x": 127.1087126, "junction": null, "street_count": 3, "highway": null, "ref": null, "felt_temp": 36.423789978027344, "heat_grade": 1.0, "index_right": 9507.0, "uid": "ì©ì¸_130739", "sgg_cd": "41460", "sgg_nm": "ì©ì¸ì", "lclsf_cd": "I", "lclsf_nm": "ìê°íê±´ì¡°ì§", "mclsf_cd": "ID", "mclsf_nm": "êµíµìì¤ì§", "sclsf_cd": "ID2", "sclsf_nm": "ì¼ë°ëë¡", "dclsf_cd": "ID2_2", "dclsf_nm": "ê°ë¡ì ìë ì¼ë°ëë¡", "ldc_lc_cd": "A", "ldc_lc_nm": "ìê°íê±´ì¡°ì§ì­", "ldc_mc_cd": "A5", "ldc_mc_nm": "êµíµì§ì­", "ldc_sc_cd": "A54", "ldc_sc_nm": "ëë¡", "shade": 0.2, "heat_score": 20.25 }, "geometry": { "type": "Point", "coordinates": [ 127.108712600000018, 37.3233819 ] } },
{ "type": "Feature", "properties": { "osmid": 4081276092, "y": 37.3254605, "x": 127.1088092, "junction": null, "street_count": 3, "highway": null, "ref": null, "felt_temp": 36.597774505615234, "heat_grade": 3.0, "index_right": 9507.0, "uid": "ì©ì¸_130739", "sgg_cd": "41460", "sgg_nm": "ì©ì¸ì", "lclsf_cd": "I", "lclsf_nm": "ìê°íê±´ì¡°ì§", "mclsf_cd": "ID", "mclsf_nm": "êµíµìì¤ì§", "sclsf_cd": "ID2", "sclsf_nm": "ì¼ë°ëë¡", "dclsf_cd": "ID2_2", "dclsf_nm": "ê°ë¡ì ìë ì¼ë°ëë¡", "ldc_lc_cd": "A", "ldc_lc_nm": "ìê°íê±´ì¡°ì§ì­", "ldc_mc_cd": "A5", "ldc_mc_nm": "êµíµì§ì­", "ldc_sc_cd": "A54", "ldc_sc_nm": "ëë¡", "shade": 0.2, "heat_score": 21.16 }, "geometry": { "type": "Point", "coordinates": [ 127.1088092, 37.3254605 ] } },
{ "type": "Feature", "properties": { "osmid": 8312646686, "y": 37.3240362, "x": 127.106894, "junction": "yes", "street_count": 3, "highway": null, "ref": null, "felt_temp": 36.526569366455078, "heat_grade": 2.0, "index_right": 6372.0, "uid": "ì©ì¸_119269", "sgg_cd": "41460", "sgg_nm": "ì©ì¸ì", "lclsf_cd": "I", "lclsf_nm": "ìê°íê±´ì¡°ì§", "mclsf_cd": "ID", "mclsf_nm": "êµíµìì¤ì§", "sclsf_cd": "ID2", "sclsf_nm": "ì¼ë°ëë¡", "dclsf_cd": "ID2_1", "dclsf_nm": "ê°ë¡ì ìë ì¼ë°ëë¡", "ldc_lc_cd": "A", "ldc_lc_nm": "ìê°íê±´ì¡°ì§ì­", "ldc_mc_cd": "A5", "ldc_mc_nm": "êµíµì§ì­", "ldc_sc_cd": "A54", "ldc_sc_nm": "ëë¡", "shade": 0.2, "heat_score": 20.72 }, "geometry": { "type": "Point", "coordinates": [ 127.106894, 37.3240362 ] } },
{ "type": "Feature", "properties": { "osmid": 4081273966, "y": 37.3244744, "x": 127.1096565, "junction": null, "street_count": 3, "highway": null, "ref": null, "felt_temp": 37.110321044921875, "heat_grade": 9.0, "index_right": 6385.0, "uid": "ì©ì¸_119252", "sgg_cd": "41460", "sgg_nm": "ì©ì¸ì", "lclsf_cd": "I", "lclsf_nm": "ìê°íê±´ì¡°ì§", "mclsf_cd": "ID", "mclsf_nm": "êµíµìì¤ì§", "sclsf_cd": "ID2", "sclsf_nm": "ì¼ë°ëë¡", "dclsf_cd": "ID2_1", "dclsf_nm": "ê°ë¡ì ìë ì¼ë°ëë¡", "ldc_lc_cd": "A", "ldc_lc_nm": "ìê°íê±´ì¡°ì§ì­", "ldc_mc_cd": "A5", "ldc_mc_nm": "êµíµì§ì­", "ldc_sc_cd": "A54", "ldc_sc_nm": "ëë¡", "shade": 0.2, "heat_score": 23.87 }, "geometry": { "type": "Point", "coordinates": [ 127.109656500000014, 37.3244744 ] } },
{ "type": "Feature", "properties": { "osmid": 4081273924, "y": 37.3254556, "x": 127.1091269, "junction": null, "street_count": 3, "highway": null, "ref": null, "felt_temp": 36.578693389892578, "heat_grade": 2.0, "index_right": 9507.0, "uid": "ì©ì¸_130739", "sgg_cd": "41460", "sgg_nm": "ì©ì¸ì", "lclsf_cd": "I", "lclsf_nm": "ìê°íê±´ì¡°ì§", "mclsf_cd": "ID", "mclsf_nm": "êµíµìì¤ì§", "sclsf_cd": "ID2", "sclsf_nm": "ì¼ë°ëë¡", "dclsf_cd": "ID2_2", "dclsf_nm": "ê°ë¡ì ìë ì¼ë°ëë¡", "ldc_lc_cd": "A", "ldc_lc_nm": "ìê°íê±´ì¡°ì§ì­", "ldc_mc_cd": "A5", "ldc_mc_nm": "êµíµì§ì­", "ldc_sc_cd": "A54", "ldc_sc_nm": "ëë¡", "shade": 0.2, "heat_score": 20.75 }, "geometry": { "type": "Point", "coordinates": [ 127.109126900000021, 37.3254556 ] } },
{ "type": "Feature", "properties": { "osmid": 4081273921, "y": 37.3234178, "x": 127.1088602, "junction": null, "street_count": 3, "highway": null, "ref": null, "felt_temp": 36.398899078369141, "heat_grade": 1.0, "index_right": 9507.0, "uid": "ì©ì¸_130739", "sgg_cd": "41460", "sgg_nm": "ì©ì¸ì", "lclsf_cd": "I", "lclsf_nm": "ìê°íê±´ì¡°ì§", "mclsf_cd": "ID", "mclsf_nm": "êµíµìì¤ì§", "sclsf_cd": "ID2", "sclsf_nm": "ì¼ë°ëë¡", "dclsf_cd": "ID2_2", "dclsf_nm": "ê°ë¡ì ìë ì¼ë°ëë¡", "ldc_lc_cd": "A", "ldc_lc_nm": "ìê°íê±´ì¡°ì§ì­", "ldc_mc_cd": "A5", "ldc_mc_nm": "êµíµì§ì­", "ldc_sc_cd": "A54", "ldc_sc_nm": "ëë¡", "shade": 0.2, "heat_score": 20.24 }, "geometry": { "type": "Point", "coordinates": [ 127.1088602, 37.3234178 ] } },
{ "type": "Feature", "properties": { "osmid": 11092677047, "y": 37.3298998, "x": 127.1090258, "junction": null, "street_count": 3, "highway": null, "ref": null, "felt_temp": 36.815361022949219, "heat_grade": 8.0, "index_right": 8881.0, "uid": "ì©ì¸_121408", "sgg_cd": "41460", "sgg_nm": "ì©ì¸ì", "lclsf_cd": "I", "lclsf_nm": "ìê°íê±´ì¡°ì§", "mclsf_cd": "ID", "mclsf_nm": "êµíµìì¤ì§", "sclsf_cd": "ID2", "sclsf_nm": "ì¼ë°ëë¡", "dclsf_cd": "ID2_1", "dclsf_nm": "ê°ë¡ì ìë ì¼ë°ëë¡", "ldc_lc_cd": "A", "ldc_lc_nm": "ìê°íê±´ì¡°ì§ì­", "ldc_mc_cd": "A5", "ldc_mc_nm": "êµíµì§ì­", "ldc_sc_cd": "A54", "ldc_sc_nm": "ëë¡", "shade": 0.2, "heat_score": 23.29 }, "geometry": { "type": "Point", "coordinates": [ 127.1090258, 37.3298998 ] } },
{ "type": "Feature", "properties": { "osmid": 6222359704, "y": 37.328354, "x": 127.1090606, "junction": null, "street_count": 3, "highway": null, "ref": null, "felt_temp": 36.984081268310547, "heat_grade": 8.0, "index_right": 8881.0, "uid": "ì©ì¸_121408", "sgg_cd": "41460", "sgg_nm": "ì©ì¸ì", "lclsf_cd": "I", "lclsf_nm": "ìê°íê±´ì¡°ì§", "mclsf_cd": "ID", "mclsf_nm": "êµíµìì¤ì§", "sclsf_cd": "ID2", "sclsf_nm": "ì¼ë°ëë¡", "dclsf_cd": "ID2_1", "dclsf_nm": "ê°ë¡ì ìë ì¼ë°ëë¡", "ldc_lc_cd": "A", "ldc_lc_nm": "ìê°íê±´ì¡°ì§ì­", "ldc_mc_cd": "A5", "ldc_mc_nm": "êµíµì§ì­", "ldc_sc_cd": "A54", "ldc_sc_nm": "ëë¡", "shade": 0.2, "heat_score": 23.39 }, "geometry": { "type": "Point", "coordinates": [ 127.109060600000021, 37.328354 ] } },
{ "type": "Feature", "properties": { "osmid": 6222359703, "y": 37.3283336, "x": 127.1108853, "junction": null, "street_count": 3, "highway": null, "ref": null, "felt_temp": 36.433940887451172, "heat_grade": 1.0, "index_right": 8616.0, "uid": "ì©ì¸_119244", "sgg_cd": "41460", "sgg_nm": "ì©ì¸ì", "lclsf_cd": "I", "lclsf_nm": "ìê°íê±´ì¡°ì§", "mclsf_cd": "ID", "mclsf_nm": "êµíµìì¤ì§", "sclsf_cd": "ID2", "sclsf_nm": "ì¼ë°ëë¡", "dclsf_cd": "ID2_2", "dclsf_nm": "ê°ë¡ì ìë ì¼ë°ëë¡", "ldc_lc_cd": "A", "ldc_lc_nm": "ìê°íê±´ì¡°ì§ì­", "ldc_mc_cd": "A5", "ldc_mc_nm": "êµíµì§ì­", "ldc_sc_cd": "A54", "ldc_sc_nm": "ëë¡", "shade": 0.2, "heat_score": 20.26 }, "geometry": { "type": "Point", "coordinates": [ 127.1108853, 37.3283336 ] } },
{ "type": "Feature", "properties": { "osmid": 9699300638, "y": 37.3303528, "x": 127.112008, "junction": null, "street_count": 3, "highway": null, "ref": null, "felt_temp": 36.861129760742188, "heat_grade": 8.0, "index_right": 8881.0, "uid": "ì©ì¸_121408", "sgg_cd": "41460", "sgg_nm": "ì©ì¸ì", "lclsf_cd": "I", "lclsf_nm": "ìê°íê±´ì¡°ì§", "mclsf_cd": "ID", "mclsf_nm": "êµíµìì¤ì§", "sclsf_cd": "ID2", "sclsf_nm": "ì¼ë°ëë¡", "dclsf_cd": "ID2_1", "dclsf_nm": "ê°ë¡ì ìë ì¼ë°ëë¡", "ldc_lc_cd": "A", "ldc_lc_nm": "ìê°íê±´ì¡°ì§ì­", "ldc_mc_cd": "A5", "ldc_mc_nm": "êµíµì§ì­", "ldc_sc_cd": "A54", "ldc_sc_nm": "ëë¡", "shade": 0.2, "heat_score": 23.32 }, "geometry": { "type": "Point", "coordinates": [ 127.112008, 37.3303528 ] } },
{ "type": "Feature", "properties": { "osmid": 9699300635, "y": 37.3315098, "x": 127.111489, "junction": null, "street_count": 3, "highway": null, "ref": null, "felt_temp": 36.566013336181641, "heat_grade": 2.0, "index_right": 8881.0, "uid": "ì©ì¸_121408", "sgg_cd": "41460", "sgg_nm": "ì©ì¸ì", "lclsf_cd": "I", "lclsf_nm": "ìê°íê±´ì¡°ì§", "mclsf_cd": "ID", "mclsf_nm": "êµíµìì¤ì§", "sclsf_cd": "ID2", "sclsf_nm": "ì¼ë°ëë¡", "dclsf_cd": "ID2_1", "dclsf_nm": "ê°ë¡ì ìë ì¼ë°ëë¡", "ldc_lc_cd": "A", "ldc_lc_nm": "ìê°íê±´ì¡°ì§ì­", "ldc_mc_cd": "A5", "ldc_mc_nm": "êµíµì§ì­", "ldc_sc_cd": "A54", "ldc_sc_nm": "ëë¡", "shade": 0.2, "heat_score": 20.74 }, "geometry": { "type": "Point", "coordinates": [ 127.111489, 37.3315098 ] } },
{ "type": "Feature", "properties": { "osmid": 2933795642, "y": 37.3315109, "x": 127.111813, "junction": "yes", "street_count": 3, "highway": null, "ref": null, "felt_temp": 36.879951477050781, "heat_grade": 8.0, "index_right": 8881.0, "uid": "ì©ì¸_121408", "sgg_cd": "41460", "sgg_nm": "ì©ì¸ì", "lclsf_cd": "I", "lclsf_nm": "ìê°íê±´ì¡°ì§", "mclsf_cd": "ID", "mclsf_nm": "êµíµìì¤ì§", "sclsf_cd": "ID2", "sclsf_nm": "ì¼ë°ëë¡", "dclsf_cd": "ID2_1", "dclsf_nm": "ê°ë¡ì ìë ì¼ë°ëë¡", "ldc_lc_cd": "A", "ldc_lc_nm": "ìê°íê±´ì¡°ì§ì­", "ldc_mc_cd": "A5", "ldc_mc_nm": "êµíµì§ì­", "ldc_sc_cd": "A54", "ldc_sc_nm": "ëë¡", "shade": 0.2, "heat_score": 23.33 }, "geometry": { "type": "Point", "coordinates": [ 127.111813, 37.3315109 ] } },
{ "type": "Feature", "properties": { "osmid": 2405708154, "y": 37.3315314, "x": 127.1127594, "junction": null, "street_count": 4, "highway": null, "ref": null, "felt_temp": 36.906314849853516, "heat_grade": 8.0, "index_right": 8881.0, "uid": "ì©ì¸_121408", "sgg_cd": "41460", "sgg_nm": "ì©ì¸ì", "lclsf_cd": "I", "lclsf_nm": "ìê°íê±´ì¡°ì§", "mclsf_cd": "ID", "mclsf_nm": "êµíµìì¤ì§", "sclsf_cd": "ID2", "sclsf_nm": "ì¼ë°ëë¡", "dclsf_cd": "ID2_1", "dclsf_nm": "ê°ë¡ì ìë ì¼ë°ëë¡", "ldc_lc_cd": "A", "ldc_lc_nm": "ìê°íê±´ì¡°ì§ì­", "ldc_mc_cd": "A5", "ldc_mc_nm": "êµíµì§ì­", "ldc_sc_cd": "A54", "ldc_sc_nm": "ëë¡", "shade": 0.2, "heat_score": 23.34 }, "geometry": { "type": "Point", "coordinates": [ 127.112759399999987, 37.3315314 ] } },
{ "type": "Feature", "properties": { "osmid": 6218931588, "y": 37.3330262, "x": 127.1127669, "junction": null, "street_count": 3, "highway": null, "ref": null, "felt_temp": 36.780826568603516, "heat_grade": 7.0, "index_right": 7406.0, "uid": "ì©ì¸_119242", "sgg_cd": "41460", "sgg_nm": "ì©ì¸ì", "lclsf_cd": "I", "lclsf_nm": "ìê°íê±´ì¡°ì§", "mclsf_cd": "ID", "mclsf_nm": "êµíµìì¤ì§", "sclsf_cd": "ID2", "sclsf_nm": "ì¼ë°ëë¡", "dclsf_cd": "ID2_2", "dclsf_nm": "ê°ë¡ì ìë ì¼ë°ëë¡", "ldc_lc_cd": "A", "ldc_lc_nm": "ìê°íê±´ì¡°ì§ì­", "ldc_mc_cd": "A5", "ldc_mc_nm": "êµíµì§ì­", "ldc_sc_cd": "A54", "ldc_sc_nm": "ëë¡", "shade": 0.2, "heat_score": 22.87 }, "geometry": { "type": "Point", "coordinates": [ 127.112766900000011, 37.3330262 ] } },
{ "type": "Feature", "properties": { "osmid": 4730531215, "y": 37.3330369, "x": 127.1117945, "junction": null, "street_count": 4, "highway": null, "ref": null, "felt_temp": 36.290882110595703, "heat_grade": 1.0, "index_right": 8881.0, "uid": "ì©ì¸_121408", "sgg_cd": "41460", "sgg_nm": "ì©ì¸ì", "lclsf_cd": "I", "lclsf_nm": "ìê°íê±´ì¡°ì§", "mclsf_cd": "ID", "mclsf_nm": "êµíµìì¤ì§", "sclsf_cd": "ID2", "sclsf_nm": "ì¼ë°ëë¡", "dclsf_cd": "ID2_1", "dclsf_nm": "ê°ë¡ì ìë ì¼ë°ëë¡", "ldc_lc_cd": "A", "ldc_lc_nm": "ìê°íê±´ì¡°ì§ì­", "ldc_mc_cd": "A5", "ldc_mc_nm": "êµíµì§ì­", "ldc_sc_cd": "A54", "ldc_sc_nm": "ëë¡", "shade": 0.2, "heat_score": 20.17 }, "geometry": { "type": "Point", "coordinates": [ 127.111794500000016, 37.33303690000001 ] } },
{ "type": "Feature", "properties": { "osmid": 2405708194, "y": 37.3330487, "x": 127.1114251, "junction": null, "street_count": 3, "highway": null, "ref": null, "felt_temp": 36.345329284667969, "heat_grade": 1.0, "index_right": 8934.0, "uid": "ì©ì¸_119236", "sgg_cd": "41460", "sgg_nm": "ì©ì¸ì", "lclsf_cd": "I", "lclsf_nm": "ìê°íê±´ì¡°ì§", "mclsf_cd": "ID", "mclsf_nm": "êµíµìì¤ì§", "sclsf_cd": "ID2", "sclsf_nm": "ì¼ë°ëë¡", "dclsf_cd": "ID2_2", "dclsf_nm": "ê°ë¡ì ìë ì¼ë°ëë¡", "ldc_lc_cd": "A", "ldc_lc_nm": "ìê°íê±´ì¡°ì§ì­", "ldc_mc_cd": "A5", "ldc_mc_nm": "êµíµì§ì­", "ldc_sc_cd": "A54", "ldc_sc_nm": "ëë¡", "shade": 0.2, "heat_score": 20.21 }, "geometry": { "type": "Point", "coordinates": [ 127.111425100000019, 37.3330487 ] } }
]
}
